<Folder>
<name>SV 11 234.148821 10.852392</name>
<visibility>1</visibility>
<Placemark>
<name>circle</name>
<visibility>1</visibility>
<Style>
<geomColor></geomColor>
<geomScale>2</geomScale></Style>
<LineString>
<coordinates>
113.5718495,22.9037333,0 
113.5718498,22.9037330,0 
113.5718501,22.9037327,0 
113.5718505,22.9037324,0 
113.5718509,22.9037322,0 
113.5718513,22.9037320,0 
113.5718518,22.9037318,0 
113.5718523,22.9037316,0 
113.5718528,22.9037315,0 
113.5718534,22.9037314,0 
113.5718540,22.9037313,0 
113.5718547,22.9037313,0 
113.5718554,22.9037313,0 
113.5718561,22.9037313,0 
113.5718569,22.9037313,0 
113.5718577,22.9037314,0 
113.5718586,22.9037315,0 
113.5718595,22.9037316,0 
113.5718604,22.9037317,0 
113.5718613,22.9037319,0 
113.5718623,22.9037321,0 
113.5718633,22.9037323,0 
113.5718644,22.9037326,0 
113.5718655,22.9037329,0 
113.5718666,22.9037332,0 
113.5718678,22.9037335,0 
113.5718689,22.9037339,0 
113.5718701,22.9037342,0 
113.5718714,22.9037347,0 
113.5718727,22.9037351,0 
113.5718740,22.9037356,0 
113.5718753,22.9037360,0 
113.5718767,22.9037366,0 
113.5718781,22.9037371,0 
113.5718795,22.9037376,0 
113.5718809,22.9037382,0 
113.5718824,22.9037388,0 
113.5718839,22.9037395,0 
113.5718854,22.9037401,0 
113.5718869,22.9037408,0 
113.5718885,22.9037415,0 
113.5718901,22.9037422,0 
113.5718917,22.9037430,0 
113.5718933,22.9037438,0 
113.5718950,22.9037446,0 
113.5718967,22.9037454,0 
113.5718983,22.9037462,0 
113.5719001,22.9037471,0 
113.5719018,22.9037479,0 
113.5719035,22.9037488,0 
113.5719053,22.9037498,0 
113.5719070,22.9037507,0 
113.5719088,22.9037516,0 
113.5719106,22.9037526,0 
113.5719124,22.9037536,0 
113.5719143,22.9037546,0 
113.5719161,22.9037556,0 
113.5719180,22.9037567,0 
113.5719198,22.9037577,0 
113.5719217,22.9037588,0 
113.5719236,22.9037599,0 
113.5719254,22.9037610,0 
113.5719273,22.9037621,0 
113.5719292,22.9037632,0 
113.5719311,22.9037644,0 
113.5719330,22.9037655,0 
113.5719349,22.9037667,0 
113.5719368,22.9037679,0 
113.5719387,22.9037691,0 
113.5719406,22.9037703,0 
113.5719425,22.9037715,0 
113.5719444,22.9037727,0 
113.5719463,22.9037740,0 
113.5719482,22.9037752,0 
113.5719501,22.9037764,0 
113.5719520,22.9037777,0 
113.5719539,22.9037790,0 
113.5719558,22.9037802,0 
113.5719577,22.9037815,0 
113.5719595,22.9037828,0 
113.5719614,22.9037841,0 
113.5719633,22.9037853,0 
113.5719651,22.9037866,0 
113.5719669,22.9037879,0 
113.5719687,22.9037892,0 
113.5719705,22.9037905,0 
113.5719723,22.9037918,0 
113.5719741,22.9037931,0 
113.5719759,22.9037944,0 
113.5719776,22.9037957,0 
113.5719793,22.9037970,0 
113.5719810,22.9037983,0 
113.5719827,22.9037996,0 
113.5719844,22.9038009,0 
113.5719860,22.9038022,0 
113.5719877,22.9038035,0 
113.5719893,22.9038048,0 
113.5719909,22.9038060,0 
113.5719924,22.9038073,0 
113.5719940,22.9038086,0 
113.5719955,22.9038098,0 
113.5719970,22.9038111,0 
113.5719985,22.9038123,0 
113.5719999,22.9038135,0 
113.5720013,22.9038148,0 
113.5720027,22.9038160,0 
113.5720041,22.9038172,0 
113.5720054,22.9038184,0 
113.5720067,22.9038196,0 
113.5720080,22.9038207,0 
113.5720093,22.9038219,0 
113.5720105,22.9038231,0 
113.5720117,22.9038242,0 
113.5720128,22.9038253,0 
113.5720139,22.9038264,0 
113.5720150,22.9038275,0 
113.5720161,22.9038286,0 
113.5720171,22.9038296,0 
113.5720181,22.9038307,0 
113.5720191,22.9038317,0 
113.5720200,22.9038327,0 
113.5720209,22.9038337,0 
113.5720217,22.9038347,0 
113.5720225,22.9038357,0 
113.5720233,22.9038366,0 
113.5720241,22.9038375,0 
113.5720248,22.9038384,0 
113.5720254,22.9038393,0 
113.5720260,22.9038402,0 
113.5720266,22.9038410,0 
113.5720272,22.9038418,0 
113.5720277,22.9038427,0 
113.5720282,22.9038434,0 
113.5720286,22.9038442,0 
113.5720290,22.9038449,0 
113.5720294,22.9038456,0 
113.5720297,22.9038463,0 
113.5720300,22.9038470,0 
113.5720302,22.9038476,0 
113.5720304,22.9038482,0 
113.5720306,22.9038488,0 
113.5720307,22.9038494,0 
113.5720308,22.9038500,0 
113.5720308,22.9038505,0 
113.5720308,22.9038510,0 
113.5720308,22.9038514,0 
113.5720307,22.9038519,0 
113.5720306,22.9038523,0 
113.5720304,22.9038527,0 
113.5720302,22.9038531,0 
113.5720300,22.9038534,0 
113.5720297,22.9038537,0 
113.5720294,22.9038540,0 
113.5720291,22.9038543,0 
113.5720287,22.9038545,0 
113.5720282,22.9038547,0 
113.5720278,22.9038549,0 
113.5720272,22.9038551,0 
113.5720267,22.9038552,0 
113.5720261,22.9038553,0 
113.5720255,22.9038553,0 
113.5720248,22.9038554,0 
113.5720241,22.9038554,0 
113.5720234,22.9038554,0 
113.5720226,22.9038554,0 
113.5720218,22.9038553,0 
113.5720209,22.9038552,0 
113.5720201,22.9038551,0 
113.5720191,22.9038550,0 
113.5720182,22.9038548,0 
113.5720172,22.9038546,0 
113.5720162,22.9038544,0 
113.5720151,22.9038541,0 
113.5720140,22.9038538,0 
113.5720129,22.9038535,0 
113.5720118,22.9038532,0 
113.5720106,22.9038528,0 
113.5720094,22.9038524,0 
113.5720081,22.9038520,0 
113.5720069,22.9038516,0 
113.5720056,22.9038511,0 
113.5720042,22.9038506,0 
113.5720029,22.9038501,0 
113.5720015,22.9038496,0 
113.5720001,22.9038490,0 
113.5719986,22.9038485,0 
113.5719971,22.9038478,0 
113.5719956,22.9038472,0 
113.5719941,22.9038466,0 
113.5719926,22.9038459,0 
113.5719910,22.9038452,0 
113.5719894,22.9038444,0 
113.5719878,22.9038437,0 
113.5719862,22.9038429,0 
113.5719845,22.9038421,0 
113.5719829,22.9038413,0 
113.5719812,22.9038405,0 
113.5719795,22.9038396,0 
113.5719777,22.9038387,0 
113.5719760,22.9038378,0 
113.5719743,22.9038369,0 
113.5719725,22.9038360,0 
113.5719707,22.9038350,0 
113.5719689,22.9038341,0 
113.5719671,22.9038331,0 
113.5719653,22.9038321,0 
113.5719634,22.9038310,0 
113.5719616,22.9038300,0 
113.5719597,22.9038289,0 
113.5719578,22.9038279,0 
113.5719560,22.9038268,0 
113.5719541,22.9038257,0 
113.5719522,22.9038246,0 
113.5719503,22.9038234,0 
113.5719484,22.9038223,0 
113.5719465,22.9038211,0 
113.5719446,22.9038200,0 
113.5719427,22.9038188,0 
113.5719408,22.9038176,0 
113.5719389,22.9038164,0 
113.5719370,22.9038152,0 
113.5719351,22.9038140,0 
113.5719332,22.9038127,0 
113.5719313,22.9038115,0 
113.5719294,22.9038102,0 
113.5719275,22.9038090,0 
113.5719256,22.9038077,0 
113.5719237,22.9038065,0 
113.5719218,22.9038052,0 
113.5719200,22.9038039,0 
113.5719181,22.9038026,0 
113.5719163,22.9038013,0 
113.5719144,22.9038001,0 
113.5719126,22.9037988,0 
113.5719108,22.9037975,0 
113.5719090,22.9037962,0 
113.5719072,22.9037949,0 
113.5719054,22.9037936,0 
113.5719037,22.9037923,0 
113.5719019,22.9037910,0 
113.5719002,22.9037897,0 
113.5718985,22.9037884,0 
113.5718968,22.9037871,0 
113.5718951,22.9037858,0 
113.5718935,22.9037845,0 
113.5718918,22.9037832,0 
113.5718902,22.9037819,0 
113.5718886,22.9037807,0 
113.5718871,22.9037794,0 
113.5718855,22.9037781,0 
113.5718840,22.9037769,0 
113.5718825,22.9037756,0 
113.5718810,22.9037744,0 
113.5718796,22.9037731,0 
113.5718782,22.9037719,0 
113.5718768,22.9037707,0 
113.5718754,22.9037695,0 
113.5718741,22.9037683,0 
113.5718728,22.9037671,0 
113.5718715,22.9037659,0 
113.5718703,22.9037648,0 
113.5718690,22.9037636,0 
113.5718679,22.9037625,0 
113.5718667,22.9037614,0 
113.5718656,22.9037603,0 
113.5718645,22.9037592,0 
113.5718634,22.9037581,0 
113.5718624,22.9037570,0 
113.5718614,22.9037560,0 
113.5718605,22.9037550,0 
113.5718595,22.9037540,0 
113.5718587,22.9037530,0 
113.5718578,22.9037520,0 
113.5718570,22.9037510,0 
113.5718562,22.9037501,0 
113.5718555,22.9037492,0 
113.5718548,22.9037482,0 
113.5718541,22.9037474,0 
113.5718535,22.9037465,0 
113.5718529,22.9037457,0 
113.5718523,22.9037448,0 
113.5718518,22.9037440,0 
113.5718513,22.9037433,0 
113.5718509,22.9037425,0 
113.5718505,22.9037418,0 
113.5718501,22.9037411,0 
113.5718498,22.9037404,0 
113.5718495,22.9037397,0 
113.5718493,22.9037391,0 
113.5718491,22.9037384,0 
113.5718489,22.9037378,0 
113.5718488,22.9037373,0 
113.5718487,22.9037367,0 
113.5718487,22.9037362,0 
113.5718487,22.9037357,0 
113.5718487,22.9037352,0 
113.5718488,22.9037348,0 
113.5718489,22.9037344,0 
113.5718491,22.9037340,0 
113.5718493,22.9037336,0 
113.5718495,22.9037333,0 
</coordinates>
</LineString>
</Placemark>
</Folder>