<Folder>
<name>SV 11 231.249675 7.704685</name>
<visibility>1</visibility>
<Placemark>
<name>circle</name>
<visibility>1</visibility>
<Style>
<geomColor></geomColor>
<geomScale>2</geomScale></Style>
<LineString>
<coordinates>
113.5717197,22.9036188,0 
113.5717200,22.9036184,0 
113.5717204,22.9036181,0 
113.5717209,22.9036179,0 
113.5717215,22.9036177,0 
113.5717221,22.9036175,0 
113.5717228,22.9036174,0 
113.5717235,22.9036173,0 
113.5717244,22.9036173,0 
113.5717252,22.9036173,0 
113.5717262,22.9036174,0 
113.5717272,22.9036175,0 
113.5717282,22.9036177,0 
113.5717293,22.9036179,0 
113.5717305,22.9036182,0 
113.5717317,22.9036185,0 
113.5717330,22.9036189,0 
113.5717344,22.9036193,0 
113.5717358,22.9036197,0 
113.5717373,22.9036203,0 
113.5717388,22.9036208,0 
113.5717404,22.9036214,0 
113.5717420,22.9036221,0 
113.5717437,22.9036228,0 
113.5717455,22.9036235,0 
113.5717473,22.9036243,0 
113.5717491,22.9036251,0 
113.5717510,22.9036260,0 
113.5717530,22.9036269,0 
113.5717550,22.9036279,0 
113.5717571,22.9036289,0 
113.5717592,22.9036299,0 
113.5717613,22.9036310,0 
113.5717635,22.9036322,0 
113.5717657,22.9036334,0 
113.5717680,22.9036346,0 
113.5717704,22.9036358,0 
113.5717727,22.9036371,0 
113.5717752,22.9036385,0 
113.5717776,22.9036399,0 
113.5717801,22.9036413,0 
113.5717826,22.9036427,0 
113.5717852,22.9036442,0 
113.5717878,22.9036458,0 
113.5717904,22.9036473,0 
113.5717931,22.9036489,0 
113.5717958,22.9036506,0 
113.5717985,22.9036522,0 
113.5718013,22.9036540,0 
113.5718041,22.9036557,0 
113.5718069,22.9036575,0 
113.5718098,22.9036593,0 
113.5718126,22.9036611,0 
113.5718155,22.9036629,0 
113.5718185,22.9036648,0 
113.5718214,22.9036667,0 
113.5718244,22.9036687,0 
113.5718273,22.9036706,0 
113.5718303,22.9036726,0 
113.5718333,22.9036746,0 
113.5718364,22.9036767,0 
113.5718394,22.9036787,0 
113.5718425,22.9036808,0 
113.5718455,22.9036829,0 
113.5718486,22.9036850,0 
113.5718517,22.9036872,0 
113.5718548,22.9036893,0 
113.5718579,22.9036915,0 
113.5718610,22.9036937,0 
113.5718641,22.9036959,0 
113.5718672,22.9036981,0 
113.5718703,22.9037004,0 
113.5718733,22.9037026,0 
113.5718764,22.9037049,0 
113.5718795,22.9037071,0 
113.5718826,22.9037094,0 
113.5718857,22.9037117,0 
113.5718888,22.9037140,0 
113.5718918,22.9037163,0 
113.5718949,22.9037186,0 
113.5718979,22.9037209,0 
113.5719009,22.9037232,0 
113.5719039,22.9037255,0 
113.5719069,22.9037278,0 
113.5719099,22.9037301,0 
113.5719129,22.9037324,0 
113.5719158,22.9037347,0 
113.5719187,22.9037370,0 
113.5719216,22.9037393,0 
113.5719245,22.9037416,0 
113.5719273,22.9037439,0 
113.5719301,22.9037462,0 
113.5719329,22.9037485,0 
113.5719357,22.9037507,0 
113.5719384,22.9037530,0 
113.5719411,22.9037552,0 
113.5719438,22.9037575,0 
113.5719464,22.9037597,0 
113.5719490,22.9037619,0 
113.5719515,22.9037641,0 
113.5719541,22.9037662,0 
113.5719565,22.9037684,0 
113.5719590,22.9037705,0 
113.5719614,22.9037726,0 
113.5719638,22.9037747,0 
113.5719661,22.9037768,0 
113.5719684,22.9037789,0 
113.5719706,22.9037809,0 
113.5719728,22.9037829,0 
113.5719749,22.9037849,0 
113.5719770,22.9037869,0 
113.5719790,22.9037888,0 
113.5719810,22.9037907,0 
113.5719830,22.9037926,0 
113.5719849,22.9037944,0 
113.5719867,22.9037963,0 
113.5719885,22.9037981,0 
113.5719902,22.9037998,0 
113.5719919,22.9038015,0 
113.5719936,22.9038032,0 
113.5719951,22.9038049,0 
113.5719966,22.9038065,0 
113.5719981,22.9038081,0 
113.5719995,22.9038097,0 
113.5720008,22.9038112,0 
113.5720021,22.9038127,0 
113.5720033,22.9038142,0 
113.5720045,22.9038156,0 
113.5720056,22.9038169,0 
113.5720067,22.9038183,0 
113.5720076,22.9038196,0 
113.5720086,22.9038208,0 
113.5720094,22.9038220,0 
113.5720102,22.9038232,0 
113.5720109,22.9038243,0 
113.5720116,22.9038254,0 
113.5720122,22.9038265,0 
113.5720128,22.9038275,0 
113.5720132,22.9038284,0 
113.5720136,22.9038293,0 
113.5720140,22.9038302,0 
113.5720143,22.9038310,0 
113.5720145,22.9038318,0 
113.5720147,22.9038325,0 
113.5720147,22.9038332,0 
113.5720148,22.9038339,0 
113.5720147,22.9038345,0 
113.5720146,22.9038350,0 
113.5720145,22.9038355,0 
113.5720142,22.9038360,0 
113.5720139,22.9038364,0 
113.5720136,22.9038367,0 
113.5720131,22.9038370,0 
113.5720126,22.9038373,0 
113.5720121,22.9038375,0 
113.5720115,22.9038377,0 
113.5720108,22.9038378,0 
113.5720100,22.9038378,0 
113.5720092,22.9038379,0 
113.5720083,22.9038378,0 
113.5720074,22.9038378,0 
113.5720064,22.9038376,0 
113.5720054,22.9038375,0 
113.5720042,22.9038372,0 
113.5720031,22.9038370,0 
113.5720018,22.9038367,0 
113.5720005,22.9038363,0 
113.5719992,22.9038359,0 
113.5719978,22.9038354,0 
113.5719963,22.9038349,0 
113.5719948,22.9038343,0 
113.5719932,22.9038337,0 
113.5719915,22.9038331,0 
113.5719898,22.9038324,0 
113.5719881,22.9038317,0 
113.5719863,22.9038309,0 
113.5719844,22.9038300,0 
113.5719825,22.9038292,0 
113.5719806,22.9038282,0 
113.5719786,22.9038273,0 
113.5719765,22.9038263,0 
113.5719744,22.9038252,0 
113.5719723,22.9038241,0 
113.5719701,22.9038230,0 
113.5719678,22.9038218,0 
113.5719655,22.9038206,0 
113.5719632,22.9038193,0 
113.5719608,22.9038180,0 
113.5719584,22.9038167,0 
113.5719560,22.9038153,0 
113.5719535,22.9038139,0 
113.5719509,22.9038124,0 
113.5719484,22.9038109,0 
113.5719458,22.9038094,0 
113.5719431,22.9038078,0 
113.5719405,22.9038062,0 
113.5719378,22.9038046,0 
113.5719350,22.9038029,0 
113.5719323,22.9038012,0 
113.5719295,22.9037995,0 
113.5719266,22.9037977,0 
113.5719238,22.9037959,0 
113.5719209,22.9037941,0 
113.5719180,22.9037922,0 
113.5719151,22.9037903,0 
113.5719122,22.9037884,0 
113.5719092,22.9037865,0 
113.5719062,22.9037845,0 
113.5719032,22.9037825,0 
113.5719002,22.9037805,0 
113.5718972,22.9037785,0 
113.5718942,22.9037764,0 
113.5718911,22.9037743,0 
113.5718880,22.9037722,0 
113.5718850,22.9037701,0 
113.5718819,22.9037680,0 
113.5718788,22.9037658,0 
113.5718757,22.9037636,0 
113.5718726,22.9037614,0 
113.5718695,22.9037592,0 
113.5718664,22.9037570,0 
113.5718633,22.9037548,0 
113.5718602,22.9037525,0 
113.5718571,22.9037503,0 
113.5718540,22.9037480,0 
113.5718510,22.9037458,0 
113.5718479,22.9037435,0 
113.5718448,22.9037412,0 
113.5718417,22.9037389,0 
113.5718387,22.9037366,0 
113.5718357,22.9037343,0 
113.5718326,22.9037320,0 
113.5718296,22.9037297,0 
113.5718266,22.9037274,0 
113.5718237,22.9037250,0 
113.5718207,22.9037227,0 
113.5718178,22.9037204,0 
113.5718149,22.9037181,0 
113.5718120,22.9037158,0 
113.5718091,22.9037135,0 
113.5718063,22.9037112,0 
113.5718034,22.9037090,0 
113.5718007,22.9037067,0 
113.5717979,22.9037044,0 
113.5717952,22.9037022,0 
113.5717925,22.9036999,0 
113.5717898,22.9036977,0 
113.5717872,22.9036955,0 
113.5717846,22.9036933,0 
113.5717820,22.9036911,0 
113.5717795,22.9036889,0 
113.5717770,22.9036868,0 
113.5717746,22.9036846,0 
113.5717722,22.9036825,0 
113.5717698,22.9036804,0 
113.5717675,22.9036783,0 
113.5717652,22.9036763,0 
113.5717630,22.9036743,0 
113.5717608,22.9036722,0 
113.5717587,22.9036703,0 
113.5717566,22.9036683,0 
113.5717545,22.9036664,0 
113.5717525,22.9036645,0 
113.5717506,22.9036626,0 
113.5717487,22.9036607,0 
113.5717468,22.9036589,0 
113.5717451,22.9036571,0 
113.5717433,22.9036553,0 
113.5717416,22.9036536,0 
113.5717400,22.9036519,0 
113.5717384,22.9036503,0 
113.5717369,22.9036486,0 
113.5717355,22.9036470,0 
113.5717341,22.9036455,0 
113.5717327,22.9036439,0 
113.5717314,22.9036425,0 
113.5717302,22.9036410,0 
113.5717291,22.9036396,0 
113.5717280,22.9036382,0 
113.5717269,22.9036369,0 
113.5717259,22.9036356,0 
113.5717250,22.9036343,0 
113.5717242,22.9036331,0 
113.5717234,22.9036320,0 
113.5717226,22.9036308,0 
113.5717220,22.9036297,0 
113.5717214,22.9036287,0 
113.5717208,22.9036277,0 
113.5717203,22.9036267,0 
113.5717199,22.9036258,0 
113.5717196,22.9036250,0 
113.5717193,22.9036241,0 
113.5717191,22.9036234,0 
113.5717189,22.9036226,0 
113.5717188,22.9036219,0 
113.5717188,22.9036213,0 
113.5717188,22.9036207,0 
113.5717189,22.9036202,0 
113.5717191,22.9036197,0 
113.5717194,22.9036192,0 
113.5717197,22.9036188,0 
</coordinates>
</LineString>
</Placemark>
</Folder>