<Folder>
<name>SV 26 185.585623 5.289194</name>
<visibility>1</visibility>
<Placemark>
<name>circle</name>
<visibility>1</visibility>
<Style>
<geomColor>FF1E69D2</geomColor>
<geomScale>2</geomScale></Style>
<LineString>
<coordinates>
113.5720178,22.9031258,0 
113.5720185,22.9031258,0 
113.5720192,22.9031260,0 
113.5720198,22.9031262,0 
113.5720206,22.9031267,0 
113.5720213,22.9031272,0 
113.5720220,22.9031279,0 
113.5720228,22.9031288,0 
113.5720235,22.9031297,0 
113.5720243,22.9031308,0 
113.5720251,22.9031321,0 
113.5720259,22.9031334,0 
113.5720267,22.9031350,0 
113.5720275,22.9031366,0 
113.5720283,22.9031384,0 
113.5720292,22.9031403,0 
113.5720300,22.9031423,0 
113.5720309,22.9031445,0 
113.5720317,22.9031468,0 
113.5720326,22.9031492,0 
113.5720335,22.9031518,0 
113.5720344,22.9031545,0 
113.5720353,22.9031573,0 
113.5720362,22.9031602,0 
113.5720371,22.9031633,0 
113.5720380,22.9031665,0 
113.5720389,22.9031698,0 
113.5720398,22.9031732,0 
113.5720408,22.9031767,0 
113.5720417,22.9031804,0 
113.5720427,22.9031841,0 
113.5720436,22.9031880,0 
113.5720446,22.9031920,0 
113.5720455,22.9031961,0 
113.5720465,22.9032003,0 
113.5720474,22.9032046,0 
113.5720484,22.9032090,0 
113.5720493,22.9032135,0 
113.5720503,22.9032181,0 
113.5720513,22.9032229,0 
113.5720522,22.9032277,0 
113.5720532,22.9032326,0 
113.5720541,22.9032375,0 
113.5720551,22.9032426,0 
113.5720560,22.9032478,0 
113.5720570,22.9032530,0 
113.5720579,22.9032584,0 
113.5720589,22.9032638,0 
113.5720598,22.9032693,0 
113.5720608,22.9032748,0 
113.5720617,22.9032805,0 
113.5720626,22.9032862,0 
113.5720636,22.9032919,0 
113.5720645,22.9032978,0 
113.5720654,22.9033037,0 
113.5720663,22.9033096,0 
113.5720672,22.9033156,0 
113.5720681,22.9033217,0 
113.5720690,22.9033278,0 
113.5720699,22.9033340,0 
113.5720708,22.9033402,0 
113.5720716,22.9033465,0 
113.5720725,22.9033528,0 
113.5720733,22.9033591,0 
113.5720742,22.9033655,0 
113.5720750,22.9033719,0 
113.5720758,22.9033784,0 
113.5720766,22.9033848,0 
113.5720774,22.9033913,0 
113.5720782,22.9033978,0 
113.5720789,22.9034044,0 
113.5720797,22.9034109,0 
113.5720805,22.9034175,0 
113.5720812,22.9034240,0 
113.5720819,22.9034306,0 
113.5720826,22.9034372,0 
113.5720833,22.9034438,0 
113.5720840,22.9034503,0 
113.5720846,22.9034569,0 
113.5720853,22.9034635,0 
113.5720859,22.9034700,0 
113.5720865,22.9034766,0 
113.5720871,22.9034831,0 
113.5720877,22.9034896,0 
113.5720883,22.9034961,0 
113.5720889,22.9035026,0 
113.5720894,22.9035090,0 
113.5720899,22.9035154,0 
113.5720904,22.9035218,0 
113.5720909,22.9035281,0 
113.5720914,22.9035344,0 
113.5720918,22.9035407,0 
113.5720923,22.9035469,0 
113.5720927,22.9035531,0 
113.5720931,22.9035592,0 
113.5720935,22.9035652,0 
113.5720938,22.9035712,0 
113.5720942,22.9035772,0 
113.5720945,22.9035831,0 
113.5720948,22.9035889,0 
113.5720951,22.9035947,0 
113.5720953,22.9036004,0 
113.5720956,22.9036060,0 
113.5720958,22.9036115,0 
113.5720960,22.9036170,0 
113.5720962,22.9036224,0 
113.5720964,22.9036277,0 
113.5720965,22.9036330,0 
113.5720967,22.9036381,0 
113.5720968,22.9036432,0 
113.5720969,22.9036482,0 
113.5720969,22.9036530,0 
113.5720970,22.9036578,0 
113.5720970,22.9036625,0 
113.5720970,22.9036671,0 
113.5720970,22.9036716,0 
113.5720970,22.9036760,0 
113.5720969,22.9036803,0 
113.5720968,22.9036845,0 
113.5720967,22.9036886,0 
113.5720966,22.9036926,0 
113.5720965,22.9036964,0 
113.5720964,22.9037002,0 
113.5720962,22.9037038,0 
113.5720960,22.9037073,0 
113.5720958,22.9037107,0 
113.5720955,22.9037140,0 
113.5720953,22.9037172,0 
113.5720950,22.9037202,0 
113.5720947,22.9037231,0 
113.5720944,22.9037259,0 
113.5720941,22.9037286,0 
113.5720938,22.9037311,0 
113.5720934,22.9037335,0 
113.5720930,22.9037358,0 
113.5720926,22.9037380,0 
113.5720922,22.9037400,0 
113.5720918,22.9037419,0 
113.5720913,22.9037437,0 
113.5720908,22.9037453,0 
113.5720903,22.9037468,0 
113.5720898,22.9037481,0 
113.5720893,22.9037494,0 
113.5720888,22.9037505,0 
113.5720882,22.9037514,0 
113.5720876,22.9037522,0 
113.5720870,22.9037529,0 
113.5720864,22.9037534,0 
113.5720858,22.9037538,0 
113.5720852,22.9037541,0 
113.5720845,22.9037542,0 
113.5720839,22.9037542,0 
113.5720832,22.9037541,0 
113.5720825,22.9037538,0 
113.5720818,22.9037534,0 
113.5720811,22.9037528,0 
113.5720803,22.9037521,0 
113.5720796,22.9037513,0 
113.5720788,22.9037503,0 
113.5720780,22.9037492,0 
113.5720773,22.9037480,0 
113.5720765,22.9037466,0 
113.5720757,22.9037451,0 
113.5720748,22.9037434,0 
113.5720740,22.9037416,0 
113.5720732,22.9037397,0 
113.5720723,22.9037377,0 
113.5720715,22.9037355,0 
113.5720706,22.9037332,0 
113.5720697,22.9037308,0 
113.5720689,22.9037282,0 
113.5720680,22.9037255,0 
113.5720671,22.9037227,0 
113.5720662,22.9037198,0 
113.5720652,22.9037167,0 
113.5720643,22.9037136,0 
113.5720634,22.9037103,0 
113.5720625,22.9037068,0 
113.5720615,22.9037033,0 
113.5720606,22.9036997,0 
113.5720597,22.9036959,0 
113.5720587,22.9036920,0 
113.5720578,22.9036880,0 
113.5720568,22.9036839,0 
113.5720559,22.9036797,0 
113.5720549,22.9036754,0 
113.5720540,22.9036710,0 
113.5720530,22.9036665,0 
113.5720520,22.9036619,0 
113.5720511,22.9036572,0 
113.5720501,22.9036524,0 
113.5720492,22.9036475,0 
113.5720482,22.9036425,0 
113.5720472,22.9036374,0 
113.5720463,22.9036322,0 
113.5720453,22.9036270,0 
113.5720444,22.9036217,0 
113.5720434,22.9036163,0 
113.5720425,22.9036108,0 
113.5720415,22.9036052,0 
113.5720406,22.9035996,0 
113.5720397,22.9035939,0 
113.5720388,22.9035881,0 
113.5720378,22.9035823,0 
113.5720369,22.9035764,0 
113.5720360,22.9035704,0 
113.5720351,22.9035644,0 
113.5720342,22.9035583,0 
113.5720333,22.9035522,0 
113.5720324,22.9035460,0 
113.5720316,22.9035398,0 
113.5720307,22.9035335,0 
113.5720298,22.9035272,0 
113.5720290,22.9035209,0 
113.5720282,22.9035145,0 
113.5720273,22.9035081,0 
113.5720265,22.9035017,0 
113.5720257,22.9034952,0 
113.5720249,22.9034887,0 
113.5720241,22.9034822,0 
113.5720234,22.9034757,0 
113.5720226,22.9034691,0 
113.5720219,22.9034626,0 
113.5720211,22.9034560,0 
113.5720204,22.9034494,0 
113.5720197,22.9034428,0 
113.5720190,22.9034363,0 
113.5720184,22.9034297,0 
113.5720177,22.9034231,0 
113.5720170,22.9034165,0 
113.5720164,22.9034100,0 
113.5720158,22.9034034,0 
113.5720152,22.9033969,0 
113.5720146,22.9033904,0 
113.5720140,22.9033839,0 
113.5720135,22.9033775,0 
113.5720129,22.9033710,0 
113.5720124,22.9033646,0 
113.5720119,22.9033582,0 
113.5720114,22.9033519,0 
113.5720109,22.9033456,0 
113.5720105,22.9033394,0 
113.5720101,22.9033331,0 
113.5720096,22.9033270,0 
113.5720092,22.9033209,0 
113.5720089,22.9033148,0 
113.5720085,22.9033088,0 
113.5720082,22.9033028,0 
113.5720078,22.9032969,0 
113.5720075,22.9032911,0 
113.5720073,22.9032854,0 
113.5720070,22.9032797,0 
113.5720067,22.9032740,0 
113.5720065,22.9032685,0 
113.5720063,22.9032630,0 
113.5720061,22.9032576,0 
113.5720059,22.9032523,0 
113.5720058,22.9032471,0 
113.5720057,22.9032419,0 
113.5720056,22.9032368,0 
113.5720055,22.9032319,0 
113.5720054,22.9032270,0 
113.5720054,22.9032222,0 
113.5720053,22.9032175,0 
113.5720053,22.9032129,0 
113.5720053,22.9032084,0 
113.5720054,22.9032040,0 
113.5720054,22.9031997,0 
113.5720055,22.9031955,0 
113.5720056,22.9031914,0 
113.5720057,22.9031875,0 
113.5720058,22.9031836,0 
113.5720060,22.9031799,0 
113.5720061,22.9031762,0 
113.5720063,22.9031727,0 
113.5720066,22.9031693,0 
113.5720068,22.9031660,0 
113.5720070,22.9031629,0 
113.5720073,22.9031598,0 
113.5720076,22.9031569,0 
113.5720079,22.9031541,0 
113.5720082,22.9031514,0 
113.5720086,22.9031489,0 
113.5720089,22.9031465,0 
113.5720093,22.9031442,0 
113.5720097,22.9031420,0 
113.5720101,22.9031400,0 
113.5720106,22.9031381,0 
113.5720110,22.9031364,0 
113.5720115,22.9031347,0 
113.5720120,22.9031332,0 
113.5720125,22.9031319,0 
113.5720130,22.9031307,0 
113.5720136,22.9031296,0 
113.5720141,22.9031286,0 
113.5720147,22.9031278,0 
113.5720153,22.9031271,0 
113.5720159,22.9031266,0 
113.5720165,22.9031262,0 
113.5720172,22.9031259,0 
113.5720178,22.9031258,0 
</coordinates>
</LineString>
</Placemark>
</Folder>