<Folder>
<name>SV 26 189.809467 9.580264</name>
<visibility>1</visibility>
<Placemark>
<name>circle</name>
<visibility>1</visibility>
<Style>
<geomColor>FF1E69D2</geomColor>
<geomScale>2</geomScale></Style>
<LineString>
<coordinates>
113.5720355,22.9035562,0 
113.5720359,22.9035561,0 
113.5720364,22.9035562,0 
113.5720369,22.9035562,0 
113.5720374,22.9035563,0 
113.5720379,22.9035565,0 
113.5720385,22.9035567,0 
113.5720390,22.9035570,0 
113.5720395,22.9035573,0 
113.5720401,22.9035577,0 
113.5720406,22.9035582,0 
113.5720412,22.9035587,0 
113.5720418,22.9035592,0 
113.5720423,22.9035598,0 
113.5720429,22.9035604,0 
113.5720435,22.9035612,0 
113.5720441,22.9035619,0 
113.5720447,22.9035627,0 
113.5720453,22.9035636,0 
113.5720459,22.9035645,0 
113.5720466,22.9035654,0 
113.5720472,22.9035665,0 
113.5720478,22.9035675,0 
113.5720485,22.9035686,0 
113.5720491,22.9035698,0 
113.5720498,22.9035710,0 
113.5720504,22.9035722,0 
113.5720511,22.9035736,0 
113.5720517,22.9035749,0 
113.5720524,22.9035763,0 
113.5720530,22.9035777,0 
113.5720537,22.9035792,0 
113.5720544,22.9035808,0 
113.5720551,22.9035823,0 
113.5720557,22.9035839,0 
113.5720564,22.9035856,0 
113.5720571,22.9035873,0 
113.5720577,22.9035890,0 
113.5720584,22.9035908,0 
113.5720591,22.9035926,0 
113.5720598,22.9035945,0 
113.5720604,22.9035964,0 
113.5720611,22.9035983,0 
113.5720618,22.9036003,0 
113.5720625,22.9036023,0 
113.5720631,22.9036043,0 
113.5720638,22.9036064,0 
113.5720645,22.9036085,0 
113.5720651,22.9036106,0 
113.5720658,22.9036128,0 
113.5720664,22.9036150,0 
113.5720671,22.9036172,0 
113.5720678,22.9036195,0 
113.5720684,22.9036217,0 
113.5720690,22.9036240,0 
113.5720697,22.9036264,0 
113.5720703,22.9036287,0 
113.5720709,22.9036311,0 
113.5720716,22.9036335,0 
113.5720722,22.9036359,0 
113.5720728,22.9036383,0 
113.5720734,22.9036408,0 
113.5720740,22.9036432,0 
113.5720746,22.9036457,0 
113.5720752,22.9036482,0 
113.5720757,22.9036507,0 
113.5720763,22.9036533,0 
113.5720769,22.9036558,0 
113.5720774,22.9036584,0 
113.5720780,22.9036609,0 
113.5720785,22.9036635,0 
113.5720790,22.9036660,0 
113.5720796,22.9036686,0 
113.5720801,22.9036712,0 
113.5720806,22.9036738,0 
113.5720811,22.9036764,0 
113.5720815,22.9036790,0 
113.5720820,22.9036816,0 
113.5720825,22.9036842,0 
113.5720829,22.9036868,0 
113.5720834,22.9036893,0 
113.5720838,22.9036919,0 
113.5720842,22.9036945,0 
113.5720846,22.9036971,0 
113.5720850,22.9036996,0 
113.5720854,22.9037022,0 
113.5720858,22.9037047,0 
113.5720861,22.9037073,0 
113.5720865,22.9037098,0 
113.5720868,22.9037123,0 
113.5720871,22.9037148,0 
113.5720875,22.9037173,0 
113.5720878,22.9037198,0 
113.5720880,22.9037222,0 
113.5720883,22.9037246,0 
113.5720886,22.9037270,0 
113.5720888,22.9037294,0 
113.5720891,22.9037318,0 
113.5720893,22.9037341,0 
113.5720895,22.9037365,0 
113.5720897,22.9037387,0 
113.5720899,22.9037410,0 
113.5720900,22.9037433,0 
113.5720902,22.9037455,0 
113.5720903,22.9037477,0 
113.5720904,22.9037498,0 
113.5720906,22.9037519,0 
113.5720906,22.9037540,0 
113.5720907,22.9037561,0 
113.5720908,22.9037581,0 
113.5720909,22.9037601,0 
113.5720909,22.9037621,0 
113.5720909,22.9037640,0 
113.5720909,22.9037659,0 
113.5720909,22.9037677,0 
113.5720909,22.9037695,0 
113.5720909,22.9037713,0 
113.5720908,22.9037730,0 
113.5720908,22.9037747,0 
113.5720907,22.9037764,0 
113.5720906,22.9037780,0 
113.5720905,22.9037795,0 
113.5720904,22.9037811,0 
113.5720903,22.9037825,0 
113.5720902,22.9037840,0 
113.5720900,22.9037854,0 
113.5720898,22.9037867,0 
113.5720896,22.9037880,0 
113.5720894,22.9037892,0 
113.5720892,22.9037904,0 
113.5720890,22.9037916,0 
113.5720888,22.9037927,0 
113.5720885,22.9037937,0 
113.5720883,22.9037947,0 
113.5720880,22.9037957,0 
113.5720877,22.9037966,0 
113.5720874,22.9037974,0 
113.5720871,22.9037982,0 
113.5720868,22.9037989,0 
113.5720864,22.9037996,0 
113.5720861,22.9038003,0 
113.5720857,22.9038009,0 
113.5720853,22.9038014,0 
113.5720849,22.9038019,0 
113.5720845,22.9038023,0 
113.5720841,22.9038027,0 
113.5720837,22.9038030,0 
113.5720833,22.9038032,0 
113.5720828,22.9038035,0 
113.5720824,22.9038036,0 
113.5720819,22.9038037,0 
113.5720815,22.9038038,0 
113.5720810,22.9038038,0 
113.5720805,22.9038037,0 
113.5720800,22.9038036,0 
113.5720795,22.9038034,0 
113.5720789,22.9038032,0 
113.5720784,22.9038029,0 
113.5720779,22.9038026,0 
113.5720773,22.9038022,0 
113.5720768,22.9038017,0 
113.5720762,22.9038013,0 
113.5720756,22.9038007,0 
113.5720751,22.9038001,0 
113.5720745,22.9037995,0 
113.5720739,22.9037988,0 
113.5720733,22.9037980,0 
113.5720727,22.9037972,0 
113.5720721,22.9037963,0 
113.5720714,22.9037954,0 
113.5720708,22.9037945,0 
113.5720702,22.9037934,0 
113.5720696,22.9037924,0 
113.5720689,22.9037913,0 
113.5720683,22.9037901,0 
113.5720676,22.9037889,0 
113.5720670,22.9037877,0 
113.5720663,22.9037864,0 
113.5720657,22.9037850,0 
113.5720650,22.9037836,0 
113.5720643,22.9037822,0 
113.5720637,22.9037807,0 
113.5720630,22.9037792,0 
113.5720623,22.9037776,0 
113.5720617,22.9037760,0 
113.5720610,22.9037743,0 
113.5720603,22.9037726,0 
113.5720596,22.9037709,0 
113.5720590,22.9037691,0 
113.5720583,22.9037673,0 
113.5720576,22.9037654,0 
113.5720569,22.9037635,0 
113.5720563,22.9037616,0 
113.5720556,22.9037596,0 
113.5720549,22.9037576,0 
113.5720543,22.9037556,0 
113.5720536,22.9037535,0 
113.5720529,22.9037514,0 
113.5720523,22.9037493,0 
113.5720516,22.9037471,0 
113.5720509,22.9037449,0 
113.5720503,22.9037427,0 
113.5720496,22.9037404,0 
113.5720490,22.9037382,0 
113.5720484,22.9037359,0 
113.5720477,22.9037335,0 
113.5720471,22.9037312,0 
113.5720465,22.9037288,0 
113.5720458,22.9037264,0 
113.5720452,22.9037240,0 
113.5720446,22.9037216,0 
113.5720440,22.9037191,0 
113.5720434,22.9037167,0 
113.5720428,22.9037142,0 
113.5720422,22.9037117,0 
113.5720417,22.9037092,0 
113.5720411,22.9037066,0 
113.5720405,22.9037041,0 
113.5720400,22.9037016,0 
113.5720394,22.9036990,0 
113.5720389,22.9036964,0 
113.5720384,22.9036939,0 
113.5720378,22.9036913,0 
113.5720373,22.9036887,0 
113.5720368,22.9036861,0 
113.5720363,22.9036835,0 
113.5720359,22.9036809,0 
113.5720354,22.9036783,0 
113.5720349,22.9036757,0 
113.5720345,22.9036731,0 
113.5720340,22.9036706,0 
113.5720336,22.9036680,0 
113.5720332,22.9036654,0 
113.5720328,22.9036628,0 
113.5720324,22.9036603,0 
113.5720320,22.9036577,0 
113.5720316,22.9036552,0 
113.5720313,22.9036526,0 
113.5720309,22.9036501,0 
113.5720306,22.9036476,0 
113.5720303,22.9036451,0 
113.5720299,22.9036426,0 
113.5720296,22.9036402,0 
113.5720294,22.9036377,0 
113.5720291,22.9036353,0 
113.5720288,22.9036329,0 
113.5720286,22.9036305,0 
113.5720283,22.9036281,0 
113.5720281,22.9036258,0 
113.5720279,22.9036235,0 
113.5720277,22.9036212,0 
113.5720275,22.9036189,0 
113.5720274,22.9036166,0 
113.5720272,22.9036144,0 
113.5720271,22.9036122,0 
113.5720270,22.9036101,0 
113.5720268,22.9036080,0 
113.5720267,22.9036059,0 
113.5720267,22.9036038,0 
113.5720266,22.9036018,0 
113.5720265,22.9035998,0 
113.5720265,22.9035978,0 
113.5720265,22.9035959,0 
113.5720265,22.9035940,0 
113.5720265,22.9035922,0 
113.5720265,22.9035904,0 
113.5720265,22.9035886,0 
113.5720265,22.9035869,0 
113.5720266,22.9035852,0 
113.5720267,22.9035835,0 
113.5720268,22.9035819,0 
113.5720269,22.9035804,0 
113.5720270,22.9035788,0 
113.5720271,22.9035774,0 
113.5720272,22.9035759,0 
113.5720274,22.9035746,0 
113.5720276,22.9035732,0 
113.5720278,22.9035719,0 
113.5720279,22.9035707,0 
113.5720282,22.9035695,0 
113.5720284,22.9035683,0 
113.5720286,22.9035672,0 
113.5720289,22.9035662,0 
113.5720291,22.9035652,0 
113.5720294,22.9035642,0 
113.5720297,22.9035634,0 
113.5720300,22.9035625,0 
113.5720303,22.9035617,0 
113.5720306,22.9035610,0 
113.5720310,22.9035603,0 
113.5720313,22.9035596,0 
113.5720317,22.9035591,0 
113.5720321,22.9035585,0 
113.5720325,22.9035580,0 
113.5720328,22.9035576,0 
113.5720333,22.9035572,0 
113.5720337,22.9035569,0 
113.5720341,22.9035567,0 
113.5720346,22.9035565,0 
113.5720350,22.9035563,0 
113.5720355,22.9035562,0 
</coordinates>
</LineString>
</Placemark>
</Folder>