<Folder>
<name>SV 19 264.755019 14.940104</name>
<visibility>1</visibility>
<Placemark>
<name>circle</name>
<visibility>1</visibility>
<Style>
<geomColor></geomColor>
<geomScale>2</geomScale></Style>
<LineString>
<coordinates>
113.5718960,22.9038827,0 
113.5718960,22.9038824,0 
113.5718961,22.9038821,0 
113.5718962,22.9038818,0 
113.5718963,22.9038815,0 
113.5718965,22.9038812,0 
113.5718966,22.9038809,0 
113.5718969,22.9038806,0 
113.5718971,22.9038804,0 
113.5718974,22.9038801,0 
113.5718976,22.9038798,0 
113.5718980,22.9038795,0 
113.5718983,22.9038792,0 
113.5718987,22.9038790,0 
113.5718991,22.9038787,0 
113.5718995,22.9038784,0 
113.5718999,22.9038782,0 
113.5719004,22.9038779,0 
113.5719009,22.9038777,0 
113.5719014,22.9038774,0 
113.5719020,22.9038772,0 
113.5719025,22.9038769,0 
113.5719031,22.9038767,0 
113.5719037,22.9038765,0 
113.5719044,22.9038763,0 
113.5719051,22.9038761,0 
113.5719058,22.9038758,0 
113.5719065,22.9038756,0 
113.5719072,22.9038754,0 
113.5719080,22.9038752,0 
113.5719087,22.9038751,0 
113.5719095,22.9038749,0 
113.5719104,22.9038747,0 
113.5719112,22.9038745,0 
113.5719121,22.9038744,0 
113.5719130,22.9038742,0 
113.5719139,22.9038740,0 
113.5719148,22.9038739,0 
113.5719157,22.9038738,0 
113.5719167,22.9038736,0 
113.5719177,22.9038735,0 
113.5719187,22.9038734,0 
113.5719197,22.9038733,0 
113.5719207,22.9038731,0 
113.5719218,22.9038730,0 
113.5719229,22.9038729,0 
113.5719239,22.9038729,0 
113.5719250,22.9038728,0 
113.5719261,22.9038727,0 
113.5719273,22.9038726,0 
113.5719284,22.9038726,0 
113.5719296,22.9038725,0 
113.5719307,22.9038725,0 
113.5719319,22.9038724,0 
113.5719331,22.9038724,0 
113.5719343,22.9038724,0 
113.5719355,22.9038723,0 
113.5719367,22.9038723,0 
113.5719380,22.9038723,0 
113.5719392,22.9038723,0 
113.5719404,22.9038723,0 
113.5719417,22.9038723,0 
113.5719430,22.9038723,0 
113.5719442,22.9038724,0 
113.5719455,22.9038724,0 
113.5719468,22.9038724,0 
113.5719481,22.9038725,0 
113.5719494,22.9038725,0 
113.5719507,22.9038726,0 
113.5719520,22.9038727,0 
113.5719533,22.9038727,0 
113.5719546,22.9038728,0 
113.5719559,22.9038729,0 
113.5719572,22.9038730,0 
113.5719585,22.9038731,0 
113.5719598,22.9038732,0 
113.5719611,22.9038733,0 
113.5719624,22.9038735,0 
113.5719637,22.9038736,0 
113.5719650,22.9038737,0 
113.5719663,22.9038738,0 
113.5719676,22.9038740,0 
113.5719689,22.9038741,0 
113.5719701,22.9038743,0 
113.5719714,22.9038745,0 
113.5719727,22.9038746,0 
113.5719740,22.9038748,0 
113.5719752,22.9038750,0 
113.5719765,22.9038752,0 
113.5719777,22.9038754,0 
113.5719790,22.9038756,0 
113.5719802,22.9038758,0 
113.5719814,22.9038760,0 
113.5719826,22.9038762,0 
113.5719838,22.9038764,0 
113.5719850,22.9038766,0 
113.5719862,22.9038769,0 
113.5719873,22.9038771,0 
113.5719885,22.9038773,0 
113.5719896,22.9038776,0 
113.5719907,22.9038778,0 
113.5719918,22.9038781,0 
113.5719929,22.9038783,0 
113.5719940,22.9038786,0 
113.5719951,22.9038789,0 
113.5719961,22.9038791,0 
113.5719972,22.9038794,0 
113.5719982,22.9038797,0 
113.5719992,22.9038800,0 
113.5720001,22.9038803,0 
113.5720011,22.9038805,0 
113.5720020,22.9038808,0 
113.5720030,22.9038811,0 
113.5720039,22.9038814,0 
113.5720047,22.9038817,0 
113.5720056,22.9038820,0 
113.5720064,22.9038823,0 
113.5720073,22.9038826,0 
113.5720081,22.9038830,0 
113.5720088,22.9038833,0 
113.5720096,22.9038836,0 
113.5720103,22.9038839,0 
113.5720110,22.9038842,0 
113.5720117,22.9038845,0 
113.5720124,22.9038849,0 
113.5720130,22.9038852,0 
113.5720136,22.9038855,0 
113.5720142,22.9038858,0 
113.5720148,22.9038862,0 
113.5720153,22.9038865,0 
113.5720158,22.9038868,0 
113.5720163,22.9038871,0 
113.5720168,22.9038875,0 
113.5720172,22.9038878,0 
113.5720176,22.9038881,0 
113.5720180,22.9038885,0 
113.5720184,22.9038888,0 
113.5720187,22.9038891,0 
113.5720190,22.9038894,0 
113.5720193,22.9038898,0 
113.5720196,22.9038901,0 
113.5720198,22.9038904,0 
113.5720200,22.9038907,0 
113.5720202,22.9038911,0 
113.5720203,22.9038914,0 
113.5720204,22.9038917,0 
113.5720205,22.9038920,0 
113.5720206,22.9038923,0 
113.5720206,22.9038927,0 
113.5720206,22.9038930,0 
113.5720206,22.9038933,0 
113.5720206,22.9038936,0 
113.5720205,22.9038939,0 
113.5720204,22.9038942,0 
113.5720203,22.9038945,0 
113.5720201,22.9038948,0 
113.5720199,22.9038951,0 
113.5720197,22.9038954,0 
113.5720195,22.9038957,0 
113.5720192,22.9038960,0 
113.5720190,22.9038962,0 
113.5720186,22.9038965,0 
113.5720183,22.9038968,0 
113.5720179,22.9038971,0 
113.5720175,22.9038973,0 
113.5720171,22.9038976,0 
113.5720167,22.9038979,0 
113.5720162,22.9038981,0 
113.5720157,22.9038984,0 
113.5720152,22.9038986,0 
113.5720146,22.9038989,0 
113.5720141,22.9038991,0 
113.5720135,22.9038993,0 
113.5720128,22.9038995,0 
113.5720122,22.9038998,0 
113.5720115,22.9039000,0 
113.5720108,22.9039002,0 
113.5720101,22.9039004,0 
113.5720094,22.9039006,0 
113.5720086,22.9039008,0 
113.5720079,22.9039010,0 
113.5720071,22.9039012,0 
113.5720062,22.9039013,0 
113.5720054,22.9039015,0 
113.5720045,22.9039017,0 
113.5720036,22.9039018,0 
113.5720027,22.9039020,0 
113.5720018,22.9039021,0 
113.5720009,22.9039023,0 
113.5719999,22.9039024,0 
113.5719989,22.9039025,0 
113.5719979,22.9039027,0 
113.5719969,22.9039028,0 
113.5719959,22.9039029,0 
113.5719948,22.9039030,0 
113.5719937,22.9039031,0 
113.5719927,22.9039032,0 
113.5719916,22.9039033,0 
113.5719904,22.9039033,0 
113.5719893,22.9039034,0 
113.5719882,22.9039035,0 
113.5719870,22.9039035,0 
113.5719859,22.9039036,0 
113.5719847,22.9039036,0 
113.5719835,22.9039037,0 
113.5719823,22.9039037,0 
113.5719811,22.9039037,0 
113.5719799,22.9039037,0 
113.5719786,22.9039037,0 
113.5719774,22.9039037,0 
113.5719762,22.9039037,0 
113.5719749,22.9039037,0 
113.5719736,22.9039037,0 
113.5719724,22.9039037,0 
113.5719711,22.9039036,0 
113.5719698,22.9039036,0 
113.5719685,22.9039035,0 
113.5719672,22.9039035,0 
113.5719659,22.9039034,0 
113.5719646,22.9039034,0 
113.5719633,22.9039033,0 
113.5719620,22.9039032,0 
113.5719607,22.9039031,0 
113.5719594,22.9039030,0 
113.5719581,22.9039029,0 
113.5719568,22.9039028,0 
113.5719555,22.9039027,0 
113.5719542,22.9039026,0 
113.5719529,22.9039025,0 
113.5719516,22.9039023,0 
113.5719503,22.9039022,0 
113.5719490,22.9039020,0 
113.5719477,22.9039019,0 
113.5719465,22.9039017,0 
113.5719452,22.9039016,0 
113.5719439,22.9039014,0 
113.5719426,22.9039012,0 
113.5719414,22.9039010,0 
113.5719401,22.9039009,0 
113.5719389,22.9039007,0 
113.5719376,22.9039005,0 
113.5719364,22.9039003,0 
113.5719352,22.9039001,0 
113.5719340,22.9038998,0 
113.5719328,22.9038996,0 
113.5719316,22.9038994,0 
113.5719304,22.9038992,0 
113.5719293,22.9038989,0 
113.5719281,22.9038987,0 
113.5719270,22.9038984,0 
113.5719259,22.9038982,0 
113.5719248,22.9038979,0 
113.5719237,22.9038977,0 
113.5719226,22.9038974,0 
113.5719215,22.9038972,0 
113.5719205,22.9038969,0 
113.5719194,22.9038966,0 
113.5719184,22.9038963,0 
113.5719174,22.9038961,0 
113.5719165,22.9038958,0 
113.5719155,22.9038955,0 
113.5719146,22.9038952,0 
113.5719136,22.9038949,0 
113.5719127,22.9038946,0 
113.5719119,22.9038943,0 
113.5719110,22.9038940,0 
113.5719102,22.9038937,0 
113.5719093,22.9038934,0 
113.5719085,22.9038931,0 
113.5719078,22.9038928,0 
113.5719070,22.9038925,0 
113.5719063,22.9038921,0 
113.5719056,22.9038918,0 
113.5719049,22.9038915,0 
113.5719042,22.9038912,0 
113.5719036,22.9038909,0 
113.5719030,22.9038905,0 
113.5719024,22.9038902,0 
113.5719018,22.9038899,0 
113.5719013,22.9038896,0 
113.5719008,22.9038892,0 
113.5719003,22.9038889,0 
113.5718998,22.9038886,0 
113.5718994,22.9038882,0 
113.5718990,22.9038879,0 
113.5718986,22.9038876,0 
113.5718982,22.9038873,0 
113.5718979,22.9038869,0 
113.5718976,22.9038866,0 
113.5718973,22.9038863,0 
113.5718970,22.9038859,0 
113.5718968,22.9038856,0 
113.5718966,22.9038853,0 
113.5718964,22.9038850,0 
113.5718963,22.9038846,0 
113.5718962,22.9038843,0 
113.5718961,22.9038840,0 
113.5718960,22.9038837,0 
113.5718960,22.9038834,0 
113.5718960,22.9038831,0 
113.5718960,22.9038827,0 
</coordinates>
</LineString>
</Placemark>
</Folder>