<Folder>
<name>SV 26 189.809467 9.580264</name>
<visibility>1</visibility>
<Placemark>
<name>circle</name>
<visibility>1</visibility>
<Style>
<geomColor>FF1E69D2</geomColor>
<geomScale>2</geomScale></Style>
<LineString>
<coordinates>
113.5720332,22.9035441,0 
113.5720337,22.9035440,0 
113.5720342,22.9035440,0 
113.5720347,22.9035441,0 
113.5720352,22.9035442,0 
113.5720358,22.9035444,0 
113.5720363,22.9035446,0 
113.5720369,22.9035449,0 
113.5720374,22.9035453,0 
113.5720380,22.9035457,0 
113.5720386,22.9035461,0 
113.5720392,22.9035466,0 
113.5720398,22.9035472,0 
113.5720404,22.9035478,0 
113.5720410,22.9035485,0 
113.5720416,22.9035493,0 
113.5720422,22.9035500,0 
113.5720428,22.9035509,0 
113.5720435,22.9035518,0 
113.5720441,22.9035527,0 
113.5720448,22.9035537,0 
113.5720454,22.9035548,0 
113.5720461,22.9035559,0 
113.5720468,22.9035571,0 
113.5720474,22.9035583,0 
113.5720481,22.9035595,0 
113.5720488,22.9035608,0 
113.5720495,22.9035622,0 
113.5720502,22.9035636,0 
113.5720508,22.9035651,0 
113.5720515,22.9035666,0 
113.5720522,22.9035681,0 
113.5720529,22.9035697,0 
113.5720536,22.9035714,0 
113.5720543,22.9035730,0 
113.5720550,22.9035748,0 
113.5720557,22.9035765,0 
113.5720564,22.9035784,0 
113.5720571,22.9035802,0 
113.5720579,22.9035821,0 
113.5720586,22.9035841,0 
113.5720593,22.9035860,0 
113.5720600,22.9035880,0 
113.5720607,22.9035901,0 
113.5720614,22.9035922,0 
113.5720621,22.9035943,0 
113.5720628,22.9035965,0 
113.5720635,22.9035987,0 
113.5720641,22.9036009,0 
113.5720648,22.9036032,0 
113.5720655,22.9036054,0 
113.5720662,22.9036078,0 
113.5720669,22.9036101,0 
113.5720676,22.9036125,0 
113.5720682,22.9036149,0 
113.5720689,22.9036173,0 
113.5720696,22.9036198,0 
113.5720702,22.9036222,0 
113.5720709,22.9036247,0 
113.5720715,22.9036272,0 
113.5720721,22.9036298,0 
113.5720728,22.9036323,0 
113.5720734,22.9036349,0 
113.5720740,22.9036375,0 
113.5720746,22.9036401,0 
113.5720752,22.9036427,0 
113.5720758,22.9036454,0 
113.5720764,22.9036480,0 
113.5720770,22.9036507,0 
113.5720775,22.9036534,0 
113.5720781,22.9036560,0 
113.5720787,22.9036587,0 
113.5720792,22.9036614,0 
113.5720797,22.9036641,0 
113.5720803,22.9036668,0 
113.5720808,22.9036695,0 
113.5720813,22.9036722,0 
113.5720818,22.9036749,0 
113.5720822,22.9036776,0 
113.5720827,22.9036803,0 
113.5720832,22.9036830,0 
113.5720836,22.9036857,0 
113.5720841,22.9036884,0 
113.5720845,22.9036911,0 
113.5720849,22.9036938,0 
113.5720853,22.9036964,0 
113.5720857,22.9036991,0 
113.5720861,22.9037017,0 
113.5720864,22.9037044,0 
113.5720868,22.9037070,0 
113.5720871,22.9037096,0 
113.5720874,22.9037122,0 
113.5720878,22.9037148,0 
113.5720881,22.9037173,0 
113.5720883,22.9037198,0 
113.5720886,22.9037224,0 
113.5720889,22.9037249,0 
113.5720891,22.9037273,0 
113.5720893,22.9037298,0 
113.5720896,22.9037322,0 
113.5720898,22.9037346,0 
113.5720900,22.9037369,0 
113.5720901,22.9037393,0 
113.5720903,22.9037416,0 
113.5720904,22.9037439,0 
113.5720906,22.9037461,0 
113.5720907,22.9037483,0 
113.5720908,22.9037505,0 
113.5720909,22.9037527,0 
113.5720909,22.9037548,0 
113.5720910,22.9037569,0 
113.5720910,22.9037589,0 
113.5720911,22.9037609,0 
113.5720911,22.9037629,0 
113.5720911,22.9037648,0 
113.5720911,22.9037667,0 
113.5720910,22.9037686,0 
113.5720910,22.9037704,0 
113.5720909,22.9037721,0 
113.5720909,22.9037738,0 
113.5720908,22.9037755,0 
113.5720907,22.9037772,0 
113.5720905,22.9037787,0 
113.5720904,22.9037803,0 
113.5720903,22.9037818,0 
113.5720901,22.9037832,0 
113.5720899,22.9037846,0 
113.5720897,22.9037860,0 
113.5720895,22.9037873,0 
113.5720893,22.9037885,0 
113.5720891,22.9037897,0 
113.5720888,22.9037908,0 
113.5720886,22.9037919,0 
113.5720883,22.9037930,0 
113.5720880,22.9037940,0 
113.5720877,22.9037949,0 
113.5720874,22.9037958,0 
113.5720871,22.9037966,0 
113.5720867,22.9037974,0 
113.5720864,22.9037981,0 
113.5720860,22.9037988,0 
113.5720856,22.9037994,0 
113.5720852,22.9037999,0 
113.5720848,22.9038004,0 
113.5720844,22.9038009,0 
113.5720840,22.9038013,0 
113.5720835,22.9038016,0 
113.5720831,22.9038019,0 
113.5720826,22.9038021,0 
113.5720822,22.9038023,0 
113.5720817,22.9038024,0 
113.5720812,22.9038024,0 
113.5720807,22.9038024,0 
113.5720802,22.9038023,0 
113.5720796,22.9038022,0 
113.5720791,22.9038021,0 
113.5720786,22.9038018,0 
113.5720780,22.9038015,0 
113.5720774,22.9038012,0 
113.5720769,22.9038008,0 
113.5720763,22.9038003,0 
113.5720757,22.9037998,0 
113.5720751,22.9037992,0 
113.5720745,22.9037986,0 
113.5720739,22.9037979,0 
113.5720733,22.9037972,0 
113.5720727,22.9037964,0 
113.5720720,22.9037956,0 
113.5720714,22.9037947,0 
113.5720707,22.9037937,0 
113.5720701,22.9037927,0 
113.5720694,22.9037917,0 
113.5720688,22.9037906,0 
113.5720681,22.9037894,0 
113.5720674,22.9037882,0 
113.5720668,22.9037869,0 
113.5720661,22.9037856,0 
113.5720654,22.9037843,0 
113.5720647,22.9037829,0 
113.5720640,22.9037814,0 
113.5720633,22.9037799,0 
113.5720626,22.9037783,0 
113.5720619,22.9037767,0 
113.5720612,22.9037751,0 
113.5720605,22.9037734,0 
113.5720598,22.9037717,0 
113.5720591,22.9037699,0 
113.5720584,22.9037681,0 
113.5720577,22.9037662,0 
113.5720570,22.9037643,0 
113.5720563,22.9037624,0 
113.5720556,22.9037604,0 
113.5720549,22.9037584,0 
113.5720542,22.9037564,0 
113.5720535,22.9037543,0 
113.5720528,22.9037521,0 
113.5720521,22.9037500,0 
113.5720514,22.9037478,0 
113.5720507,22.9037456,0 
113.5720500,22.9037433,0 
113.5720493,22.9037410,0 
113.5720487,22.9037387,0 
113.5720480,22.9037364,0 
113.5720473,22.9037340,0 
113.5720466,22.9037316,0 
113.5720460,22.9037292,0 
113.5720453,22.9037267,0 
113.5720447,22.9037242,0 
113.5720440,22.9037217,0 
113.5720434,22.9037192,0 
113.5720427,22.9037167,0 
113.5720421,22.9037141,0 
113.5720415,22.9037115,0 
113.5720409,22.9037089,0 
113.5720403,22.9037063,0 
113.5720397,22.9037037,0 
113.5720391,22.9037011,0 
113.5720385,22.9036984,0 
113.5720379,22.9036958,0 
113.5720373,22.9036931,0 
113.5720368,22.9036904,0 
113.5720362,22.9036877,0 
113.5720357,22.9036850,0 
113.5720351,22.9036823,0 
113.5720346,22.9036796,0 
113.5720341,22.9036769,0 
113.5720336,22.9036742,0 
113.5720331,22.9036715,0 
113.5720326,22.9036688,0 
113.5720322,22.9036661,0 
113.5720317,22.9036634,0 
113.5720312,22.9036607,0 
113.5720308,22.9036580,0 
113.5720304,22.9036554,0 
113.5720300,22.9036527,0 
113.5720296,22.9036500,0 
113.5720292,22.9036474,0 
113.5720288,22.9036447,0 
113.5720284,22.9036421,0 
113.5720281,22.9036395,0 
113.5720278,22.9036369,0 
113.5720274,22.9036343,0 
113.5720271,22.9036317,0 
113.5720268,22.9036291,0 
113.5720265,22.9036266,0 
113.5720263,22.9036241,0 
113.5720260,22.9036216,0 
113.5720258,22.9036191,0 
113.5720255,22.9036167,0 
113.5720253,22.9036143,0 
113.5720251,22.9036119,0 
113.5720249,22.9036095,0 
113.5720247,22.9036072,0 
113.5720246,22.9036049,0 
113.5720244,22.9036026,0 
113.5720243,22.9036003,0 
113.5720242,22.9035981,0 
113.5720241,22.9035959,0 
113.5720240,22.9035938,0 
113.5720239,22.9035917,0 
113.5720239,22.9035896,0 
113.5720238,22.9035875,0 
113.5720238,22.9035855,0 
113.5720238,22.9035836,0 
113.5720238,22.9035816,0 
113.5720238,22.9035797,0 
113.5720238,22.9035779,0 
113.5720239,22.9035761,0 
113.5720239,22.9035743,0 
113.5720240,22.9035726,0 
113.5720241,22.9035709,0 
113.5720242,22.9035693,0 
113.5720243,22.9035677,0 
113.5720245,22.9035662,0 
113.5720246,22.9035647,0 
113.5720248,22.9035632,0 
113.5720250,22.9035619,0 
113.5720251,22.9035605,0 
113.5720253,22.9035592,0 
113.5720256,22.9035580,0 
113.5720258,22.9035568,0 
113.5720260,22.9035556,0 
113.5720263,22.9035545,0 
113.5720266,22.9035535,0 
113.5720269,22.9035525,0 
113.5720272,22.9035516,0 
113.5720275,22.9035507,0 
113.5720278,22.9035498,0 
113.5720282,22.9035491,0 
113.5720285,22.9035483,0 
113.5720289,22.9035477,0 
113.5720293,22.9035471,0 
113.5720296,22.9035465,0 
113.5720300,22.9035460,0 
113.5720305,22.9035456,0 
113.5720309,22.9035452,0 
113.5720313,22.9035449,0 
113.5720318,22.9035446,0 
113.5720322,22.9035444,0 
113.5720327,22.9035442,0 
113.5720332,22.9035441,0 
</coordinates>
</LineString>
</Placemark>
</Folder>