<Folder>
<name>SV  7 178.368900 10.004883</name>
<visibility>1</visibility>
<Placemark>
<name>circle</name>
<visibility>1</visibility>
<Style>
<geomColor>FF0000FF</geomColor>
<geomScale>2</geomScale></Style>
<LineString>
<coordinates>
113.5721096,22.9035885,0 
113.5721100,22.9035886,0 
113.5721105,22.9035886,0 
113.5721109,22.9035888,0 
113.5721113,22.9035889,0 
113.5721117,22.9035891,0 
113.5721121,22.9035894,0 
113.5721125,22.9035897,0 
113.5721129,22.9035901,0 
113.5721133,22.9035905,0 
113.5721137,22.9035909,0 
113.5721141,22.9035914,0 
113.5721145,22.9035920,0 
113.5721148,22.9035925,0 
113.5721152,22.9035932,0 
113.5721156,22.9035938,0 
113.5721160,22.9035945,0 
113.5721163,22.9035953,0 
113.5721167,22.9035961,0 
113.5721171,22.9035969,0 
113.5721174,22.9035978,0 
113.5721178,22.9035987,0 
113.5721181,22.9035997,0 
113.5721184,22.9036007,0 
113.5721188,22.9036018,0 
113.5721191,22.9036029,0 
113.5721194,22.9036040,0 
113.5721198,22.9036052,0 
113.5721201,22.9036064,0 
113.5721204,22.9036076,0 
113.5721207,22.9036089,0 
113.5721210,22.9036102,0 
113.5721212,22.9036116,0 
113.5721215,22.9036130,0 
113.5721218,22.9036144,0 
113.5721221,22.9036159,0 
113.5721223,22.9036174,0 
113.5721226,22.9036189,0 
113.5721228,22.9036205,0 
113.5721231,22.9036221,0 
113.5721233,22.9036237,0 
113.5721235,22.9036254,0 
113.5721237,22.9036270,0 
113.5721239,22.9036288,0 
113.5721241,22.9036305,0 
113.5721243,22.9036323,0 
113.5721245,22.9036341,0 
113.5721247,22.9036359,0 
113.5721249,22.9036378,0 
113.5721250,22.9036396,0 
113.5721252,22.9036415,0 
113.5721253,22.9036435,0 
113.5721255,22.9036454,0 
113.5721256,22.9036474,0 
113.5721257,22.9036494,0 
113.5721258,22.9036514,0 
113.5721259,22.9036534,0 
113.5721260,22.9036555,0 
113.5721261,22.9036575,0 
113.5721262,22.9036596,0 
113.5721262,22.9036617,0 
113.5721263,22.9036638,0 
113.5721264,22.9036659,0 
113.5721264,22.9036680,0 
113.5721264,22.9036702,0 
113.5721265,22.9036723,0 
113.5721265,22.9036745,0 
113.5721265,22.9036767,0 
113.5721265,22.9036788,0 
113.5721265,22.9036810,0 
113.5721264,22.9036832,0 
113.5721264,22.9036854,0 
113.5721264,22.9036876,0 
113.5721263,22.9036898,0 
113.5721263,22.9036920,0 
113.5721262,22.9036942,0 
113.5721261,22.9036964,0 
113.5721261,22.9036986,0 
113.5721260,22.9037008,0 
113.5721259,22.9037030,0 
113.5721258,22.9037052,0 
113.5721256,22.9037074,0 
113.5721255,22.9037096,0 
113.5721254,22.9037117,0 
113.5721253,22.9037139,0 
113.5721251,22.9037161,0 
113.5721249,22.9037182,0 
113.5721248,22.9037203,0 
113.5721246,22.9037225,0 
113.5721244,22.9037246,0 
113.5721242,22.9037267,0 
113.5721240,22.9037288,0 
113.5721238,22.9037308,0 
113.5721236,22.9037329,0 
113.5721234,22.9037349,0 
113.5721232,22.9037369,0 
113.5721229,22.9037389,0 
113.5721227,22.9037409,0 
113.5721224,22.9037429,0 
113.5721222,22.9037448,0 
113.5721219,22.9037467,0 
113.5721217,22.9037486,0 
113.5721214,22.9037505,0 
113.5721211,22.9037523,0 
113.5721208,22.9037541,0 
113.5721205,22.9037559,0 
113.5721202,22.9037577,0 
113.5721199,22.9037594,0 
113.5721196,22.9037611,0 
113.5721193,22.9037628,0 
113.5721189,22.9037644,0 
113.5721186,22.9037660,0 
113.5721183,22.9037676,0 
113.5721179,22.9037692,0 
113.5721176,22.9037707,0 
113.5721172,22.9037722,0 
113.5721169,22.9037736,0 
113.5721165,22.9037750,0 
113.5721162,22.9037764,0 
113.5721158,22.9037778,0 
113.5721154,22.9037791,0 
113.5721150,22.9037803,0 
113.5721146,22.9037816,0 
113.5721143,22.9037828,0 
113.5721139,22.9037839,0 
113.5721135,22.9037850,0 
113.5721131,22.9037861,0 
113.5721127,22.9037871,0 
113.5721123,22.9037881,0 
113.5721119,22.9037891,0 
113.5721115,22.9037900,0 
113.5721111,22.9037908,0 
113.5721107,22.9037917,0 
113.5721102,22.9037924,0 
113.5721098,22.9037932,0 
113.5721094,22.9037939,0 
113.5721090,22.9037945,0 
113.5721086,22.9037951,0 
113.5721082,22.9037957,0 
113.5721077,22.9037962,0 
113.5721073,22.9037967,0 
113.5721069,22.9037971,0 
113.5721065,22.9037975,0 
113.5721061,22.9037978,0 
113.5721056,22.9037981,0 
113.5721052,22.9037983,0 
113.5721048,22.9037985,0 
113.5721044,22.9037987,0 
113.5721040,22.9037988,0 
113.5721035,22.9037988,0 
113.5721031,22.9037988,0 
113.5721027,22.9037988,0 
113.5721023,22.9037987,0 
113.5721019,22.9037986,0 
113.5721015,22.9037984,0 
113.5721011,22.9037982,0 
113.5721007,22.9037980,0 
113.5721003,22.9037976,0 
113.5720999,22.9037973,0 
113.5720995,22.9037969,0 
113.5720991,22.9037964,0 
113.5720987,22.9037959,0 
113.5720983,22.9037954,0 
113.5720979,22.9037948,0 
113.5720975,22.9037942,0 
113.5720972,22.9037935,0 
113.5720968,22.9037928,0 
113.5720964,22.9037921,0 
113.5720961,22.9037913,0 
113.5720957,22.9037904,0 
113.5720953,22.9037895,0 
113.5720950,22.9037886,0 
113.5720946,22.9037876,0 
113.5720943,22.9037866,0 
113.5720940,22.9037856,0 
113.5720936,22.9037845,0 
113.5720933,22.9037834,0 
113.5720930,22.9037822,0 
113.5720927,22.9037810,0 
113.5720924,22.9037797,0 
113.5720921,22.9037785,0 
113.5720918,22.9037771,0 
113.5720915,22.9037758,0 
113.5720912,22.9037744,0 
113.5720910,22.9037729,0 
113.5720907,22.9037715,0 
113.5720904,22.9037700,0 
113.5720902,22.9037685,0 
113.5720899,22.9037669,0 
113.5720897,22.9037653,0 
113.5720895,22.9037637,0 
113.5720892,22.9037620,0 
113.5720890,22.9037603,0 
113.5720888,22.9037586,0 
113.5720886,22.9037568,0 
113.5720884,22.9037551,0 
113.5720882,22.9037533,0 
113.5720881,22.9037514,0 
113.5720879,22.9037496,0 
113.5720877,22.9037477,0 
113.5720876,22.9037458,0 
113.5720874,22.9037439,0 
113.5720873,22.9037419,0 
113.5720872,22.9037400,0 
113.5720870,22.9037380,0 
113.5720869,22.9037360,0 
113.5720868,22.9037340,0 
113.5720867,22.9037319,0 
113.5720867,22.9037299,0 
113.5720866,22.9037278,0 
113.5720865,22.9037257,0 
113.5720865,22.9037236,0 
113.5720864,22.9037215,0 
113.5720864,22.9037193,0 
113.5720863,22.9037172,0 
113.5720863,22.9037150,0 
113.5720863,22.9037129,0 
113.5720863,22.9037107,0 
113.5720863,22.9037085,0 
113.5720863,22.9037063,0 
113.5720863,22.9037042,0 
113.5720863,22.9037020,0 
113.5720864,22.9036998,0 
113.5720864,22.9036976,0 
113.5720865,22.9036954,0 
113.5720865,22.9036932,0 
113.5720866,22.9036910,0 
113.5720867,22.9036888,0 
113.5720868,22.9036866,0 
113.5720869,22.9036844,0 
113.5720870,22.9036822,0 
113.5720871,22.9036800,0 
113.5720872,22.9036778,0 
113.5720874,22.9036756,0 
113.5720875,22.9036735,0 
113.5720877,22.9036713,0 
113.5720878,22.9036692,0 
113.5720880,22.9036670,0 
113.5720881,22.9036649,0 
113.5720883,22.9036628,0 
113.5720885,22.9036607,0 
113.5720887,22.9036586,0 
113.5720889,22.9036565,0 
113.5720891,22.9036545,0 
113.5720894,22.9036524,0 
113.5720896,22.9036504,0 
113.5720898,22.9036484,0 
113.5720901,22.9036465,0 
113.5720903,22.9036445,0 
113.5720906,22.9036426,0 
113.5720908,22.9036406,0 
113.5720911,22.9036388,0 
113.5720914,22.9036369,0 
113.5720917,22.9036351,0 
113.5720919,22.9036332,0 
113.5720922,22.9036314,0 
113.5720925,22.9036297,0 
113.5720929,22.9036280,0 
113.5720932,22.9036262,0 
113.5720935,22.9036246,0 
113.5720938,22.9036229,0 
113.5720941,22.9036213,0 
113.5720945,22.9036197,0 
113.5720948,22.9036182,0 
113.5720952,22.9036167,0 
113.5720955,22.9036152,0 
113.5720959,22.9036137,0 
113.5720962,22.9036123,0 
113.5720966,22.9036109,0 
113.5720970,22.9036096,0 
113.5720973,22.9036083,0 
113.5720977,22.9036070,0 
113.5720981,22.9036058,0 
113.5720985,22.9036046,0 
113.5720989,22.9036035,0 
113.5720993,22.9036023,0 
113.5720997,22.9036013,0 
113.5721001,22.9036002,0 
113.5721005,22.9035993,0 
113.5721009,22.9035983,0 
113.5721013,22.9035974,0 
113.5721017,22.9035965,0 
113.5721021,22.9035957,0 
113.5721025,22.9035949,0 
113.5721029,22.9035942,0 
113.5721033,22.9035935,0 
113.5721038,22.9035929,0 
113.5721042,22.9035923,0 
113.5721046,22.9035917,0 
113.5721050,22.9035912,0 
113.5721054,22.9035907,0 
113.5721059,22.9035903,0 
113.5721063,22.9035899,0 
113.5721067,22.9035896,0 
113.5721071,22.9035893,0 
113.5721075,22.9035890,0 
113.5721080,22.9035888,0 
113.5721084,22.9035887,0 
113.5721088,22.9035886,0 
113.5721092,22.9035885,0 
113.5721096,22.9035885,0 
</coordinates>
</LineString>
</Placemark>
</Folder>