<Folder>
<name>SV 19 257.047467 10.924778</name>
<visibility>1</visibility>
<Placemark>
<name>circle</name>
<visibility>1</visibility>
<Style>
<geomColor></geomColor>
<geomScale>2</geomScale></Style>
<LineString>
<coordinates>
113.5718041,22.9038373,0 
113.5718042,22.9038370,0 
113.5718044,22.9038366,0 
113.5718046,22.9038363,0 
113.5718048,22.9038360,0 
113.5718051,22.9038356,0 
113.5718054,22.9038353,0 
113.5718058,22.9038350,0 
113.5718062,22.9038348,0 
113.5718066,22.9038345,0 
113.5718071,22.9038342,0 
113.5718077,22.9038340,0 
113.5718082,22.9038337,0 
113.5718088,22.9038335,0 
113.5718095,22.9038333,0 
113.5718102,22.9038331,0 
113.5718109,22.9038329,0 
113.5718117,22.9038327,0 
113.5718125,22.9038325,0 
113.5718134,22.9038323,0 
113.5718143,22.9038322,0 
113.5718152,22.9038320,0 
113.5718162,22.9038319,0 
113.5718172,22.9038318,0 
113.5718182,22.9038317,0 
113.5718193,22.9038316,0 
113.5718204,22.9038315,0 
113.5718216,22.9038314,0 
113.5718228,22.9038313,0 
113.5718240,22.9038313,0 
113.5718253,22.9038312,0 
113.5718265,22.9038312,0 
113.5718279,22.9038312,0 
113.5718292,22.9038312,0 
113.5718306,22.9038312,0 
113.5718320,22.9038312,0 
113.5718335,22.9038312,0 
113.5718350,22.9038313,0 
113.5718365,22.9038313,0 
113.5718380,22.9038314,0 
113.5718396,22.9038315,0 
113.5718412,22.9038316,0 
113.5718428,22.9038317,0 
113.5718444,22.9038318,0 
113.5718461,22.9038319,0 
113.5718478,22.9038320,0 
113.5718495,22.9038322,0 
113.5718513,22.9038324,0 
113.5718530,22.9038325,0 
113.5718548,22.9038327,0 
113.5718566,22.9038329,0 
113.5718584,22.9038331,0 
113.5718603,22.9038333,0 
113.5718621,22.9038335,0 
113.5718640,22.9038338,0 
113.5718659,22.9038340,0 
113.5718678,22.9038343,0 
113.5718698,22.9038345,0 
113.5718717,22.9038348,0 
113.5718737,22.9038351,0 
113.5718756,22.9038354,0 
113.5718776,22.9038357,0 
113.5718796,22.9038360,0 
113.5718816,22.9038363,0 
113.5718836,22.9038367,0 
113.5718856,22.9038370,0 
113.5718876,22.9038374,0 
113.5718897,22.9038377,0 
113.5718917,22.9038381,0 
113.5718937,22.9038385,0 
113.5718958,22.9038389,0 
113.5718978,22.9038393,0 
113.5718999,22.9038397,0 
113.5719019,22.9038401,0 
113.5719040,22.9038405,0 
113.5719060,22.9038410,0 
113.5719080,22.9038414,0 
113.5719101,22.9038418,0 
113.5719121,22.9038423,0 
113.5719142,22.9038427,0 
113.5719162,22.9038432,0 
113.5719182,22.9038437,0 
113.5719202,22.9038442,0 
113.5719222,22.9038446,0 
113.5719242,22.9038451,0 
113.5719262,22.9038456,0 
113.5719282,22.9038461,0 
113.5719301,22.9038466,0 
113.5719321,22.9038471,0 
113.5719340,22.9038477,0 
113.5719360,22.9038482,0 
113.5719379,22.9038487,0 
113.5719398,22.9038492,0 
113.5719416,22.9038498,0 
113.5719435,22.9038503,0 
113.5719453,22.9038508,0 
113.5719472,22.9038514,0 
113.5719490,22.9038519,0 
113.5719508,22.9038525,0 
113.5719525,22.9038530,0 
113.5719542,22.9038536,0 
113.5719560,22.9038541,0 
113.5719577,22.9038547,0 
113.5719593,22.9038552,0 
113.5719610,22.9038558,0 
113.5719626,22.9038564,0 
113.5719642,22.9038569,0 
113.5719657,22.9038575,0 
113.5719673,22.9038580,0 
113.5719688,22.9038586,0 
113.5719702,22.9038592,0 
113.5719717,22.9038597,0 
113.5719731,22.9038603,0 
113.5719745,22.9038609,0 
113.5719758,22.9038614,0 
113.5719772,22.9038620,0 
113.5719784,22.9038625,0 
113.5719797,22.9038631,0 
113.5719809,22.9038636,0 
113.5719821,22.9038642,0 
113.5719832,22.9038647,0 
113.5719843,22.9038653,0 
113.5719854,22.9038658,0 
113.5719865,22.9038663,0 
113.5719875,22.9038669,0 
113.5719884,22.9038674,0 
113.5719894,22.9038679,0 
113.5719902,22.9038684,0 
113.5719911,22.9038689,0 
113.5719919,22.9038695,0 
113.5719927,22.9038700,0 
113.5719934,22.9038705,0 
113.5719941,22.9038710,0 
113.5719947,22.9038714,0 
113.5719954,22.9038719,0 
113.5719959,22.9038724,0 
113.5719964,22.9038729,0 
113.5719969,22.9038733,0 
113.5719974,22.9038738,0 
113.5719978,22.9038742,0 
113.5719981,22.9038747,0 
113.5719984,22.9038751,0 
113.5719987,22.9038756,0 
113.5719990,22.9038760,0 
113.5719991,22.9038764,0 
113.5719993,22.9038768,0 
113.5719994,22.9038772,0 
113.5719995,22.9038776,0 
113.5719995,22.9038780,0 
113.5719994,22.9038783,0 
113.5719994,22.9038787,0 
113.5719993,22.9038790,0 
113.5719991,22.9038794,0 
113.5719989,22.9038797,0 
113.5719987,22.9038800,0 
113.5719984,22.9038804,0 
113.5719981,22.9038807,0 
113.5719977,22.9038810,0 
113.5719973,22.9038812,0 
113.5719969,22.9038815,0 
113.5719964,22.9038818,0 
113.5719958,22.9038820,0 
113.5719953,22.9038823,0 
113.5719946,22.9038825,0 
113.5719940,22.9038827,0 
113.5719933,22.9038829,0 
113.5719926,22.9038831,0 
113.5719918,22.9038833,0 
113.5719910,22.9038835,0 
113.5719901,22.9038837,0 
113.5719892,22.9038838,0 
113.5719883,22.9038840,0 
113.5719873,22.9038841,0 
113.5719863,22.9038842,0 
113.5719853,22.9038843,0 
113.5719842,22.9038844,0 
113.5719831,22.9038845,0 
113.5719819,22.9038846,0 
113.5719807,22.9038847,0 
113.5719795,22.9038847,0 
113.5719782,22.9038848,0 
113.5719769,22.9038848,0 
113.5719756,22.9038848,0 
113.5719743,22.9038848,0 
113.5719729,22.9038848,0 
113.5719715,22.9038848,0 
113.5719700,22.9038847,0 
113.5719685,22.9038847,0 
113.5719670,22.9038846,0 
113.5719655,22.9038846,0 
113.5719639,22.9038845,0 
113.5719623,22.9038844,0 
113.5719607,22.9038843,0 
113.5719591,22.9038842,0 
113.5719574,22.9038841,0 
113.5719557,22.9038839,0 
113.5719540,22.9038838,0 
113.5719522,22.9038836,0 
113.5719505,22.9038835,0 
113.5719487,22.9038833,0 
113.5719469,22.9038831,0 
113.5719451,22.9038829,0 
113.5719432,22.9038827,0 
113.5719413,22.9038825,0 
113.5719395,22.9038822,0 
113.5719376,22.9038820,0 
113.5719357,22.9038817,0 
113.5719337,22.9038815,0 
113.5719318,22.9038812,0 
113.5719298,22.9038809,0 
113.5719279,22.9038806,0 
113.5719259,22.9038803,0 
113.5719239,22.9038800,0 
113.5719219,22.9038797,0 
113.5719199,22.9038793,0 
113.5719179,22.9038790,0 
113.5719159,22.9038786,0 
113.5719138,22.9038783,0 
113.5719118,22.9038779,0 
113.5719098,22.9038775,0 
113.5719077,22.9038771,0 
113.5719057,22.9038767,0 
113.5719036,22.9038763,0 
113.5719016,22.9038759,0 
113.5718995,22.9038755,0 
113.5718975,22.9038750,0 
113.5718954,22.9038746,0 
113.5718934,22.9038742,0 
113.5718914,22.9038737,0 
113.5718893,22.9038733,0 
113.5718873,22.9038728,0 
113.5718853,22.9038723,0 
113.5718833,22.9038718,0 
113.5718813,22.9038714,0 
113.5718793,22.9038709,0 
113.5718773,22.9038704,0 
113.5718753,22.9038699,0 
113.5718733,22.9038694,0 
113.5718714,22.9038689,0 
113.5718695,22.9038683,0 
113.5718675,22.9038678,0 
113.5718656,22.9038673,0 
113.5718637,22.9038668,0 
113.5718618,22.9038662,0 
113.5718600,22.9038657,0 
113.5718581,22.9038652,0 
113.5718563,22.9038646,0 
113.5718545,22.9038641,0 
113.5718527,22.9038635,0 
113.5718510,22.9038630,0 
113.5718492,22.9038624,0 
113.5718475,22.9038619,0 
113.5718458,22.9038613,0 
113.5718442,22.9038607,0 
113.5718425,22.9038602,0 
113.5718409,22.9038596,0 
113.5718393,22.9038591,0 
113.5718378,22.9038585,0 
113.5718362,22.9038579,0 
113.5718347,22.9038574,0 
113.5718333,22.9038568,0 
113.5718318,22.9038563,0 
113.5718304,22.9038557,0 
113.5718290,22.9038551,0 
113.5718277,22.9038546,0 
113.5718263,22.9038540,0 
113.5718251,22.9038535,0 
113.5718238,22.9038529,0 
113.5718226,22.9038524,0 
113.5718214,22.9038518,0 
113.5718203,22.9038513,0 
113.5718191,22.9038507,0 
113.5718181,22.9038502,0 
113.5718170,22.9038497,0 
113.5718160,22.9038491,0 
113.5718151,22.9038486,0 
113.5718141,22.9038481,0 
113.5718132,22.9038476,0 
113.5718124,22.9038470,0 
113.5718116,22.9038465,0 
113.5718108,22.9038460,0 
113.5718101,22.9038455,0 
113.5718094,22.9038450,0 
113.5718087,22.9038446,0 
113.5718081,22.9038441,0 
113.5718076,22.9038436,0 
113.5718070,22.9038431,0 
113.5718066,22.9038427,0 
113.5718061,22.9038422,0 
113.5718057,22.9038418,0 
113.5718054,22.9038413,0 
113.5718050,22.9038409,0 
113.5718048,22.9038404,0 
113.5718045,22.9038400,0 
113.5718043,22.9038396,0 
113.5718042,22.9038392,0 
113.5718041,22.9038388,0 
113.5718040,22.9038384,0 
113.5718040,22.9038380,0 
113.5718040,22.9038377,0 
113.5718041,22.9038373,0 
</coordinates>
</LineString>
</Placemark>
</Folder>