<Folder>
<name>SV  7 180.745587 13.495334</name>
<visibility>1</visibility>
<Placemark>
<name>circle</name>
<visibility>1</visibility>
<Style>
<geomColor>FF0000FF</geomColor>
<geomScale>2</geomScale></Style>
<LineString>
<coordinates>
113.5720970,22.9036866,0 
113.5720973,22.9036866,0 
113.5720977,22.9036866,0 
113.5720981,22.9036867,0 
113.5720984,22.9036868,0 
113.5720988,22.9036869,0 
113.5720991,22.9036871,0 
113.5720995,22.9036873,0 
113.5720998,22.9036875,0 
113.5721002,22.9036877,0 
113.5721005,22.9036880,0 
113.5721009,22.9036883,0 
113.5721012,22.9036886,0 
113.5721016,22.9036890,0 
113.5721019,22.9036894,0 
113.5721023,22.9036898,0 
113.5721026,22.9036902,0 
113.5721030,22.9036907,0 
113.5721033,22.9036912,0 
113.5721036,22.9036917,0 
113.5721040,22.9036923,0 
113.5721043,22.9036929,0 
113.5721046,22.9036935,0 
113.5721049,22.9036941,0 
113.5721053,22.9036948,0 
113.5721056,22.9036955,0 
113.5721059,22.9036962,0 
113.5721062,22.9036969,0 
113.5721065,22.9036977,0 
113.5721068,22.9036984,0 
113.5721071,22.9036992,0 
113.5721074,22.9037001,0 
113.5721077,22.9037009,0 
113.5721080,22.9037018,0 
113.5721083,22.9037027,0 
113.5721086,22.9037036,0 
113.5721089,22.9037046,0 
113.5721091,22.9037056,0 
113.5721094,22.9037065,0 
113.5721096,22.9037076,0 
113.5721099,22.9037086,0 
113.5721102,22.9037096,0 
113.5721104,22.9037107,0 
113.5721106,22.9037118,0 
113.5721109,22.9037129,0 
113.5721111,22.9037140,0 
113.5721113,22.9037152,0 
113.5721115,22.9037163,0 
113.5721117,22.9037175,0 
113.5721119,22.9037187,0 
113.5721121,22.9037199,0 
113.5721123,22.9037211,0 
113.5721125,22.9037223,0 
113.5721127,22.9037236,0 
113.5721129,22.9037248,0 
113.5721130,22.9037261,0 
113.5721132,22.9037274,0 
113.5721134,22.9037287,0 
113.5721135,22.9037300,0 
113.5721136,22.9037313,0 
113.5721138,22.9037326,0 
113.5721139,22.9037340,0 
113.5721140,22.9037353,0 
113.5721141,22.9037367,0 
113.5721142,22.9037380,0 
113.5721143,22.9037394,0 
113.5721144,22.9037408,0 
113.5721145,22.9037422,0 
113.5721146,22.9037435,0 
113.5721146,22.9037449,0 
113.5721147,22.9037463,0 
113.5721148,22.9037477,0 
113.5721148,22.9037491,0 
113.5721148,22.9037505,0 
113.5721149,22.9037519,0 
113.5721149,22.9037533,0 
113.5721149,22.9037547,0 
113.5721149,22.9037561,0 
113.5721149,22.9037575,0 
113.5721149,22.9037589,0 
113.5721149,22.9037603,0 
113.5721149,22.9037617,0 
113.5721148,22.9037631,0 
113.5721148,22.9037645,0 
113.5721148,22.9037659,0 
113.5721147,22.9037672,0 
113.5721147,22.9037686,0 
113.5721146,22.9037700,0 
113.5721145,22.9037713,0 
113.5721144,22.9037727,0 
113.5721144,22.9037740,0 
113.5721143,22.9037754,0 
113.5721142,22.9037767,0 
113.5721140,22.9037780,0 
113.5721139,22.9037793,0 
113.5721138,22.9037806,0 
113.5721137,22.9037818,0 
113.5721135,22.9037831,0 
113.5721134,22.9037844,0 
113.5721132,22.9037856,0 
113.5721131,22.9037868,0 
113.5721129,22.9037880,0 
113.5721128,22.9037892,0 
113.5721126,22.9037904,0 
113.5721124,22.9037916,0 
113.5721122,22.9037927,0 
113.5721120,22.9037938,0 
113.5721118,22.9037950,0 
113.5721116,22.9037960,0 
113.5721114,22.9037971,0 
113.5721112,22.9037982,0 
113.5721109,22.9037992,0 
113.5721107,22.9038002,0 
113.5721105,22.9038012,0 
113.5721102,22.9038022,0 
113.5721100,22.9038031,0 
113.5721097,22.9038041,0 
113.5721095,22.9038050,0 
113.5721092,22.9038059,0 
113.5721089,22.9038067,0 
113.5721087,22.9038076,0 
113.5721084,22.9038084,0 
113.5721081,22.9038092,0 
113.5721078,22.9038099,0 
113.5721075,22.9038107,0 
113.5721072,22.9038114,0 
113.5721069,22.9038121,0 
113.5721066,22.9038128,0 
113.5721063,22.9038134,0 
113.5721060,22.9038140,0 
113.5721057,22.9038146,0 
113.5721054,22.9038152,0 
113.5721051,22.9038157,0 
113.5721047,22.9038162,0 
113.5721044,22.9038167,0 
113.5721041,22.9038171,0 
113.5721037,22.9038176,0 
113.5721034,22.9038180,0 
113.5721031,22.9038183,0 
113.5721027,22.9038187,0 
113.5721024,22.9038190,0 
113.5721020,22.9038192,0 
113.5721017,22.9038195,0 
113.5721013,22.9038197,0 
113.5721010,22.9038199,0 
113.5721006,22.9038201,0 
113.5721003,22.9038202,0 
113.5720999,22.9038203,0 
113.5720996,22.9038204,0 
113.5720992,22.9038205,0 
113.5720989,22.9038205,0 
113.5720985,22.9038205,0 
113.5720982,22.9038204,0 
113.5720978,22.9038204,0 
113.5720975,22.9038203,0 
113.5720971,22.9038201,0 
113.5720967,22.9038200,0 
113.5720964,22.9038198,0 
113.5720960,22.9038196,0 
113.5720957,22.9038193,0 
113.5720953,22.9038191,0 
113.5720950,22.9038187,0 
113.5720946,22.9038184,0 
113.5720943,22.9038181,0 
113.5720939,22.9038177,0 
113.5720936,22.9038173,0 
113.5720932,22.9038168,0 
113.5720929,22.9038163,0 
113.5720926,22.9038158,0 
113.5720922,22.9038153,0 
113.5720919,22.9038148,0 
113.5720916,22.9038142,0 
113.5720912,22.9038136,0 
113.5720909,22.9038129,0 
113.5720906,22.9038123,0 
113.5720903,22.9038116,0 
113.5720900,22.9038109,0 
113.5720896,22.9038102,0 
113.5720893,22.9038094,0 
113.5720890,22.9038086,0 
113.5720887,22.9038078,0 
113.5720884,22.9038070,0 
113.5720881,22.9038061,0 
113.5720878,22.9038052,0 
113.5720876,22.9038043,0 
113.5720873,22.9038034,0 
113.5720870,22.9038025,0 
113.5720867,22.9038015,0 
113.5720865,22.9038005,0 
113.5720862,22.9037995,0 
113.5720860,22.9037985,0 
113.5720857,22.9037974,0 
113.5720855,22.9037964,0 
113.5720852,22.9037953,0 
113.5720850,22.9037942,0 
113.5720848,22.9037930,0 
113.5720845,22.9037919,0 
113.5720843,22.9037907,0 
113.5720841,22.9037896,0 
113.5720839,22.9037884,0 
113.5720837,22.9037872,0 
113.5720835,22.9037860,0 
113.5720833,22.9037847,0 
113.5720832,22.9037835,0 
113.5720830,22.9037822,0 
113.5720828,22.9037809,0 
113.5720827,22.9037797,0 
113.5720825,22.9037784,0 
113.5720824,22.9037771,0 
113.5720822,22.9037757,0 
113.5720821,22.9037744,0 
113.5720820,22.9037731,0 
113.5720819,22.9037717,0 
113.5720817,22.9037704,0 
113.5720816,22.9037690,0 
113.5720815,22.9037676,0 
113.5720814,22.9037663,0 
113.5720814,22.9037649,0 
113.5720813,22.9037635,0 
113.5720812,22.9037621,0 
113.5720812,22.9037607,0 
113.5720811,22.9037593,0 
113.5720811,22.9037579,0 
113.5720810,22.9037565,0 
113.5720810,22.9037551,0 
113.5720810,22.9037537,0 
113.5720810,22.9037523,0 
113.5720809,22.9037509,0 
113.5720809,22.9037495,0 
113.5720810,22.9037481,0 
113.5720810,22.9037467,0 
113.5720810,22.9037453,0 
113.5720810,22.9037439,0 
113.5720811,22.9037426,0 
113.5720811,22.9037412,0 
113.5720811,22.9037398,0 
113.5720812,22.9037384,0 
113.5720813,22.9037371,0 
113.5720813,22.9037357,0 
113.5720814,22.9037344,0 
113.5720815,22.9037330,0 
113.5720816,22.9037317,0 
113.5720817,22.9037304,0 
113.5720818,22.9037291,0 
113.5720819,22.9037278,0 
113.5720821,22.9037265,0 
113.5720822,22.9037252,0 
113.5720823,22.9037239,0 
113.5720825,22.9037227,0 
113.5720826,22.9037215,0 
113.5720828,22.9037202,0 
113.5720829,22.9037190,0 
113.5720831,22.9037178,0 
113.5720833,22.9037167,0 
113.5720835,22.9037155,0 
113.5720837,22.9037143,0 
113.5720839,22.9037132,0 
113.5720841,22.9037121,0 
113.5720843,22.9037110,0 
113.5720845,22.9037099,0 
113.5720847,22.9037089,0 
113.5720849,22.9037078,0 
113.5720852,22.9037068,0 
113.5720854,22.9037058,0 
113.5720856,22.9037049,0 
113.5720859,22.9037039,0 
113.5720861,22.9037030,0 
113.5720864,22.9037021,0 
113.5720867,22.9037012,0 
113.5720869,22.9037003,0 
113.5720872,22.9036995,0 
113.5720875,22.9036987,0 
113.5720878,22.9036979,0 
113.5720880,22.9036971,0 
113.5720883,22.9036964,0 
113.5720886,22.9036957,0 
113.5720889,22.9036950,0 
113.5720892,22.9036943,0 
113.5720895,22.9036937,0 
113.5720899,22.9036930,0 
113.5720902,22.9036925,0 
113.5720905,22.9036919,0 
113.5720908,22.9036914,0 
113.5720911,22.9036909,0 
113.5720915,22.9036904,0 
113.5720918,22.9036899,0 
113.5720921,22.9036895,0 
113.5720925,22.9036891,0 
113.5720928,22.9036887,0 
113.5720931,22.9036884,0 
113.5720935,22.9036881,0 
113.5720938,22.9036878,0 
113.5720942,22.9036876,0 
113.5720945,22.9036873,0 
113.5720949,22.9036871,0 
113.5720952,22.9036870,0 
113.5720956,22.9036868,0 
113.5720959,22.9036867,0 
113.5720963,22.9036867,0 
113.5720966,22.9036866,0 
113.5720970,22.9036866,0 
</coordinates>
</LineString>
</Placemark>
</Folder>