<Folder>
<name>SV 26 185.585623 5.289194</name>
<visibility>1</visibility>
<Placemark>
<name>circle</name>
<visibility>1</visibility>
<Style>
<geomColor>FF1E69D2</geomColor>
<geomScale>2</geomScale></Style>
<LineString>
<coordinates>
113.5720147,22.9030961,0 
113.5720154,22.9030962,0 
113.5720161,22.9030963,0 
113.5720168,22.9030966,0 
113.5720175,22.9030971,0 
113.5720183,22.9030976,0 
113.5720190,22.9030984,0 
113.5720198,22.9030992,0 
113.5720206,22.9031003,0 
113.5720214,22.9031014,0 
113.5720222,22.9031027,0 
113.5720231,22.9031041,0 
113.5720239,22.9031057,0 
113.5720248,22.9031074,0 
113.5720256,22.9031093,0 
113.5720265,22.9031113,0 
113.5720274,22.9031134,0 
113.5720283,22.9031157,0 
113.5720292,22.9031181,0 
113.5720301,22.9031206,0 
113.5720310,22.9031233,0 
113.5720320,22.9031261,0 
113.5720329,22.9031291,0 
113.5720338,22.9031321,0 
113.5720348,22.9031353,0 
113.5720357,22.9031386,0 
113.5720367,22.9031421,0 
113.5720377,22.9031457,0 
113.5720387,22.9031494,0 
113.5720396,22.9031532,0 
113.5720406,22.9031571,0 
113.5720416,22.9031611,0 
113.5720426,22.9031653,0 
113.5720436,22.9031696,0 
113.5720446,22.9031740,0 
113.5720456,22.9031785,0 
113.5720466,22.9031831,0 
113.5720476,22.9031878,0 
113.5720486,22.9031926,0 
113.5720496,22.9031975,0 
113.5720506,22.9032026,0 
113.5720516,22.9032077,0 
113.5720526,22.9032129,0 
113.5720536,22.9032182,0 
113.5720546,22.9032236,0 
113.5720556,22.9032291,0 
113.5720566,22.9032346,0 
113.5720576,22.9032403,0 
113.5720586,22.9032460,0 
113.5720595,22.9032518,0 
113.5720605,22.9032577,0 
113.5720615,22.9032637,0 
113.5720625,22.9032697,0 
113.5720634,22.9032758,0 
113.5720644,22.9032819,0 
113.5720653,22.9032882,0 
113.5720663,22.9032945,0 
113.5720672,22.9033008,0 
113.5720681,22.9033072,0 
113.5720691,22.9033136,0 
113.5720700,22.9033201,0 
113.5720709,22.9033267,0 
113.5720718,22.9033333,0 
113.5720727,22.9033399,0 
113.5720735,22.9033465,0 
113.5720744,22.9033532,0 
113.5720752,22.9033600,0 
113.5720761,22.9033667,0 
113.5720769,22.9033735,0 
113.5720777,22.9033803,0 
113.5720785,22.9033871,0 
113.5720793,22.9033940,0 
113.5720801,22.9034008,0 
113.5720809,22.9034077,0 
113.5720816,22.9034145,0 
113.5720824,22.9034214,0 
113.5720831,22.9034283,0 
113.5720838,22.9034352,0 
113.5720845,22.9034420,0 
113.5720852,22.9034489,0 
113.5720858,22.9034557,0 
113.5720865,22.9034626,0 
113.5720871,22.9034694,0 
113.5720877,22.9034762,0 
113.5720883,22.9034830,0 
113.5720889,22.9034897,0 
113.5720894,22.9034965,0 
113.5720900,22.9035031,0 
113.5720905,22.9035098,0 
113.5720910,22.9035164,0 
113.5720915,22.9035230,0 
113.5720920,22.9035295,0 
113.5720924,22.9035360,0 
113.5720929,22.9035425,0 
113.5720933,22.9035489,0 
113.5720937,22.9035552,0 
113.5720941,22.9035615,0 
113.5720944,22.9035677,0 
113.5720948,22.9035738,0 
113.5720951,22.9035799,0 
113.5720954,22.9035859,0 
113.5720957,22.9035919,0 
113.5720959,22.9035978,0 
113.5720961,22.9036036,0 
113.5720964,22.9036093,0 
113.5720966,22.9036149,0 
113.5720967,22.9036205,0 
113.5720969,22.9036259,0 
113.5720970,22.9036313,0 
113.5720971,22.9036366,0 
113.5720972,22.9036418,0 
113.5720973,22.9036469,0 
113.5720974,22.9036519,0 
113.5720974,22.9036568,0 
113.5720974,22.9036616,0 
113.5720974,22.9036663,0 
113.5720973,22.9036709,0 
113.5720973,22.9036754,0 
113.5720972,22.9036798,0 
113.5720971,22.9036840,0 
113.5720970,22.9036882,0 
113.5720969,22.9036922,0 
113.5720967,22.9036961,0 
113.5720965,22.9036999,0 
113.5720963,22.9037036,0 
113.5720961,22.9037072,0 
113.5720959,22.9037106,0 
113.5720956,22.9037139,0 
113.5720953,22.9037171,0 
113.5720950,22.9037201,0 
113.5720947,22.9037230,0 
113.5720944,22.9037258,0 
113.5720940,22.9037285,0 
113.5720936,22.9037310,0 
113.5720932,22.9037334,0 
113.5720928,22.9037356,0 
113.5720924,22.9037378,0 
113.5720919,22.9037397,0 
113.5720914,22.9037416,0 
113.5720909,22.9037433,0 
113.5720904,22.9037448,0 
113.5720899,22.9037462,0 
113.5720893,22.9037475,0 
113.5720888,22.9037487,0 
113.5720882,22.9037497,0 
113.5720876,22.9037505,0 
113.5720870,22.9037512,0 
113.5720863,22.9037518,0 
113.5720857,22.9037522,0 
113.5720850,22.9037525,0 
113.5720844,22.9037526,0 
113.5720837,22.9037526,0 
113.5720829,22.9037525,0 
113.5720822,22.9037522,0 
113.5720815,22.9037517,0 
113.5720807,22.9037511,0 
113.5720800,22.9037504,0 
113.5720792,22.9037495,0 
113.5720784,22.9037485,0 
113.5720776,22.9037474,0 
113.5720768,22.9037461,0 
113.5720759,22.9037446,0 
113.5720751,22.9037430,0 
113.5720742,22.9037413,0 
113.5720734,22.9037395,0 
113.5720725,22.9037375,0 
113.5720716,22.9037353,0 
113.5720707,22.9037331,0 
113.5720698,22.9037307,0 
113.5720689,22.9037281,0 
113.5720680,22.9037254,0 
113.5720671,22.9037226,0 
113.5720661,22.9037197,0 
113.5720652,22.9037166,0 
113.5720642,22.9037134,0 
113.5720633,22.9037101,0 
113.5720623,22.9037067,0 
113.5720613,22.9037031,0 
113.5720604,22.9036994,0 
113.5720594,22.9036956,0 
113.5720584,22.9036917,0 
113.5720574,22.9036876,0 
113.5720564,22.9036835,0 
113.5720554,22.9036792,0 
113.5720544,22.9036748,0 
113.5720534,22.9036703,0 
113.5720524,22.9036657,0 
113.5720514,22.9036610,0 
113.5720504,22.9036562,0 
113.5720494,22.9036512,0 
113.5720484,22.9036462,0 
113.5720474,22.9036411,0 
113.5720464,22.9036359,0 
113.5720454,22.9036306,0 
113.5720444,22.9036252,0 
113.5720434,22.9036197,0 
113.5720424,22.9036141,0 
113.5720414,22.9036085,0 
113.5720404,22.9036028,0 
113.5720395,22.9035969,0 
113.5720385,22.9035911,0 
113.5720375,22.9035851,0 
113.5720365,22.9035791,0 
113.5720356,22.9035730,0 
113.5720346,22.9035668,0 
113.5720337,22.9035606,0 
113.5720327,22.9035543,0 
113.5720318,22.9035480,0 
113.5720309,22.9035416,0 
113.5720299,22.9035351,0 
113.5720290,22.9035286,0 
113.5720281,22.9035221,0 
113.5720272,22.9035155,0 
113.5720264,22.9035089,0 
113.5720255,22.9035022,0 
113.5720246,22.9034955,0 
113.5720238,22.9034888,0 
113.5720229,22.9034820,0 
113.5720221,22.9034753,0 
113.5720213,22.9034685,0 
113.5720205,22.9034616,0 
113.5720197,22.9034548,0 
113.5720189,22.9034479,0 
113.5720181,22.9034411,0 
113.5720174,22.9034342,0 
113.5720167,22.9034273,0 
113.5720159,22.9034205,0 
113.5720152,22.9034136,0 
113.5720145,22.9034067,0 
113.5720139,22.9033999,0 
113.5720132,22.9033930,0 
113.5720125,22.9033862,0 
113.5720119,22.9033794,0 
113.5720113,22.9033726,0 
113.5720107,22.9033658,0 
113.5720101,22.9033590,0 
113.5720096,22.9033523,0 
113.5720090,22.9033456,0 
113.5720085,22.9033390,0 
113.5720080,22.9033323,0 
113.5720075,22.9033258,0 
113.5720070,22.9033192,0 
113.5720066,22.9033127,0 
113.5720061,22.9033063,0 
113.5720057,22.9032999,0 
113.5720053,22.9032936,0 
113.5720049,22.9032873,0 
113.5720046,22.9032811,0 
113.5720043,22.9032749,0 
113.5720039,22.9032688,0 
113.5720036,22.9032628,0 
113.5720034,22.9032569,0 
113.5720031,22.9032510,0 
113.5720029,22.9032452,0 
113.5720026,22.9032395,0 
113.5720024,22.9032338,0 
113.5720023,22.9032283,0 
113.5720021,22.9032228,0 
113.5720020,22.9032174,0 
113.5720019,22.9032121,0 
113.5720018,22.9032069,0 
113.5720017,22.9032018,0 
113.5720017,22.9031968,0 
113.5720016,22.9031919,0 
113.5720016,22.9031871,0 
113.5720016,22.9031824,0 
113.5720017,22.9031778,0 
113.5720017,22.9031734,0 
113.5720018,22.9031690,0 
113.5720019,22.9031647,0 
113.5720020,22.9031606,0 
113.5720021,22.9031565,0 
113.5720023,22.9031526,0 
113.5720025,22.9031488,0 
113.5720027,22.9031452,0 
113.5720029,22.9031416,0 
113.5720031,22.9031382,0 
113.5720034,22.9031349,0 
113.5720037,22.9031317,0 
113.5720040,22.9031286,0 
113.5720043,22.9031257,0 
113.5720047,22.9031229,0 
113.5720050,22.9031203,0 
113.5720054,22.9031178,0 
113.5720058,22.9031154,0 
113.5720062,22.9031131,0 
113.5720067,22.9031110,0 
113.5720071,22.9031090,0 
113.5720076,22.9031072,0 
113.5720081,22.9031055,0 
113.5720086,22.9031039,0 
113.5720091,22.9031025,0 
113.5720097,22.9031012,0 
113.5720102,22.9031001,0 
113.5720108,22.9030991,0 
113.5720114,22.9030983,0 
113.5720120,22.9030975,0 
113.5720127,22.9030970,0 
113.5720133,22.9030966,0 
113.5720140,22.9030963,0 
113.5720147,22.9030961,0 
</coordinates>
</LineString>
</Placemark>
</Folder>