<Folder>
<name>SV 25 243.610836 5.143501</name>
<visibility>1</visibility>
<Placemark>
<name>circle</name>
<visibility>1</visibility>
<Style>
<geomColor>FFFF007A</geomColor>
<geomScale>2</geomScale></Style>
<LineString>
<coordinates>
113.5713519,22.9035581,0 
113.5713523,22.9035576,0 
113.5713527,22.9035572,0 
113.5713533,22.9035569,0 
113.5713540,22.9035566,0 
113.5713549,22.9035563,0 
113.5713558,22.9035561,0 
113.5713569,22.9035560,0 
113.5713582,22.9035560,0 
113.5713595,22.9035560,0 
113.5713610,22.9035560,0 
113.5713626,22.9035561,0 
113.5713643,22.9035563,0 
113.5713661,22.9035565,0 
113.5713681,22.9035568,0 
113.5713701,22.9035572,0 
113.5713723,22.9035576,0 
113.5713747,22.9035581,0 
113.5713771,22.9035586,0 
113.5713796,22.9035592,0 
113.5713823,22.9035598,0 
113.5713851,22.9035605,0 
113.5713880,22.9035613,0 
113.5713910,22.9035621,0 
113.5713941,22.9035630,0 
113.5713973,22.9035639,0 
113.5714006,22.9035649,0 
113.5714041,22.9035659,0 
113.5714076,22.9035670,0 
113.5714113,22.9035681,0 
113.5714150,22.9035694,0 
113.5714188,22.9035706,0 
113.5714228,22.9035719,0 
113.5714268,22.9035733,0 
113.5714310,22.9035747,0 
113.5714352,22.9035761,0 
113.5714395,22.9035777,0 
113.5714439,22.9035792,0 
113.5714484,22.9035808,0 
113.5714530,22.9035825,0 
113.5714576,22.9035842,0 
113.5714624,22.9035859,0 
113.5714672,22.9035877,0 
113.5714721,22.9035896,0 
113.5714771,22.9035915,0 
113.5714821,22.9035934,0 
113.5714872,22.9035954,0 
113.5714924,22.9035974,0 
113.5714977,22.9035995,0 
113.5715030,22.9036016,0 
113.5715083,22.9036037,0 
113.5715138,22.9036059,0 
113.5715193,22.9036081,0 
113.5715248,22.9036103,0 
113.5715304,22.9036126,0 
113.5715360,22.9036149,0 
113.5715417,22.9036173,0 
113.5715475,22.9036197,0 
113.5715532,22.9036221,0 
113.5715590,22.9036245,0 
113.5715649,22.9036270,0 
113.5715708,22.9036295,0 
113.5715767,22.9036320,0 
113.5715826,22.9036346,0 
113.5715886,22.9036372,0 
113.5715946,22.9036398,0 
113.5716006,22.9036424,0 
113.5716067,22.9036451,0 
113.5716127,22.9036477,0 
113.5716188,22.9036504,0 
113.5716248,22.9036531,0 
113.5716309,22.9036558,0 
113.5716370,22.9036586,0 
113.5716431,22.9036613,0 
113.5716492,22.9036641,0 
113.5716553,22.9036669,0 
113.5716614,22.9036696,0 
113.5716674,22.9036724,0 
113.5716735,22.9036752,0 
113.5716795,22.9036780,0 
113.5716856,22.9036809,0 
113.5716916,22.9036837,0 
113.5716976,22.9036865,0 
113.5717035,22.9036893,0 
113.5717095,22.9036921,0 
113.5717154,22.9036950,0 
113.5717213,22.9036978,0 
113.5717271,22.9037006,0 
113.5717329,22.9037034,0 
113.5717387,22.9037062,0 
113.5717444,22.9037090,0 
113.5717501,22.9037118,0 
113.5717557,22.9037146,0 
113.5717613,22.9037174,0 
113.5717668,22.9037202,0 
113.5717723,22.9037229,0 
113.5717777,22.9037256,0 
113.5717831,22.9037284,0 
113.5717884,22.9037311,0 
113.5717936,22.9037338,0 
113.5717988,22.9037364,0 
113.5718039,22.9037391,0 
113.5718089,22.9037417,0 
113.5718138,22.9037443,0 
113.5718187,22.9037469,0 
113.5718235,22.9037495,0 
113.5718282,22.9037520,0 
113.5718329,22.9037545,0 
113.5718374,22.9037570,0 
113.5718419,22.9037594,0 
113.5718463,22.9037618,0 
113.5718506,22.9037642,0 
113.5718548,22.9037666,0 
113.5718589,22.9037689,0 
113.5718629,22.9037712,0 
113.5718668,22.9037734,0 
113.5718706,22.9037756,0 
113.5718744,22.9037778,0 
113.5718780,22.9037800,0 
113.5718815,22.9037821,0 
113.5718849,22.9037841,0 
113.5718882,22.9037861,0 
113.5718914,22.9037881,0 
113.5718945,22.9037901,0 
113.5718975,22.9037919,0 
113.5719003,22.9037938,0 
113.5719031,22.9037956,0 
113.5719057,22.9037974,0 
113.5719082,22.9037991,0 
113.5719106,22.9038007,0 
113.5719129,22.9038023,0 
113.5719151,22.9038039,0 
113.5719171,22.9038054,0 
113.5719191,22.9038069,0 
113.5719209,22.9038083,0 
113.5719226,22.9038097,0 
113.5719241,22.9038110,0 
113.5719256,22.9038122,0 
113.5719269,22.9038134,0 
113.5719281,22.9038146,0 
113.5719291,22.9038157,0 
113.5719301,22.9038167,0 
113.5719309,22.9038177,0 
113.5719315,22.9038186,0 
113.5719321,22.9038195,0 
113.5719325,22.9038203,0 
113.5719328,22.9038211,0 
113.5719330,22.9038218,0 
113.5719331,22.9038225,0 
113.5719330,22.9038230,0 
113.5719328,22.9038236,0 
113.5719324,22.9038240,0 
113.5719320,22.9038245,0 
113.5719314,22.9038248,0 
113.5719307,22.9038251,0 
113.5719298,22.9038254,0 
113.5719289,22.9038255,0 
113.5719278,22.9038257,0 
113.5719266,22.9038257,0 
113.5719252,22.9038257,0 
113.5719237,22.9038257,0 
113.5719222,22.9038255,0 
113.5719204,22.9038254,0 
113.5719186,22.9038251,0 
113.5719166,22.9038248,0 
113.5719146,22.9038245,0 
113.5719124,22.9038241,0 
113.5719101,22.9038236,0 
113.5719076,22.9038231,0 
113.5719051,22.9038225,0 
113.5719024,22.9038219,0 
113.5718996,22.9038211,0 
113.5718967,22.9038204,0 
113.5718937,22.9038196,0 
113.5718906,22.9038187,0 
113.5718874,22.9038178,0 
113.5718841,22.9038168,0 
113.5718806,22.9038158,0 
113.5718771,22.9038147,0 
113.5718735,22.9038135,0 
113.5718697,22.9038123,0 
113.5718659,22.9038111,0 
113.5718619,22.9038098,0 
113.5718579,22.9038084,0 
113.5718538,22.9038070,0 
113.5718495,22.9038055,0 
113.5718452,22.9038040,0 
113.5718408,22.9038025,0 
113.5718363,22.9038008,0 
113.5718317,22.9037992,0 
113.5718271,22.9037975,0 
113.5718223,22.9037957,0 
113.5718175,22.9037939,0 
113.5718126,22.9037921,0 
113.5718077,22.9037902,0 
113.5718026,22.9037883,0 
113.5717975,22.9037863,0 
113.5717923,22.9037843,0 
113.5717871,22.9037822,0 
113.5717818,22.9037801,0 
113.5717764,22.9037780,0 
113.5717709,22.9037758,0 
113.5717655,22.9037736,0 
113.5717599,22.9037713,0 
113.5717543,22.9037691,0 
113.5717487,22.9037667,0 
113.5717430,22.9037644,0 
113.5717373,22.9037620,0 
113.5717315,22.9037596,0 
113.5717257,22.9037571,0 
113.5717198,22.9037547,0 
113.5717139,22.9037522,0 
113.5717080,22.9037496,0 
113.5717021,22.9037471,0 
113.5716961,22.9037445,0 
113.5716901,22.9037419,0 
113.5716841,22.9037393,0 
113.5716781,22.9037366,0 
113.5716720,22.9037340,0 
113.5716659,22.9037313,0 
113.5716599,22.9037286,0 
113.5716538,22.9037258,0 
113.5716477,22.9037231,0 
113.5716416,22.9037204,0 
113.5716355,22.9037176,0 
113.5716294,22.9037148,0 
113.5716234,22.9037120,0 
113.5716173,22.9037092,0 
113.5716112,22.9037064,0 
113.5716052,22.9037036,0 
113.5715992,22.9037008,0 
113.5715931,22.9036980,0 
113.5715872,22.9036952,0 
113.5715812,22.9036923,0 
113.5715753,22.9036895,0 
113.5715693,22.9036867,0 
113.5715635,22.9036839,0 
113.5715576,22.9036811,0 
113.5715518,22.9036782,0 
113.5715461,22.9036754,0 
113.5715403,22.9036726,0 
113.5715347,22.9036698,0 
113.5715290,22.9036670,0 
113.5715234,22.9036643,0 
113.5715179,22.9036615,0 
113.5715124,22.9036588,0 
113.5715070,22.9036560,0 
113.5715017,22.9036533,0 
113.5714964,22.9036506,0 
113.5714911,22.9036479,0 
113.5714860,22.9036452,0 
113.5714809,22.9036426,0 
113.5714758,22.9036400,0 
113.5714709,22.9036374,0 
113.5714660,22.9036348,0 
113.5714612,22.9036322,0 
113.5714565,22.9036297,0 
113.5714518,22.9036272,0 
113.5714473,22.9036247,0 
113.5714428,22.9036223,0 
113.5714384,22.9036198,0 
113.5714341,22.9036175,0 
113.5714299,22.9036151,0 
113.5714258,22.9036128,0 
113.5714218,22.9036105,0 
113.5714179,22.9036082,0 
113.5714141,22.9036060,0 
113.5714104,22.9036038,0 
113.5714067,22.9036017,0 
113.5714032,22.9035996,0 
113.5713998,22.9035975,0 
113.5713965,22.9035955,0 
113.5713933,22.9035935,0 
113.5713902,22.9035916,0 
113.5713873,22.9035897,0 
113.5713844,22.9035879,0 
113.5713816,22.9035861,0 
113.5713790,22.9035843,0 
113.5713765,22.9035826,0 
113.5713741,22.9035809,0 
113.5713718,22.9035793,0 
113.5713696,22.9035778,0 
113.5713676,22.9035762,0 
113.5713657,22.9035748,0 
113.5713638,22.9035734,0 
113.5713622,22.9035720,0 
113.5713606,22.9035707,0 
113.5713592,22.9035694,0 
113.5713579,22.9035682,0 
113.5713567,22.9035671,0 
113.5713556,22.9035660,0 
113.5713547,22.9035649,0 
113.5713539,22.9035640,0 
113.5713532,22.9035630,0 
113.5713526,22.9035621,0 
113.5713522,22.9035613,0 
113.5713519,22.9035606,0 
113.5713517,22.9035599,0 
113.5713517,22.9035592,0 
113.5713517,22.9035586,0 
113.5713519,22.9035581,0 
</coordinates>
</LineString>
</Placemark>
</Folder>