<Folder>
<name>SV 25 249.279119 7.452230</name>
<visibility>1</visibility>
<Placemark>
<name>circle</name>
<visibility>1</visibility>
<Style>
<geomColor>FFFF007A</geomColor>
<geomScale>2</geomScale></Style>
<LineString>
<coordinates>
113.5716232,22.9037339,0 
113.5716234,22.9037334,0 
113.5716237,22.9037331,0 
113.5716241,22.9037327,0 
113.5716245,22.9037324,0 
113.5716250,22.9037321,0 
113.5716256,22.9037318,0 
113.5716263,22.9037315,0 
113.5716270,22.9037313,0 
113.5716278,22.9037311,0 
113.5716287,22.9037309,0 
113.5716296,22.9037308,0 
113.5716307,22.9037307,0 
113.5716318,22.9037306,0 
113.5716329,22.9037305,0 
113.5716342,22.9037305,0 
113.5716355,22.9037305,0 
113.5716369,22.9037305,0 
113.5716383,22.9037305,0 
113.5716398,22.9037306,0 
113.5716414,22.9037307,0 
113.5716430,22.9037308,0 
113.5716448,22.9037310,0 
113.5716465,22.9037312,0 
113.5716484,22.9037314,0 
113.5716503,22.9037316,0 
113.5716523,22.9037319,0 
113.5716543,22.9037322,0 
113.5716564,22.9037325,0 
113.5716586,22.9037329,0 
113.5716608,22.9037332,0 
113.5716630,22.9037336,0 
113.5716654,22.9037341,0 
113.5716678,22.9037345,0 
113.5716702,22.9037350,0 
113.5716727,22.9037355,0 
113.5716753,22.9037360,0 
113.5716779,22.9037366,0 
113.5716805,22.9037372,0 
113.5716832,22.9037378,0 
113.5716860,22.9037384,0 
113.5716888,22.9037390,0 
113.5716916,22.9037397,0 
113.5716945,22.9037404,0 
113.5716974,22.9037411,0 
113.5717004,22.9037419,0 
113.5717034,22.9037427,0 
113.5717065,22.9037434,0 
113.5717096,22.9037443,0 
113.5717127,22.9037451,0 
113.5717159,22.9037459,0 
113.5717191,22.9037468,0 
113.5717223,22.9037477,0 
113.5717256,22.9037486,0 
113.5717289,22.9037496,0 
113.5717322,22.9037505,0 
113.5717356,22.9037515,0 
113.5717389,22.9037525,0 
113.5717423,22.9037535,0 
113.5717458,22.9037545,0 
113.5717492,22.9037556,0 
113.5717527,22.9037566,0 
113.5717562,22.9037577,0 
113.5717597,22.9037588,0 
113.5717632,22.9037599,0 
113.5717667,22.9037610,0 
113.5717703,22.9037622,0 
113.5717738,22.9037633,0 
113.5717774,22.9037645,0 
113.5717809,22.9037657,0 
113.5717845,22.9037669,0 
113.5717881,22.9037681,0 
113.5717917,22.9037693,0 
113.5717953,22.9037705,0 
113.5717988,22.9037717,0 
113.5718024,22.9037730,0 
113.5718060,22.9037742,0 
113.5718096,22.9037755,0 
113.5718131,22.9037768,0 
113.5718167,22.9037780,0 
113.5718202,22.9037793,0 
113.5718238,22.9037806,0 
113.5718273,22.9037819,0 
113.5718308,22.9037832,0 
113.5718343,22.9037845,0 
113.5718377,22.9037858,0 
113.5718412,22.9037871,0 
113.5718446,22.9037884,0 
113.5718480,22.9037897,0 
113.5718514,22.9037910,0 
113.5718548,22.9037924,0 
113.5718581,22.9037937,0 
113.5718614,22.9037950,0 
113.5718647,22.9037963,0 
113.5718680,22.9037976,0 
113.5718712,22.9037989,0 
113.5718743,22.9038003,0 
113.5718775,22.9038016,0 
113.5718806,22.9038029,0 
113.5718837,22.9038042,0 
113.5718867,22.9038055,0 
113.5718897,22.9038068,0 
113.5718926,22.9038080,0 
113.5718955,22.9038093,0 
113.5718984,22.9038106,0 
113.5719012,22.9038119,0 
113.5719040,22.9038131,0 
113.5719067,22.9038144,0 
113.5719094,22.9038156,0 
113.5719120,22.9038168,0 
113.5719146,22.9038180,0 
113.5719171,22.9038193,0 
113.5719195,22.9038204,0 
113.5719219,22.9038216,0 
113.5719243,22.9038228,0 
113.5719266,22.9038240,0 
113.5719288,22.9038251,0 
113.5719310,22.9038262,0 
113.5719331,22.9038274,0 
113.5719352,22.9038285,0 
113.5719372,22.9038295,0 
113.5719391,22.9038306,0 
113.5719409,22.9038317,0 
113.5719427,22.9038327,0 
113.5719445,22.9038337,0 
113.5719462,22.9038347,0 
113.5719478,22.9038357,0 
113.5719493,22.9038367,0 
113.5719508,22.9038376,0 
113.5719522,22.9038386,0 
113.5719535,22.9038395,0 
113.5719547,22.9038403,0 
113.5719559,22.9038412,0 
113.5719571,22.9038421,0 
113.5719581,22.9038429,0 
113.5719591,22.9038437,0 
113.5719600,22.9038445,0 
113.5719608,22.9038452,0 
113.5719616,22.9038460,0 
113.5719622,22.9038467,0 
113.5719629,22.9038474,0 
113.5719634,22.9038480,0 
113.5719639,22.9038487,0 
113.5719642,22.9038493,0 
113.5719646,22.9038499,0 
113.5719648,22.9038504,0 
113.5719649,22.9038510,0 
113.5719650,22.9038515,0 
113.5719650,22.9038520,0 
113.5719650,22.9038525,0 
113.5719648,22.9038529,0 
113.5719646,22.9038533,0 
113.5719643,22.9038537,0 
113.5719640,22.9038541,0 
113.5719635,22.9038544,0 
113.5719630,22.9038547,0 
113.5719624,22.9038550,0 
113.5719618,22.9038552,0 
113.5719611,22.9038555,0 
113.5719603,22.9038557,0 
113.5719594,22.9038558,0 
113.5719584,22.9038560,0 
113.5719574,22.9038561,0 
113.5719563,22.9038562,0 
113.5719551,22.9038563,0 
113.5719539,22.9038563,0 
113.5719526,22.9038563,0 
113.5719512,22.9038563,0 
113.5719498,22.9038562,0 
113.5719483,22.9038562,0 
113.5719467,22.9038561,0 
113.5719450,22.9038559,0 
113.5719433,22.9038558,0 
113.5719415,22.9038556,0 
113.5719397,22.9038554,0 
113.5719378,22.9038551,0 
113.5719358,22.9038549,0 
113.5719338,22.9038546,0 
113.5719317,22.9038543,0 
113.5719295,22.9038539,0 
113.5719273,22.9038535,0 
113.5719250,22.9038531,0 
113.5719227,22.9038527,0 
113.5719203,22.9038523,0 
113.5719179,22.9038518,0 
113.5719154,22.9038513,0 
113.5719128,22.9038507,0 
113.5719102,22.9038502,0 
113.5719076,22.9038496,0 
113.5719049,22.9038490,0 
113.5719021,22.9038484,0 
113.5718993,22.9038477,0 
113.5718965,22.9038470,0 
113.5718936,22.9038463,0 
113.5718906,22.9038456,0 
113.5718877,22.9038449,0 
113.5718846,22.9038441,0 
113.5718816,22.9038433,0 
113.5718785,22.9038425,0 
113.5718754,22.9038417,0 
113.5718722,22.9038408,0 
113.5718690,22.9038399,0 
113.5718657,22.9038390,0 
113.5718625,22.9038381,0 
113.5718592,22.9038372,0 
113.5718559,22.9038362,0 
113.5718525,22.9038353,0 
113.5718491,22.9038343,0 
113.5718457,22.9038333,0 
113.5718423,22.9038322,0 
113.5718388,22.9038312,0 
113.5718354,22.9038301,0 
113.5718319,22.9038290,0 
113.5718284,22.9038280,0 
113.5718249,22.9038268,0 
113.5718213,22.9038257,0 
113.5718178,22.9038246,0 
113.5718143,22.9038234,0 
113.5718107,22.9038223,0 
113.5718071,22.9038211,0 
113.5718036,22.9038199,0 
113.5718000,22.9038187,0 
113.5717964,22.9038175,0 
113.5717928,22.9038163,0 
113.5717892,22.9038150,0 
113.5717857,22.9038138,0 
113.5717821,22.9038125,0 
113.5717785,22.9038113,0 
113.5717749,22.9038100,0 
113.5717714,22.9038087,0 
113.5717678,22.9038075,0 
113.5717643,22.9038062,0 
113.5717608,22.9038049,0 
113.5717573,22.9038036,0 
113.5717538,22.9038023,0 
113.5717503,22.9038010,0 
113.5717469,22.9037997,0 
113.5717434,22.9037983,0 
113.5717400,22.9037970,0 
113.5717366,22.9037957,0 
113.5717333,22.9037944,0 
113.5717299,22.9037931,0 
113.5717266,22.9037918,0 
113.5717234,22.9037904,0 
113.5717201,22.9037891,0 
113.5717169,22.9037878,0 
113.5717137,22.9037865,0 
113.5717106,22.9037852,0 
113.5717075,22.9037839,0 
113.5717044,22.9037826,0 
113.5717014,22.9037813,0 
113.5716984,22.9037800,0 
113.5716954,22.9037787,0 
113.5716925,22.9037774,0 
113.5716897,22.9037762,0 
113.5716869,22.9037749,0 
113.5716841,22.9037737,0 
113.5716814,22.9037724,0 
113.5716787,22.9037712,0 
113.5716761,22.9037699,0 
113.5716735,22.9037687,0 
113.5716710,22.9037675,0 
113.5716685,22.9037663,0 
113.5716661,22.9037651,0 
113.5716638,22.9037640,0 
113.5716615,22.9037628,0 
113.5716593,22.9037617,0 
113.5716571,22.9037605,0 
113.5716550,22.9037594,0 
113.5716529,22.9037583,0 
113.5716509,22.9037572,0 
113.5716490,22.9037562,0 
113.5716471,22.9037551,0 
113.5716453,22.9037541,0 
113.5716436,22.9037530,0 
113.5716419,22.9037520,0 
113.5716403,22.9037511,0 
113.5716388,22.9037501,0 
113.5716373,22.9037491,0 
113.5716359,22.9037482,0 
113.5716346,22.9037473,0 
113.5716333,22.9037464,0 
113.5716321,22.9037456,0 
113.5716310,22.9037447,0 
113.5716300,22.9037439,0 
113.5716290,22.9037431,0 
113.5716281,22.9037423,0 
113.5716273,22.9037415,0 
113.5716265,22.9037408,0 
113.5716258,22.9037401,0 
113.5716252,22.9037394,0 
113.5716247,22.9037387,0 
113.5716242,22.9037381,0 
113.5716238,22.9037375,0 
113.5716235,22.9037369,0 
113.5716233,22.9037363,0 
113.5716231,22.9037358,0 
113.5716230,22.9037353,0 
113.5716230,22.9037348,0 
113.5716231,22.9037343,0 
113.5716232,22.9037339,0 
</coordinates>
</LineString>
</Placemark>
</Folder>