<Folder>
<name>SV  2 175.426633 11.369634</name>
<visibility>1</visibility>
<Placemark>
<name>circle</name>
<visibility>1</visibility>
<Style>
<geomColor></geomColor>
<geomScale>2</geomScale></Style>
<LineString>
<coordinates>
113.5721241,22.9036226,0 
113.5721245,22.9036226,0 
113.5721249,22.9036227,0 
113.5721253,22.9036228,0 
113.5721257,22.9036230,0 
113.5721260,22.9036232,0 
113.5721264,22.9036235,0 
113.5721268,22.9036237,0 
113.5721272,22.9036241,0 
113.5721275,22.9036244,0 
113.5721279,22.9036248,0 
113.5721282,22.9036252,0 
113.5721286,22.9036257,0 
113.5721289,22.9036262,0 
113.5721293,22.9036268,0 
113.5721296,22.9036274,0 
113.5721299,22.9036280,0 
113.5721303,22.9036287,0 
113.5721306,22.9036293,0 
113.5721309,22.9036301,0 
113.5721312,22.9036308,0 
113.5721315,22.9036317,0 
113.5721318,22.9036325,0 
113.5721320,22.9036334,0 
113.5721323,22.9036343,0 
113.5721326,22.9036352,0 
113.5721329,22.9036362,0 
113.5721331,22.9036372,0 
113.5721334,22.9036382,0 
113.5721336,22.9036393,0 
113.5721338,22.9036404,0 
113.5721340,22.9036416,0 
113.5721343,22.9036427,0 
113.5721345,22.9036439,0 
113.5721347,22.9036451,0 
113.5721349,22.9036464,0 
113.5721350,22.9036477,0 
113.5721352,22.9036490,0 
113.5721354,22.9036503,0 
113.5721356,22.9036517,0 
113.5721357,22.9036531,0 
113.5721358,22.9036545,0 
113.5721360,22.9036560,0 
113.5721361,22.9036574,0 
113.5721362,22.9036589,0 
113.5721363,22.9036604,0 
113.5721364,22.9036620,0 
113.5721365,22.9036635,0 
113.5721366,22.9036651,0 
113.5721367,22.9036667,0 
113.5721367,22.9036683,0 
113.5721368,22.9036700,0 
113.5721368,22.9036716,0 
113.5721369,22.9036733,0 
113.5721369,22.9036750,0 
113.5721369,22.9036767,0 
113.5721369,22.9036785,0 
113.5721369,22.9036802,0 
113.5721369,22.9036819,0 
113.5721369,22.9036837,0 
113.5721369,22.9036855,0 
113.5721368,22.9036873,0 
113.5721368,22.9036891,0 
113.5721367,22.9036909,0 
113.5721367,22.9036927,0 
113.5721366,22.9036945,0 
113.5721365,22.9036964,0 
113.5721364,22.9036982,0 
113.5721363,22.9037001,0 
113.5721362,22.9037019,0 
113.5721361,22.9037038,0 
113.5721360,22.9037056,0 
113.5721359,22.9037075,0 
113.5721357,22.9037094,0 
113.5721356,22.9037112,0 
113.5721354,22.9037131,0 
113.5721353,22.9037150,0 
113.5721351,22.9037168,0 
113.5721349,22.9037187,0 
113.5721347,22.9037205,0 
113.5721345,22.9037224,0 
113.5721343,22.9037243,0 
113.5721341,22.9037261,0 
113.5721339,22.9037279,0 
113.5721336,22.9037298,0 
113.5721334,22.9037316,0 
113.5721332,22.9037334,0 
113.5721329,22.9037352,0 
113.5721326,22.9037370,0 
113.5721324,22.9037388,0 
113.5721321,22.9037406,0 
113.5721318,22.9037423,0 
113.5721315,22.9037441,0 
113.5721312,22.9037458,0 
113.5721309,22.9037475,0 
113.5721306,22.9037492,0 
113.5721303,22.9037509,0 
113.5721300,22.9037526,0 
113.5721297,22.9037542,0 
113.5721293,22.9037559,0 
113.5721290,22.9037575,0 
113.5721287,22.9037591,0 
113.5721283,22.9037606,0 
113.5721280,22.9037622,0 
113.5721276,22.9037637,0 
113.5721272,22.9037652,0 
113.5721269,22.9037667,0 
113.5721265,22.9037681,0 
113.5721261,22.9037696,0 
113.5721257,22.9037710,0 
113.5721253,22.9037724,0 
113.5721250,22.9037737,0 
113.5721246,22.9037750,0 
113.5721242,22.9037763,0 
113.5721238,22.9037776,0 
113.5721234,22.9037789,0 
113.5721230,22.9037801,0 
113.5721225,22.9037812,0 
113.5721221,22.9037824,0 
113.5721217,22.9037835,0 
113.5721213,22.9037846,0 
113.5721209,22.9037857,0 
113.5721205,22.9037867,0 
113.5721200,22.9037877,0 
113.5721196,22.9037886,0 
113.5721192,22.9037896,0 
113.5721188,22.9037905,0 
113.5721183,22.9037913,0 
113.5721179,22.9037921,0 
113.5721175,22.9037929,0 
113.5721170,22.9037937,0 
113.5721166,22.9037944,0 
113.5721162,22.9037951,0 
113.5721157,22.9037957,0 
113.5721153,22.9037963,0 
113.5721149,22.9037969,0 
113.5721145,22.9037974,0 
113.5721140,22.9037979,0 
113.5721136,22.9037984,0 
113.5721132,22.9037988,0 
113.5721127,22.9037991,0 
113.5721123,22.9037995,0 
113.5721119,22.9037998,0 
113.5721115,22.9038001,0 
113.5721111,22.9038003,0 
113.5721106,22.9038005,0 
113.5721102,22.9038006,0 
113.5721098,22.9038007,0 
113.5721094,22.9038008,0 
113.5721090,22.9038008,0 
113.5721086,22.9038008,0 
113.5721082,22.9038008,0 
113.5721078,22.9038007,0 
113.5721074,22.9038005,0 
113.5721070,22.9038004,0 
113.5721067,22.9038002,0 
113.5721063,22.9037999,0 
113.5721059,22.9037996,0 
113.5721055,22.9037993,0 
113.5721052,22.9037990,0 
113.5721048,22.9037986,0 
113.5721045,22.9037981,0 
113.5721041,22.9037977,0 
113.5721038,22.9037971,0 
113.5721034,22.9037966,0 
113.5721031,22.9037960,0 
113.5721028,22.9037954,0 
113.5721025,22.9037947,0 
113.5721021,22.9037940,0 
113.5721018,22.9037933,0 
113.5721015,22.9037925,0 
113.5721012,22.9037917,0 
113.5721009,22.9037909,0 
113.5721007,22.9037900,0 
113.5721004,22.9037891,0 
113.5721001,22.9037882,0 
113.5720999,22.9037872,0 
113.5720996,22.9037862,0 
113.5720994,22.9037851,0 
113.5720991,22.9037841,0 
113.5720989,22.9037830,0 
113.5720987,22.9037818,0 
113.5720984,22.9037807,0 
113.5720982,22.9037795,0 
113.5720980,22.9037782,0 
113.5720978,22.9037770,0 
113.5720977,22.9037757,0 
113.5720975,22.9037744,0 
113.5720973,22.9037730,0 
113.5720972,22.9037717,0 
113.5720970,22.9037703,0 
113.5720969,22.9037689,0 
113.5720967,22.9037674,0 
113.5720966,22.9037659,0 
113.5720965,22.9037644,0 
113.5720964,22.9037629,0 
113.5720963,22.9037614,0 
113.5720962,22.9037598,0 
113.5720961,22.9037583,0 
113.5720960,22.9037566,0 
113.5720960,22.9037550,0 
113.5720959,22.9037534,0 
113.5720959,22.9037517,0 
113.5720958,22.9037501,0 
113.5720958,22.9037484,0 
113.5720958,22.9037467,0 
113.5720958,22.9037449,0 
113.5720958,22.9037432,0 
113.5720958,22.9037414,0 
113.5720958,22.9037397,0 
113.5720958,22.9037379,0 
113.5720959,22.9037361,0 
113.5720959,22.9037343,0 
113.5720960,22.9037325,0 
113.5720960,22.9037307,0 
113.5720961,22.9037288,0 
113.5720962,22.9037270,0 
113.5720963,22.9037252,0 
113.5720964,22.9037233,0 
113.5720965,22.9037215,0 
113.5720966,22.9037196,0 
113.5720967,22.9037177,0 
113.5720968,22.9037159,0 
113.5720970,22.9037140,0 
113.5720971,22.9037121,0 
113.5720973,22.9037103,0 
113.5720974,22.9037084,0 
113.5720976,22.9037066,0 
113.5720978,22.9037047,0 
113.5720980,22.9037028,0 
113.5720982,22.9037010,0 
113.5720984,22.9036991,0 
113.5720986,22.9036973,0 
113.5720988,22.9036954,0 
113.5720991,22.9036936,0 
113.5720993,22.9036918,0 
113.5720996,22.9036900,0 
113.5720998,22.9036882,0 
113.5721001,22.9036864,0 
113.5721003,22.9036846,0 
113.5721006,22.9036828,0 
113.5721009,22.9036811,0 
113.5721012,22.9036793,0 
113.5721015,22.9036776,0 
113.5721018,22.9036759,0 
113.5721021,22.9036742,0 
113.5721024,22.9036725,0 
113.5721027,22.9036708,0 
113.5721030,22.9036692,0 
113.5721034,22.9036675,0 
113.5721037,22.9036659,0 
113.5721040,22.9036643,0 
113.5721044,22.9036628,0 
113.5721047,22.9036612,0 
113.5721051,22.9036597,0 
113.5721055,22.9036582,0 
113.5721058,22.9036567,0 
113.5721062,22.9036552,0 
113.5721066,22.9036538,0 
113.5721070,22.9036524,0 
113.5721074,22.9036510,0 
113.5721077,22.9036497,0 
113.5721081,22.9036483,0 
113.5721085,22.9036470,0 
113.5721089,22.9036458,0 
113.5721093,22.9036445,0 
113.5721097,22.9036433,0 
113.5721102,22.9036421,0 
113.5721106,22.9036410,0 
113.5721110,22.9036399,0 
113.5721114,22.9036388,0 
113.5721118,22.9036377,0 
113.5721122,22.9036367,0 
113.5721127,22.9036357,0 
113.5721131,22.9036347,0 
113.5721135,22.9036338,0 
113.5721139,22.9036329,0 
113.5721144,22.9036321,0 
113.5721148,22.9036312,0 
113.5721152,22.9036305,0 
113.5721157,22.9036297,0 
113.5721161,22.9036290,0 
113.5721165,22.9036283,0 
113.5721170,22.9036277,0 
113.5721174,22.9036271,0 
113.5721178,22.9036265,0 
113.5721182,22.9036260,0 
113.5721187,22.9036255,0 
113.5721191,22.9036250,0 
113.5721195,22.9036246,0 
113.5721200,22.9036242,0 
113.5721204,22.9036239,0 
113.5721208,22.9036236,0 
113.5721212,22.9036233,0 
113.5721216,22.9036231,0 
113.5721221,22.9036229,0 
113.5721225,22.9036228,0 
113.5721229,22.9036227,0 
113.5721233,22.9036226,0 
113.5721237,22.9036226,0 
113.5721241,22.9036226,0 
</coordinates>
</LineString>
</Placemark>
</Folder>