<Folder>
<name>SV  2 172.670836 14.945642</name>
<visibility>1</visibility>
<Placemark>
<name>circle</name>
<visibility>1</visibility>
<Style>
<geomColor></geomColor>
<geomScale>2</geomScale></Style>
<LineString>
<coordinates>
113.5721274,22.9037038,0 
113.5721277,22.9037039,0 
113.5721281,22.9037039,0 
113.5721284,22.9037041,0 
113.5721287,22.9037042,0 
113.5721291,22.9037043,0 
113.5721294,22.9037045,0 
113.5721297,22.9037047,0 
113.5721300,22.9037050,0 
113.5721303,22.9037052,0 
113.5721306,22.9037055,0 
113.5721309,22.9037058,0 
113.5721312,22.9037061,0 
113.5721315,22.9037065,0 
113.5721318,22.9037069,0 
113.5721321,22.9037073,0 
113.5721324,22.9037077,0 
113.5721326,22.9037082,0 
113.5721329,22.9037087,0 
113.5721331,22.9037092,0 
113.5721334,22.9037097,0 
113.5721336,22.9037102,0 
113.5721339,22.9037108,0 
113.5721341,22.9037114,0 
113.5721343,22.9037120,0 
113.5721345,22.9037127,0 
113.5721347,22.9037133,0 
113.5721349,22.9037140,0 
113.5721351,22.9037147,0 
113.5721353,22.9037155,0 
113.5721355,22.9037162,0 
113.5721357,22.9037170,0 
113.5721358,22.9037178,0 
113.5721360,22.9037186,0 
113.5721362,22.9037194,0 
113.5721363,22.9037202,0 
113.5721364,22.9037211,0 
113.5721366,22.9037220,0 
113.5721367,22.9037229,0 
113.5721368,22.9037238,0 
113.5721369,22.9037247,0 
113.5721370,22.9037257,0 
113.5721371,22.9037266,0 
113.5721372,22.9037276,0 
113.5721373,22.9037286,0 
113.5721373,22.9037296,0 
113.5721374,22.9037307,0 
113.5721374,22.9037317,0 
113.5721375,22.9037328,0 
113.5721375,22.9037338,0 
113.5721376,22.9037349,0 
113.5721376,22.9037360,0 
113.5721376,22.9037371,0 
113.5721376,22.9037382,0 
113.5721376,22.9037394,0 
113.5721376,22.9037405,0 
113.5721375,22.9037416,0 
113.5721375,22.9037428,0 
113.5721375,22.9037440,0 
113.5721374,22.9037451,0 
113.5721374,22.9037463,0 
113.5721373,22.9037475,0 
113.5721373,22.9037487,0 
113.5721372,22.9037499,0 
113.5721371,22.9037511,0 
113.5721370,22.9037523,0 
113.5721369,22.9037535,0 
113.5721368,22.9037548,0 
113.5721367,22.9037560,0 
113.5721365,22.9037572,0 
113.5721364,22.9037584,0 
113.5721363,22.9037597,0 
113.5721361,22.9037609,0 
113.5721360,22.9037621,0 
113.5721358,22.9037634,0 
113.5721357,22.9037646,0 
113.5721355,22.9037658,0 
113.5721353,22.9037671,0 
113.5721351,22.9037683,0 
113.5721349,22.9037695,0 
113.5721347,22.9037707,0 
113.5721345,22.9037720,0 
113.5721343,22.9037732,0 
113.5721340,22.9037744,0 
113.5721338,22.9037756,0 
113.5721336,22.9037768,0 
113.5721333,22.9037780,0 
113.5721331,22.9037792,0 
113.5721328,22.9037803,0 
113.5721326,22.9037815,0 
113.5721323,22.9037827,0 
113.5721320,22.9037838,0 
113.5721318,22.9037850,0 
113.5721315,22.9037861,0 
113.5721312,22.9037872,0 
113.5721309,22.9037884,0 
113.5721306,22.9037895,0 
113.5721303,22.9037906,0 
113.5721300,22.9037916,0 
113.5721297,22.9037927,0 
113.5721293,22.9037938,0 
113.5721290,22.9037948,0 
113.5721287,22.9037958,0 
113.5721284,22.9037968,0 
113.5721280,22.9037978,0 
113.5721277,22.9037988,0 
113.5721273,22.9037998,0 
113.5721270,22.9038007,0 
113.5721266,22.9038017,0 
113.5721263,22.9038026,0 
113.5721259,22.9038035,0 
113.5721256,22.9038043,0 
113.5721252,22.9038052,0 
113.5721248,22.9038060,0 
113.5721245,22.9038069,0 
113.5721241,22.9038077,0 
113.5721237,22.9038085,0 
113.5721233,22.9038092,0 
113.5721230,22.9038100,0 
113.5721226,22.9038107,0 
113.5721222,22.9038114,0 
113.5721218,22.9038121,0 
113.5721215,22.9038127,0 
113.5721211,22.9038134,0 
113.5721207,22.9038140,0 
113.5721203,22.9038146,0 
113.5721199,22.9038151,0 
113.5721195,22.9038157,0 
113.5721191,22.9038162,0 
113.5721188,22.9038167,0 
113.5721184,22.9038172,0 
113.5721180,22.9038176,0 
113.5721176,22.9038181,0 
113.5721172,22.9038185,0 
113.5721168,22.9038188,0 
113.5721165,22.9038192,0 
113.5721161,22.9038195,0 
113.5721157,22.9038198,0 
113.5721153,22.9038201,0 
113.5721149,22.9038204,0 
113.5721146,22.9038206,0 
113.5721142,22.9038208,0 
113.5721138,22.9038210,0 
113.5721135,22.9038211,0 
113.5721131,22.9038213,0 
113.5721127,22.9038214,0 
113.5721124,22.9038214,0 
113.5721120,22.9038215,0 
113.5721117,22.9038215,0 
113.5721113,22.9038215,0 
113.5721110,22.9038215,0 
113.5721106,22.9038214,0 
113.5721103,22.9038213,0 
113.5721099,22.9038212,0 
113.5721096,22.9038211,0 
113.5721093,22.9038210,0 
113.5721090,22.9038208,0 
113.5721086,22.9038206,0 
113.5721083,22.9038203,0 
113.5721080,22.9038201,0 
113.5721077,22.9038198,0 
113.5721074,22.9038195,0 
113.5721071,22.9038191,0 
113.5721068,22.9038188,0 
113.5721066,22.9038184,0 
113.5721063,22.9038180,0 
113.5721060,22.9038176,0 
113.5721057,22.9038171,0 
113.5721055,22.9038166,0 
113.5721052,22.9038161,0 
113.5721050,22.9038156,0 
113.5721047,22.9038151,0 
113.5721045,22.9038145,0 
113.5721043,22.9038139,0 
113.5721040,22.9038133,0 
113.5721038,22.9038126,0 
113.5721036,22.9038120,0 
113.5721034,22.9038113,0 
113.5721032,22.9038106,0 
113.5721030,22.9038098,0 
113.5721029,22.9038091,0 
113.5721027,22.9038083,0 
113.5721025,22.9038075,0 
113.5721023,22.9038067,0 
113.5721022,22.9038059,0 
113.5721021,22.9038051,0 
113.5721019,22.9038042,0 
113.5721018,22.9038033,0 
113.5721017,22.9038024,0 
113.5721015,22.9038015,0 
113.5721014,22.9038006,0 
113.5721013,22.9037996,0 
113.5721013,22.9037986,0 
113.5721012,22.9037977,0 
113.5721011,22.9037967,0 
113.5721010,22.9037956,0 
113.5721010,22.9037946,0 
113.5721009,22.9037936,0 
113.5721009,22.9037925,0 
113.5721008,22.9037915,0 
113.5721008,22.9037904,0 
113.5721008,22.9037893,0 
113.5721008,22.9037882,0 
113.5721008,22.9037871,0 
113.5721008,22.9037859,0 
113.5721008,22.9037848,0 
113.5721008,22.9037836,0 
113.5721008,22.9037825,0 
113.5721009,22.9037813,0 
113.5721009,22.9037802,0 
113.5721010,22.9037790,0 
113.5721010,22.9037778,0 
113.5721011,22.9037766,0 
113.5721012,22.9037754,0 
113.5721013,22.9037742,0 
113.5721014,22.9037730,0 
113.5721015,22.9037718,0 
113.5721016,22.9037705,0 
113.5721017,22.9037693,0 
113.5721018,22.9037681,0 
113.5721019,22.9037669,0 
113.5721021,22.9037656,0 
113.5721022,22.9037644,0 
113.5721024,22.9037632,0 
113.5721025,22.9037619,0 
113.5721027,22.9037607,0 
113.5721029,22.9037595,0 
113.5721031,22.9037582,0 
113.5721033,22.9037570,0 
113.5721035,22.9037558,0 
113.5721037,22.9037546,0 
113.5721039,22.9037533,0 
113.5721041,22.9037521,0 
113.5721043,22.9037509,0 
113.5721045,22.9037497,0 
113.5721048,22.9037485,0 
113.5721050,22.9037473,0 
113.5721053,22.9037461,0 
113.5721055,22.9037449,0 
113.5721058,22.9037438,0 
113.5721061,22.9037426,0 
113.5721063,22.9037415,0 
113.5721066,22.9037403,0 
113.5721069,22.9037392,0 
113.5721072,22.9037380,0 
113.5721075,22.9037369,0 
113.5721078,22.9037358,0 
113.5721081,22.9037347,0 
113.5721084,22.9037337,0 
113.5721087,22.9037326,0 
113.5721090,22.9037315,0 
113.5721093,22.9037305,0 
113.5721097,22.9037295,0 
113.5721100,22.9037285,0 
113.5721103,22.9037275,0 
113.5721107,22.9037265,0 
113.5721110,22.9037255,0 
113.5721114,22.9037246,0 
113.5721117,22.9037236,0 
113.5721121,22.9037227,0 
113.5721124,22.9037218,0 
113.5721128,22.9037210,0 
113.5721132,22.9037201,0 
113.5721135,22.9037192,0 
113.5721139,22.9037184,0 
113.5721143,22.9037176,0 
113.5721146,22.9037168,0 
113.5721150,22.9037161,0 
113.5721154,22.9037153,0 
113.5721158,22.9037146,0 
113.5721161,22.9037139,0 
113.5721165,22.9037132,0 
113.5721169,22.9037126,0 
113.5721173,22.9037119,0 
113.5721177,22.9037113,0 
113.5721181,22.9037107,0 
113.5721184,22.9037102,0 
113.5721188,22.9037096,0 
113.5721192,22.9037091,0 
113.5721196,22.9037086,0 
113.5721200,22.9037081,0 
113.5721204,22.9037077,0 
113.5721208,22.9037072,0 
113.5721211,22.9037068,0 
113.5721215,22.9037064,0 
113.5721219,22.9037061,0 
113.5721223,22.9037058,0 
113.5721227,22.9037055,0 
113.5721230,22.9037052,0 
113.5721234,22.9037049,0 
113.5721238,22.9037047,0 
113.5721242,22.9037045,0 
113.5721245,22.9037043,0 
113.5721249,22.9037042,0 
113.5721253,22.9037040,0 
113.5721256,22.9037039,0 
113.5721260,22.9037039,0 
113.5721263,22.9037038,0 
113.5721267,22.9037038,0 
113.5721270,22.9037038,0 
113.5721274,22.9037038,0 
</coordinates>
</LineString>
</Placemark>
</Folder>