<Folder>
<name>SV 36 225.994374 7.194540</name>
<visibility>1</visibility>
<Placemark>
<name>circle</name>
<visibility>1</visibility>
<Style>
<geomColor></geomColor>
<geomScale>2</geomScale></Style>
<LineString>
<coordinates>
113.5716608,22.9035092,0 
113.5716613,22.9035089,0 
113.5716618,22.9035085,0 
113.5716624,22.9035083,0 
113.5716631,22.9035081,0 
113.5716638,22.9035080,0 
113.5716647,22.9035080,0 
113.5716655,22.9035080,0 
113.5716665,22.9035081,0 
113.5716675,22.9035082,0 
113.5716687,22.9035085,0 
113.5716698,22.9035088,0 
113.5716711,22.9035091,0 
113.5716724,22.9035095,0 
113.5716738,22.9035100,0 
113.5716752,22.9035105,0 
113.5716768,22.9035112,0 
113.5716783,22.9035118,0 
113.5716800,22.9035126,0 
113.5716817,22.9035134,0 
113.5716835,22.9035142,0 
113.5716853,22.9035152,0 
113.5716872,22.9035162,0 
113.5716892,22.9035172,0 
113.5716912,22.9035183,0 
113.5716933,22.9035195,0 
113.5716955,22.9035208,0 
113.5716977,22.9035221,0 
113.5716999,22.9035234,0 
113.5717023,22.9035248,0 
113.5717046,22.9035263,0 
113.5717071,22.9035278,0 
113.5717096,22.9035294,0 
113.5717121,22.9035311,0 
113.5717147,22.9035328,0 
113.5717173,22.9035345,0 
113.5717200,22.9035364,0 
113.5717227,22.9035382,0 
113.5717255,22.9035401,0 
113.5717283,22.9035421,0 
113.5717312,22.9035441,0 
113.5717341,22.9035462,0 
113.5717370,22.9035483,0 
113.5717400,22.9035505,0 
113.5717431,22.9035527,0 
113.5717461,22.9035550,0 
113.5717492,22.9035573,0 
113.5717524,22.9035596,0 
113.5717555,22.9035620,0 
113.5717587,22.9035645,0 
113.5717620,22.9035669,0 
113.5717652,22.9035695,0 
113.5717685,22.9035720,0 
113.5717718,22.9035746,0 
113.5717752,22.9035772,0 
113.5717785,22.9035799,0 
113.5717819,22.9035826,0 
113.5717853,22.9035853,0 
113.5717887,22.9035881,0 
113.5717922,22.9035909,0 
113.5717956,22.9035937,0 
113.5717991,22.9035966,0 
113.5718026,22.9035995,0 
113.5718061,22.9036024,0 
113.5718096,22.9036053,0 
113.5718131,22.9036082,0 
113.5718166,22.9036112,0 
113.5718201,22.9036142,0 
113.5718237,22.9036172,0 
113.5718272,22.9036203,0 
113.5718307,22.9036233,0 
113.5718343,22.9036264,0 
113.5718378,22.9036295,0 
113.5718413,22.9036326,0 
113.5718448,22.9036357,0 
113.5718483,22.9036388,0 
113.5718518,22.9036419,0 
113.5718553,22.9036450,0 
113.5718588,22.9036482,0 
113.5718623,22.9036513,0 
113.5718657,22.9036544,0 
113.5718691,22.9036576,0 
113.5718725,22.9036607,0 
113.5718759,22.9036639,0 
113.5718793,22.9036670,0 
113.5718827,22.9036701,0 
113.5718860,22.9036733,0 
113.5718893,22.9036764,0 
113.5718926,22.9036795,0 
113.5718958,22.9036826,0 
113.5718990,22.9036857,0 
113.5719022,22.9036888,0 
113.5719054,22.9036919,0 
113.5719085,22.9036949,0 
113.5719116,22.9036980,0 
113.5719146,22.9037010,0 
113.5719176,22.9037040,0 
113.5719206,22.9037070,0 
113.5719235,22.9037099,0 
113.5719264,22.9037129,0 
113.5719293,22.9037158,0 
113.5719321,22.9037187,0 
113.5719348,22.9037215,0 
113.5719375,22.9037244,0 
113.5719402,22.9037272,0 
113.5719428,22.9037299,0 
113.5719454,22.9037327,0 
113.5719479,22.9037354,0 
113.5719503,22.9037381,0 
113.5719527,22.9037407,0 
113.5719551,22.9037433,0 
113.5719574,22.9037459,0 
113.5719596,22.9037484,0 
113.5719618,22.9037509,0 
113.5719639,22.9037534,0 
113.5719659,22.9037558,0 
113.5719679,22.9037581,0 
113.5719699,22.9037605,0 
113.5719718,22.9037627,0 
113.5719736,22.9037650,0 
113.5719753,22.9037671,0 
113.5719770,22.9037693,0 
113.5719786,22.9037714,0 
113.5719802,22.9037734,0 
113.5719817,22.9037754,0 
113.5719831,22.9037773,0 
113.5719844,22.9037792,0 
113.5719857,22.9037810,0 
113.5719869,22.9037828,0 
113.5719881,22.9037845,0 
113.5719891,22.9037862,0 
113.5719901,22.9037878,0 
113.5719911,22.9037894,0 
113.5719919,22.9037909,0 
113.5719927,22.9037923,0 
113.5719934,22.9037937,0 
113.5719941,22.9037950,0 
113.5719947,22.9037962,0 
113.5719952,22.9037974,0 
113.5719956,22.9037986,0 
113.5719959,22.9037996,0 
113.5719962,22.9038007,0 
113.5719964,22.9038016,0 
113.5719965,22.9038025,0 
113.5719966,22.9038033,0 
113.5719966,22.9038041,0 
113.5719965,22.9038048,0 
113.5719963,22.9038054,0 
113.5719961,22.9038060,0 
113.5719958,22.9038065,0 
113.5719954,22.9038069,0 
113.5719949,22.9038073,0 
113.5719944,22.9038076,0 
113.5719938,22.9038078,0 
113.5719931,22.9038080,0 
113.5719923,22.9038081,0 
113.5719915,22.9038082,0 
113.5719906,22.9038081,0 
113.5719897,22.9038080,0 
113.5719886,22.9038079,0 
113.5719875,22.9038077,0 
113.5719863,22.9038074,0 
113.5719851,22.9038070,0 
113.5719838,22.9038066,0 
113.5719824,22.9038061,0 
113.5719809,22.9038056,0 
113.5719794,22.9038050,0 
113.5719778,22.9038043,0 
113.5719762,22.9038036,0 
113.5719745,22.9038028,0 
113.5719727,22.9038019,0 
113.5719708,22.9038010,0 
113.5719689,22.9038000,0 
113.5719670,22.9037989,0 
113.5719649,22.9037978,0 
113.5719628,22.9037966,0 
113.5719607,22.9037954,0 
113.5719585,22.9037941,0 
113.5719562,22.9037927,0 
113.5719539,22.9037913,0 
113.5719515,22.9037898,0 
113.5719491,22.9037883,0 
113.5719466,22.9037867,0 
113.5719441,22.9037851,0 
113.5719415,22.9037834,0 
113.5719389,22.9037816,0 
113.5719362,22.9037798,0 
113.5719335,22.9037779,0 
113.5719307,22.9037760,0 
113.5719279,22.9037740,0 
113.5719250,22.9037720,0 
113.5719221,22.9037699,0 
113.5719191,22.9037678,0 
113.5719161,22.9037656,0 
113.5719131,22.9037634,0 
113.5719100,22.9037612,0 
113.5719069,22.9037589,0 
113.5719038,22.9037565,0 
113.5719006,22.9037541,0 
113.5718974,22.9037517,0 
113.5718942,22.9037492,0 
113.5718909,22.9037467,0 
113.5718877,22.9037441,0 
113.5718843,22.9037415,0 
113.5718810,22.9037389,0 
113.5718776,22.9037362,0 
113.5718743,22.9037335,0 
113.5718709,22.9037308,0 
113.5718674,22.9037280,0 
113.5718640,22.9037252,0 
113.5718605,22.9037224,0 
113.5718571,22.9037196,0 
113.5718536,22.9037167,0 
113.5718501,22.9037138,0 
113.5718466,22.9037108,0 
113.5718431,22.9037079,0 
113.5718396,22.9037049,0 
113.5718360,22.9037019,0 
113.5718325,22.9036989,0 
113.5718290,22.9036959,0 
113.5718254,22.9036928,0 
113.5718219,22.9036898,0 
113.5718184,22.9036867,0 
113.5718149,22.9036836,0 
113.5718114,22.9036805,0 
113.5718078,22.9036774,0 
113.5718044,22.9036742,0 
113.5718009,22.9036711,0 
113.5717974,22.9036680,0 
113.5717939,22.9036648,0 
113.5717905,22.9036617,0 
113.5717870,22.9036586,0 
113.5717836,22.9036554,0 
113.5717802,22.9036523,0 
113.5717769,22.9036491,0 
113.5717735,22.9036460,0 
113.5717702,22.9036429,0 
113.5717669,22.9036397,0 
113.5717636,22.9036366,0 
113.5717604,22.9036335,0 
113.5717571,22.9036304,0 
113.5717540,22.9036273,0 
113.5717508,22.9036243,0 
113.5717477,22.9036212,0 
113.5717446,22.9036182,0 
113.5717416,22.9036152,0 
113.5717385,22.9036122,0 
113.5717356,22.9036092,0 
113.5717326,22.9036062,0 
113.5717298,22.9036033,0 
113.5717269,22.9036004,0 
113.5717241,22.9035975,0 
113.5717214,22.9035946,0 
113.5717187,22.9035918,0 
113.5717160,22.9035890,0 
113.5717134,22.9035862,0 
113.5717108,22.9035835,0 
113.5717083,22.9035807,0 
113.5717059,22.9035781,0 
113.5717035,22.9035754,0 
113.5717011,22.9035728,0 
113.5716988,22.9035702,0 
113.5716966,22.9035677,0 
113.5716944,22.9035652,0 
113.5716923,22.9035628,0 
113.5716902,22.9035604,0 
113.5716882,22.9035580,0 
113.5716863,22.9035557,0 
113.5716844,22.9035534,0 
113.5716826,22.9035512,0 
113.5716808,22.9035490,0 
113.5716792,22.9035469,0 
113.5716775,22.9035448,0 
113.5716760,22.9035427,0 
113.5716745,22.9035408,0 
113.5716731,22.9035388,0 
113.5716717,22.9035369,0 
113.5716705,22.9035351,0 
113.5716692,22.9035333,0 
113.5716681,22.9035316,0 
113.5716670,22.9035299,0 
113.5716660,22.9035283,0 
113.5716651,22.9035268,0 
113.5716642,22.9035253,0 
113.5716634,22.9035239,0 
113.5716627,22.9035225,0 
113.5716621,22.9035212,0 
113.5716615,22.9035199,0 
113.5716610,22.9035187,0 
113.5716606,22.9035176,0 
113.5716602,22.9035165,0 
113.5716600,22.9035155,0 
113.5716598,22.9035145,0 
113.5716596,22.9035136,0 
113.5716596,22.9035128,0 
113.5716596,22.9035121,0 
113.5716597,22.9035114,0 
113.5716599,22.9035107,0 
113.5716601,22.9035102,0 
113.5716604,22.9035097,0 
113.5716608,22.9035092,0 
</coordinates>
</LineString>
</Placemark>
</Folder>