<Folder>
<name>SV  4 319.135255 14.942197</name>
<visibility>1</visibility>
<Placemark>
<name>circle</name>
<visibility>1</visibility>
<Style>
<geomColor></geomColor>
<geomScale>2</geomScale></Style>
<LineString>
<coordinates>
113.5719478,22.9040620,0 
113.5719476,22.9040617,0 
113.5719473,22.9040615,0 
113.5719470,22.9040612,0 
113.5719468,22.9040608,0 
113.5719466,22.9040605,0 
113.5719464,22.9040601,0 
113.5719462,22.9040597,0 
113.5719461,22.9040593,0 
113.5719460,22.9040589,0 
113.5719459,22.9040584,0 
113.5719458,22.9040580,0 
113.5719458,22.9040575,0 
113.5719457,22.9040570,0 
113.5719457,22.9040564,0 
113.5719457,22.9040559,0 
113.5719458,22.9040553,0 
113.5719458,22.9040547,0 
113.5719459,22.9040541,0 
113.5719460,22.9040534,0 
113.5719461,22.9040528,0 
113.5719463,22.9040521,0 
113.5719465,22.9040514,0 
113.5719467,22.9040507,0 
113.5719469,22.9040499,0 
113.5719471,22.9040492,0 
113.5719474,22.9040484,0 
113.5719476,22.9040476,0 
113.5719480,22.9040468,0 
113.5719483,22.9040460,0 
113.5719486,22.9040452,0 
113.5719490,22.9040443,0 
113.5719494,22.9040435,0 
113.5719498,22.9040426,0 
113.5719502,22.9040417,0 
113.5719507,22.9040408,0 
113.5719511,22.9040399,0 
113.5719516,22.9040390,0 
113.5719521,22.9040380,0 
113.5719527,22.9040371,0 
113.5719532,22.9040361,0 
113.5719538,22.9040351,0 
113.5719544,22.9040341,0 
113.5719550,22.9040331,0 
113.5719556,22.9040321,0 
113.5719562,22.9040311,0 
113.5719569,22.9040300,0 
113.5719576,22.9040290,0 
113.5719583,22.9040280,0 
113.5719590,22.9040269,0 
113.5719597,22.9040258,0 
113.5719604,22.9040248,0 
113.5719612,22.9040237,0 
113.5719620,22.9040226,0 
113.5719628,22.9040215,0 
113.5719636,22.9040204,0 
113.5719644,22.9040193,0 
113.5719652,22.9040182,0 
113.5719661,22.9040171,0 
113.5719669,22.9040160,0 
113.5719678,22.9040149,0 
113.5719687,22.9040138,0 
113.5719696,22.9040126,0 
113.5719705,22.9040115,0 
113.5719714,22.9040104,0 
113.5719724,22.9040093,0 
113.5719733,22.9040082,0 
113.5719743,22.9040070,0 
113.5719752,22.9040059,0 
113.5719762,22.9040048,0 
113.5719772,22.9040037,0 
113.5719782,22.9040026,0 
113.5719792,22.9040015,0 
113.5719802,22.9040004,0 
113.5719812,22.9039993,0 
113.5719823,22.9039982,0 
113.5719833,22.9039971,0 
113.5719843,22.9039960,0 
113.5719854,22.9039949,0 
113.5719864,22.9039939,0 
113.5719875,22.9039928,0 
113.5719885,22.9039917,0 
113.5719896,22.9039907,0 
113.5719906,22.9039896,0 
113.5719917,22.9039886,0 
113.5719928,22.9039876,0 
113.5719938,22.9039866,0 
113.5719949,22.9039856,0 
113.5719960,22.9039846,0 
113.5719970,22.9039836,0 
113.5719981,22.9039826,0 
113.5719992,22.9039817,0 
113.5720003,22.9039807,0 
113.5720013,22.9039798,0 
113.5720024,22.9039789,0 
113.5720034,22.9039780,0 
113.5720045,22.9039771,0 
113.5720056,22.9039762,0 
113.5720066,22.9039753,0 
113.5720077,22.9039745,0 
113.5720087,22.9039736,0 
113.5720098,22.9039728,0 
113.5720108,22.9039720,0 
113.5720118,22.9039712,0 
113.5720128,22.9039705,0 
113.5720139,22.9039697,0 
113.5720149,22.9039690,0 
113.5720159,22.9039683,0 
113.5720168,22.9039676,0 
113.5720178,22.9039669,0 
113.5720188,22.9039662,0 
113.5720198,22.9039656,0 
113.5720207,22.9039650,0 
113.5720217,22.9039644,0 
113.5720226,22.9039638,0 
113.5720235,22.9039632,0 
113.5720244,22.9039627,0 
113.5720253,22.9039622,0 
113.5720262,22.9039617,0 
113.5720271,22.9039612,0 
113.5720279,22.9039608,0 
113.5720288,22.9039603,0 
113.5720296,22.9039599,0 
113.5720304,22.9039595,0 
113.5720312,22.9039591,0 
113.5720320,22.9039588,0 
113.5720328,22.9039585,0 
113.5720335,22.9039582,0 
113.5720343,22.9039579,0 
113.5720350,22.9039576,0 
113.5720357,22.9039574,0 
113.5720364,22.9039572,0 
113.5720371,22.9039570,0 
113.5720377,22.9039568,0 
113.5720383,22.9039567,0 
113.5720390,22.9039566,0 
113.5720396,22.9039565,0 
113.5720401,22.9039564,0 
113.5720407,22.9039564,0 
113.5720412,22.9039564,0 
113.5720418,22.9039564,0 
113.5720423,22.9039564,0 
113.5720427,22.9039564,0 
113.5720432,22.9039565,0 
113.5720437,22.9039566,0 
113.5720441,22.9039567,0 
113.5720445,22.9039568,0 
113.5720449,22.9039570,0 
113.5720452,22.9039572,0 
113.5720456,22.9039574,0 
113.5720459,22.9039576,0 
113.5720462,22.9039579,0 
113.5720464,22.9039582,0 
113.5720467,22.9039585,0 
113.5720469,22.9039588,0 
113.5720471,22.9039591,0 
113.5720473,22.9039595,0 
113.5720475,22.9039599,0 
113.5720476,22.9039603,0 
113.5720477,22.9039607,0 
113.5720478,22.9039612,0 
113.5720479,22.9039617,0 
113.5720480,22.9039622,0 
113.5720480,22.9039627,0 
113.5720480,22.9039632,0 
113.5720480,22.9039638,0 
113.5720480,22.9039644,0 
113.5720479,22.9039650,0 
113.5720478,22.9039656,0 
113.5720477,22.9039662,0 
113.5720476,22.9039669,0 
113.5720474,22.9039676,0 
113.5720473,22.9039683,0 
113.5720471,22.9039690,0 
113.5720468,22.9039697,0 
113.5720466,22.9039704,0 
113.5720464,22.9039712,0 
113.5720461,22.9039720,0 
113.5720458,22.9039728,0 
113.5720454,22.9039736,0 
113.5720451,22.9039744,0 
113.5720447,22.9039753,0 
113.5720443,22.9039762,0 
113.5720439,22.9039770,0 
113.5720435,22.9039779,0 
113.5720431,22.9039788,0 
113.5720426,22.9039797,0 
113.5720421,22.9039807,0 
113.5720416,22.9039816,0 
113.5720411,22.9039826,0 
113.5720405,22.9039835,0 
113.5720399,22.9039845,0 
113.5720394,22.9039855,0 
113.5720388,22.9039865,0 
113.5720381,22.9039875,0 
113.5720375,22.9039886,0 
113.5720368,22.9039896,0 
113.5720361,22.9039906,0 
113.5720355,22.9039917,0 
113.5720347,22.9039927,0 
113.5720340,22.9039938,0 
113.5720333,22.9039949,0 
113.5720325,22.9039960,0 
113.5720317,22.9039970,0 
113.5720309,22.9039981,0 
113.5720301,22.9039992,0 
113.5720293,22.9040003,0 
113.5720285,22.9040014,0 
113.5720276,22.9040025,0 
113.5720268,22.9040036,0 
113.5720259,22.9040048,0 
113.5720250,22.9040059,0 
113.5720241,22.9040070,0 
113.5720232,22.9040081,0 
113.5720223,22.9040092,0 
113.5720213,22.9040104,0 
113.5720204,22.9040115,0 
113.5720194,22.9040126,0 
113.5720185,22.9040137,0 
113.5720175,22.9040148,0 
113.5720165,22.9040159,0 
113.5720155,22.9040171,0 
113.5720145,22.9040182,0 
113.5720135,22.9040193,0 
113.5720125,22.9040204,0 
113.5720115,22.9040215,0 
113.5720104,22.9040225,0 
113.5720094,22.9040236,0 
113.5720084,22.9040247,0 
113.5720073,22.9040258,0 
113.5720063,22.9040269,0 
113.5720052,22.9040279,0 
113.5720041,22.9040290,0 
113.5720031,22.9040300,0 
113.5720020,22.9040310,0 
113.5720010,22.9040321,0 
113.5719999,22.9040331,0 
113.5719988,22.9040341,0 
113.5719977,22.9040351,0 
113.5719967,22.9040360,0 
113.5719956,22.9040370,0 
113.5719945,22.9040380,0 
113.5719935,22.9040389,0 
113.5719924,22.9040399,0 
113.5719913,22.9040408,0 
113.5719903,22.9040417,0 
113.5719892,22.9040426,0 
113.5719882,22.9040434,0 
113.5719871,22.9040443,0 
113.5719860,22.9040452,0 
113.5719850,22.9040460,0 
113.5719840,22.9040468,0 
113.5719829,22.9040476,0 
113.5719819,22.9040484,0 
113.5719809,22.9040492,0 
113.5719799,22.9040499,0 
113.5719789,22.9040506,0 
113.5719779,22.9040514,0 
113.5719769,22.9040521,0 
113.5719759,22.9040527,0 
113.5719749,22.9040534,0 
113.5719740,22.9040540,0 
113.5719730,22.9040546,0 
113.5719721,22.9040552,0 
113.5719711,22.9040558,0 
113.5719702,22.9040564,0 
113.5719693,22.9040569,0 
113.5719684,22.9040574,0 
113.5719675,22.9040579,0 
113.5719667,22.9040584,0 
113.5719658,22.9040589,0 
113.5719649,22.9040593,0 
113.5719641,22.9040597,0 
113.5719633,22.9040601,0 
113.5719625,22.9040605,0 
113.5719617,22.9040608,0 
113.5719609,22.9040612,0 
113.5719602,22.9040615,0 
113.5719595,22.9040617,0 
113.5719587,22.9040620,0 
113.5719580,22.9040622,0 
113.5719573,22.9040624,0 
113.5719567,22.9040626,0 
113.5719560,22.9040628,0 
113.5719554,22.9040629,0 
113.5719548,22.9040630,0 
113.5719542,22.9040631,0 
113.5719536,22.9040632,0 
113.5719530,22.9040633,0 
113.5719525,22.9040633,0 
113.5719520,22.9040633,0 
113.5719515,22.9040633,0 
113.5719510,22.9040632,0 
113.5719505,22.9040631,0 
113.5719501,22.9040631,0 
113.5719496,22.9040629,0 
113.5719492,22.9040628,0 
113.5719489,22.9040626,0 
113.5719485,22.9040624,0 
113.5719482,22.9040622,0 
113.5719478,22.9040620,0 
</coordinates>
</LineString>
</Placemark>
</Folder>