<Folder>
<name>SV  4 317.633442 12.333893</name>
<visibility>1</visibility>
<Placemark>
<name>circle</name>
<visibility>1</visibility>
<Style>
<geomColor></geomColor>
<geomScale>2</geomScale></Style>
<LineString>
<coordinates>
113.5719000,22.9041020,0 
113.5718997,22.9041017,0 
113.5718994,22.9041014,0 
113.5718991,22.9041010,0 
113.5718989,22.9041007,0 
113.5718987,22.9041002,0 
113.5718985,22.9040998,0 
113.5718984,22.9040993,0 
113.5718983,22.9040988,0 
113.5718982,22.9040983,0 
113.5718982,22.9040978,0 
113.5718982,22.9040972,0 
113.5718982,22.9040966,0 
113.5718982,22.9040959,0 
113.5718983,22.9040953,0 
113.5718984,22.9040946,0 
113.5718986,22.9040939,0 
113.5718987,22.9040931,0 
113.5718989,22.9040923,0 
113.5718991,22.9040916,0 
113.5718994,22.9040907,0 
113.5718997,22.9040899,0 
113.5719000,22.9040890,0 
113.5719003,22.9040881,0 
113.5719007,22.9040872,0 
113.5719011,22.9040863,0 
113.5719016,22.9040853,0 
113.5719020,22.9040843,0 
113.5719025,22.9040833,0 
113.5719030,22.9040823,0 
113.5719036,22.9040812,0 
113.5719042,22.9040801,0 
113.5719048,22.9040791,0 
113.5719054,22.9040779,0 
113.5719061,22.9040768,0 
113.5719067,22.9040757,0 
113.5719074,22.9040745,0 
113.5719082,22.9040733,0 
113.5719090,22.9040721,0 
113.5719097,22.9040709,0 
113.5719106,22.9040696,0 
113.5719114,22.9040684,0 
113.5719123,22.9040671,0 
113.5719131,22.9040658,0 
113.5719141,22.9040645,0 
113.5719150,22.9040632,0 
113.5719160,22.9040619,0 
113.5719169,22.9040606,0 
113.5719179,22.9040592,0 
113.5719190,22.9040579,0 
113.5719200,22.9040565,0 
113.5719211,22.9040551,0 
113.5719222,22.9040537,0 
113.5719233,22.9040524,0 
113.5719244,22.9040509,0 
113.5719255,22.9040495,0 
113.5719267,22.9040481,0 
113.5719279,22.9040467,0 
113.5719291,22.9040453,0 
113.5719303,22.9040438,0 
113.5719315,22.9040424,0 
113.5719328,22.9040409,0 
113.5719340,22.9040395,0 
113.5719353,22.9040381,0 
113.5719366,22.9040366,0 
113.5719379,22.9040352,0 
113.5719392,22.9040337,0 
113.5719406,22.9040323,0 
113.5719419,22.9040308,0 
113.5719433,22.9040294,0 
113.5719446,22.9040279,0 
113.5719460,22.9040265,0 
113.5719474,22.9040250,0 
113.5719488,22.9040236,0 
113.5719502,22.9040221,0 
113.5719516,22.9040207,0 
113.5719530,22.9040193,0 
113.5719544,22.9040179,0 
113.5719558,22.9040165,0 
113.5719573,22.9040151,0 
113.5719587,22.9040137,0 
113.5719601,22.9040123,0 
113.5719616,22.9040109,0 
113.5719630,22.9040096,0 
113.5719645,22.9040082,0 
113.5719659,22.9040069,0 
113.5719674,22.9040055,0 
113.5719688,22.9040042,0 
113.5719703,22.9040029,0 
113.5719717,22.9040016,0 
113.5719732,22.9040003,0 
113.5719746,22.9039991,0 
113.5719760,22.9039978,0 
113.5719775,22.9039966,0 
113.5719789,22.9039954,0 
113.5719803,22.9039942,0 
113.5719818,22.9039930,0 
113.5719832,22.9039919,0 
113.5719846,22.9039907,0 
113.5719860,22.9039896,0 
113.5719874,22.9039885,0 
113.5719887,22.9039874,0 
113.5719901,22.9039863,0 
113.5719915,22.9039853,0 
113.5719928,22.9039843,0 
113.5719942,22.9039833,0 
113.5719955,22.9039823,0 
113.5719968,22.9039813,0 
113.5719981,22.9039804,0 
113.5719994,22.9039795,0 
113.5720007,22.9039786,0 
113.5720020,22.9039777,0 
113.5720032,22.9039769,0 
113.5720044,22.9039761,0 
113.5720057,22.9039753,0 
113.5720068,22.9039746,0 
113.5720080,22.9039738,0 
113.5720092,22.9039731,0 
113.5720103,22.9039724,0 
113.5720115,22.9039718,0 
113.5720126,22.9039711,0 
113.5720137,22.9039705,0 
113.5720147,22.9039700,0 
113.5720158,22.9039694,0 
113.5720168,22.9039689,0 
113.5720178,22.9039684,0 
113.5720188,22.9039680,0 
113.5720197,22.9039675,0 
113.5720207,22.9039671,0 
113.5720216,22.9039668,0 
113.5720225,22.9039664,0 
113.5720233,22.9039661,0 
113.5720242,22.9039658,0 
113.5720250,22.9039656,0 
113.5720258,22.9039654,0 
113.5720265,22.9039652,0 
113.5720273,22.9039650,0 
113.5720280,22.9039649,0 
113.5720287,22.9039648,0 
113.5720293,22.9039647,0 
113.5720300,22.9039647,0 
113.5720306,22.9039647,0 
113.5720311,22.9039647,0 
113.5720317,22.9039647,0 
113.5720322,22.9039648,0 
113.5720327,22.9039649,0 
113.5720331,22.9039651,0 
113.5720336,22.9039652,0 
113.5720340,22.9039655,0 
113.5720344,22.9039657,0 
113.5720347,22.9039659,0 
113.5720350,22.9039662,0 
113.5720353,22.9039666,0 
113.5720356,22.9039669,0 
113.5720358,22.9039673,0 
113.5720360,22.9039677,0 
113.5720362,22.9039681,0 
113.5720363,22.9039686,0 
113.5720364,22.9039691,0 
113.5720365,22.9039696,0 
113.5720365,22.9039702,0 
113.5720365,22.9039708,0 
113.5720365,22.9039714,0 
113.5720365,22.9039720,0 
113.5720364,22.9039727,0 
113.5720363,22.9039734,0 
113.5720361,22.9039741,0 
113.5720360,22.9039748,0 
113.5720358,22.9039756,0 
113.5720356,22.9039764,0 
113.5720353,22.9039772,0 
113.5720350,22.9039781,0 
113.5720347,22.9039789,0 
113.5720343,22.9039798,0 
113.5720340,22.9039807,0 
113.5720336,22.9039817,0 
113.5720331,22.9039827,0 
113.5720327,22.9039836,0 
113.5720322,22.9039846,0 
113.5720317,22.9039857,0 
113.5720311,22.9039867,0 
113.5720305,22.9039878,0 
113.5720299,22.9039889,0 
113.5720293,22.9039900,0 
113.5720286,22.9039911,0 
113.5720280,22.9039923,0 
113.5720272,22.9039935,0 
113.5720265,22.9039946,0 
113.5720257,22.9039958,0 
113.5720250,22.9039971,0 
113.5720241,22.9039983,0 
113.5720233,22.9039996,0 
113.5720224,22.9040008,0 
113.5720216,22.9040021,0 
113.5720206,22.9040034,0 
113.5720197,22.9040047,0 
113.5720187,22.9040060,0 
113.5720178,22.9040074,0 
113.5720168,22.9040087,0 
113.5720157,22.9040101,0 
113.5720147,22.9040114,0 
113.5720136,22.9040128,0 
113.5720125,22.9040142,0 
113.5720114,22.9040156,0 
113.5720103,22.9040170,0 
113.5720092,22.9040184,0 
113.5720080,22.9040198,0 
113.5720068,22.9040213,0 
113.5720056,22.9040227,0 
113.5720044,22.9040241,0 
113.5720032,22.9040256,0 
113.5720019,22.9040270,0 
113.5720007,22.9040284,0 
113.5719994,22.9040299,0 
113.5719981,22.9040313,0 
113.5719968,22.9040328,0 
113.5719955,22.9040342,0 
113.5719941,22.9040357,0 
113.5719928,22.9040371,0 
113.5719914,22.9040386,0 
113.5719901,22.9040400,0 
113.5719887,22.9040415,0 
113.5719873,22.9040429,0 
113.5719859,22.9040444,0 
113.5719845,22.9040458,0 
113.5719831,22.9040472,0 
113.5719817,22.9040487,0 
113.5719803,22.9040501,0 
113.5719789,22.9040515,0 
113.5719774,22.9040529,0 
113.5719760,22.9040543,0 
113.5719746,22.9040557,0 
113.5719731,22.9040570,0 
113.5719717,22.9040584,0 
113.5719702,22.9040597,0 
113.5719688,22.9040611,0 
113.5719673,22.9040624,0 
113.5719659,22.9040637,0 
113.5719644,22.9040650,0 
113.5719630,22.9040663,0 
113.5719615,22.9040676,0 
113.5719601,22.9040689,0 
113.5719587,22.9040701,0 
113.5719572,22.9040713,0 
113.5719558,22.9040726,0 
113.5719544,22.9040738,0 
113.5719529,22.9040749,0 
113.5719515,22.9040761,0 
113.5719501,22.9040772,0 
113.5719487,22.9040784,0 
113.5719473,22.9040795,0 
113.5719459,22.9040806,0 
113.5719446,22.9040816,0 
113.5719432,22.9040827,0 
113.5719419,22.9040837,0 
113.5719405,22.9040847,0 
113.5719392,22.9040857,0 
113.5719379,22.9040866,0 
113.5719366,22.9040876,0 
113.5719353,22.9040885,0 
113.5719340,22.9040893,0 
113.5719327,22.9040902,0 
113.5719315,22.9040910,0 
113.5719303,22.9040919,0 
113.5719290,22.9040926,0 
113.5719278,22.9040934,0 
113.5719267,22.9040941,0 
113.5719255,22.9040948,0 
113.5719244,22.9040955,0 
113.5719232,22.9040962,0 
113.5719221,22.9040968,0 
113.5719210,22.9040974,0 
113.5719200,22.9040980,0 
113.5719189,22.9040985,0 
113.5719179,22.9040990,0 
113.5719169,22.9040995,0 
113.5719159,22.9041000,0 
113.5719150,22.9041004,0 
113.5719140,22.9041008,0 
113.5719131,22.9041012,0 
113.5719122,22.9041015,0 
113.5719114,22.9041018,0 
113.5719105,22.9041021,0 
113.5719097,22.9041024,0 
113.5719089,22.9041026,0 
113.5719082,22.9041028,0 
113.5719074,22.9041029,0 
113.5719067,22.9041031,0 
113.5719060,22.9041032,0 
113.5719054,22.9041032,0 
113.5719047,22.9041033,0 
113.5719041,22.9041033,0 
113.5719036,22.9041033,0 
113.5719030,22.9041032,0 
113.5719025,22.9041031,0 
113.5719020,22.9041030,0 
113.5719015,22.9041029,0 
113.5719011,22.9041027,0 
113.5719007,22.9041025,0 
113.5719003,22.9041023,0 
113.5719000,22.9041020,0 
</coordinates>
</LineString>
</Placemark>
</Folder>