<Folder>
<name>SV 31 222.706411 6.662196</name>
<visibility>1</visibility>
<Placemark>
<name>circle</name>
<visibility>1</visibility>
<Style>
<geomColor>FFFF00FF</geomColor>
<geomScale>2</geomScale></Style>
<LineString>
<coordinates>
113.5716462,22.9034471,0 
113.5716467,22.9034467,0 
113.5716472,22.9034464,0 
113.5716479,22.9034462,0 
113.5716486,22.9034461,0 
113.5716494,22.9034461,0 
113.5716503,22.9034461,0 
113.5716513,22.9034462,0 
113.5716523,22.9034464,0 
113.5716534,22.9034466,0 
113.5716546,22.9034470,0 
113.5716559,22.9034474,0 
113.5716572,22.9034479,0 
113.5716586,22.9034485,0 
113.5716601,22.9034491,0 
113.5716616,22.9034498,0 
113.5716633,22.9034506,0 
113.5716649,22.9034515,0 
113.5716667,22.9034525,0 
113.5716685,22.9034535,0 
113.5716704,22.9034546,0 
113.5716724,22.9034558,0 
113.5716744,22.9034570,0 
113.5716765,22.9034584,0 
113.5716786,22.9034597,0 
113.5716809,22.9034612,0 
113.5716831,22.9034627,0 
113.5716855,22.9034644,0 
113.5716879,22.9034660,0 
113.5716903,22.9034678,0 
113.5716929,22.9034696,0 
113.5716954,22.9034715,0 
113.5716981,22.9034734,0 
113.5717007,22.9034754,0 
113.5717035,22.9034775,0 
113.5717063,22.9034796,0 
113.5717091,22.9034818,0 
113.5717120,22.9034841,0 
113.5717149,22.9034864,0 
113.5717179,22.9034888,0 
113.5717210,22.9034913,0 
113.5717240,22.9034938,0 
113.5717272,22.9034963,0 
113.5717303,22.9034989,0 
113.5717335,22.9035016,0 
113.5717368,22.9035043,0 
113.5717400,22.9035071,0 
113.5717433,22.9035099,0 
113.5717467,22.9035128,0 
113.5717501,22.9035157,0 
113.5717535,22.9035187,0 
113.5717569,22.9035217,0 
113.5717604,22.9035248,0 
113.5717639,22.9035279,0 
113.5717674,22.9035310,0 
113.5717710,22.9035342,0 
113.5717746,22.9035374,0 
113.5717782,22.9035407,0 
113.5717818,22.9035440,0 
113.5717854,22.9035473,0 
113.5717890,22.9035507,0 
113.5717927,22.9035541,0 
113.5717964,22.9035575,0 
113.5718001,22.9035610,0 
113.5718038,22.9035645,0 
113.5718075,22.9035680,0 
113.5718112,22.9035715,0 
113.5718149,22.9035751,0 
113.5718186,22.9035787,0 
113.5718223,22.9035822,0 
113.5718261,22.9035859,0 
113.5718298,22.9035895,0 
113.5718335,22.9035931,0 
113.5718372,22.9035968,0 
113.5718409,22.9036005,0 
113.5718446,22.9036041,0 
113.5718483,22.9036078,0 
113.5718520,22.9036115,0 
113.5718556,22.9036152,0 
113.5718593,22.9036189,0 
113.5718629,22.9036226,0 
113.5718665,22.9036263,0 
113.5718701,22.9036301,0 
113.5718737,22.9036338,0 
113.5718772,22.9036374,0 
113.5718808,22.9036411,0 
113.5718843,22.9036448,0 
113.5718877,22.9036485,0 
113.5718912,22.9036522,0 
113.5718946,22.9036558,0 
113.5718980,22.9036594,0 
113.5719013,22.9036631,0 
113.5719047,22.9036667,0 
113.5719079,22.9036702,0 
113.5719112,22.9036738,0 
113.5719144,22.9036773,0 
113.5719175,22.9036808,0 
113.5719207,22.9036843,0 
113.5719237,22.9036878,0 
113.5719268,22.9036912,0 
113.5719298,22.9036946,0 
113.5719327,22.9036980,0 
113.5719356,22.9037013,0 
113.5719384,22.9037047,0 
113.5719412,22.9037079,0 
113.5719440,22.9037112,0 
113.5719467,22.9037143,0 
113.5719493,22.9037175,0 
113.5719519,22.9037206,0 
113.5719544,22.9037237,0 
113.5719569,22.9037267,0 
113.5719593,22.9037297,0 
113.5719616,22.9037326,0 
113.5719639,22.9037355,0 
113.5719661,22.9037383,0 
113.5719683,22.9037411,0 
113.5719704,22.9037439,0 
113.5719724,22.9037465,0 
113.5719744,22.9037492,0 
113.5719762,22.9037517,0 
113.5719781,22.9037542,0 
113.5719798,22.9037567,0 
113.5719815,22.9037591,0 
113.5719831,22.9037614,0 
113.5719847,22.9037637,0 
113.5719862,22.9037659,0 
113.5719876,22.9037681,0 
113.5719889,22.9037702,0 
113.5719902,22.9037722,0 
113.5719914,22.9037742,0 
113.5719925,22.9037760,0 
113.5719935,22.9037779,0 
113.5719945,22.9037796,0 
113.5719954,22.9037813,0 
113.5719962,22.9037829,0 
113.5719969,22.9037845,0 
113.5719976,22.9037860,0 
113.5719982,22.9037874,0 
113.5719987,22.9037887,0 
113.5719991,22.9037900,0 
113.5719995,22.9037912,0 
113.5719997,22.9037923,0 
113.5719999,22.9037933,0 
113.5720001,22.9037943,0 
113.5720001,22.9037952,0 
113.5720001,22.9037960,0 
113.5720000,22.9037967,0 
113.5719998,22.9037974,0 
113.5719995,22.9037980,0 
113.5719991,22.9037985,0 
113.5719987,22.9037989,0 
113.5719982,22.9037993,0 
113.5719976,22.9037996,0 
113.5719970,22.9037998,0 
113.5719962,22.9037999,0 
113.5719954,22.9037999,0 
113.5719946,22.9037999,0 
113.5719936,22.9037998,0 
113.5719926,22.9037996,0 
113.5719914,22.9037993,0 
113.5719903,22.9037990,0 
113.5719890,22.9037986,0 
113.5719877,22.9037981,0 
113.5719863,22.9037975,0 
113.5719848,22.9037969,0 
113.5719832,22.9037961,0 
113.5719816,22.9037953,0 
113.5719799,22.9037944,0 
113.5719782,22.9037935,0 
113.5719764,22.9037925,0 
113.5719745,22.9037914,0 
113.5719725,22.9037902,0 
113.5719705,22.9037889,0 
113.5719684,22.9037876,0 
113.5719662,22.9037862,0 
113.5719640,22.9037848,0 
113.5719617,22.9037832,0 
113.5719594,22.9037816,0 
113.5719570,22.9037799,0 
113.5719545,22.9037782,0 
113.5719520,22.9037764,0 
113.5719495,22.9037745,0 
113.5719468,22.9037726,0 
113.5719441,22.9037706,0 
113.5719414,22.9037685,0 
113.5719386,22.9037663,0 
113.5719358,22.9037641,0 
113.5719329,22.9037619,0 
113.5719299,22.9037595,0 
113.5719270,22.9037572,0 
113.5719239,22.9037547,0 
113.5719209,22.9037522,0 
113.5719177,22.9037496,0 
113.5719146,22.9037470,0 
113.5719114,22.9037444,0 
113.5719081,22.9037416,0 
113.5719048,22.9037389,0 
113.5719015,22.9037360,0 
113.5718982,22.9037332,0 
113.5718948,22.9037302,0 
113.5718914,22.9037273,0 
113.5718879,22.9037243,0 
113.5718845,22.9037212,0 
113.5718810,22.9037181,0 
113.5718774,22.9037149,0 
113.5718739,22.9037118,0 
113.5718703,22.9037085,0 
113.5718667,22.9037053,0 
113.5718631,22.9037020,0 
113.5718595,22.9036986,0 
113.5718558,22.9036953,0 
113.5718522,22.9036919,0 
113.5718485,22.9036884,0 
113.5718448,22.9036850,0 
113.5718411,22.9036815,0 
113.5718374,22.9036780,0 
113.5718337,22.9036745,0 
113.5718300,22.9036709,0 
113.5718263,22.9036673,0 
113.5718226,22.9036637,0 
113.5718188,22.9036601,0 
113.5718151,22.9036565,0 
113.5718114,22.9036528,0 
113.5718077,22.9036492,0 
113.5718040,22.9036455,0 
113.5718003,22.9036418,0 
113.5717966,22.9036381,0 
113.5717929,22.9036344,0 
113.5717893,22.9036307,0 
113.5717856,22.9036270,0 
113.5717820,22.9036233,0 
113.5717784,22.9036196,0 
113.5717748,22.9036159,0 
113.5717712,22.9036122,0 
113.5717676,22.9036085,0 
113.5717641,22.9036048,0 
113.5717606,22.9036012,0 
113.5717571,22.9035975,0 
113.5717537,22.9035938,0 
113.5717503,22.9035902,0 
113.5717469,22.9035865,0 
113.5717435,22.9035829,0 
113.5717402,22.9035793,0 
113.5717369,22.9035757,0 
113.5717337,22.9035722,0 
113.5717305,22.9035686,0 
113.5717273,22.9035651,0 
113.5717242,22.9035616,0 
113.5717211,22.9035582,0 
113.5717181,22.9035547,0 
113.5717151,22.9035513,0 
113.5717122,22.9035480,0 
113.5717093,22.9035446,0 
113.5717064,22.9035413,0 
113.5717036,22.9035381,0 
113.5717009,22.9035348,0 
113.5716982,22.9035316,0 
113.5716956,22.9035285,0 
113.5716930,22.9035254,0 
113.5716905,22.9035223,0 
113.5716880,22.9035193,0 
113.5716856,22.9035163,0 
113.5716833,22.9035134,0 
113.5716810,22.9035105,0 
113.5716788,22.9035076,0 
113.5716766,22.9035049,0 
113.5716745,22.9035021,0 
113.5716725,22.9034994,0 
113.5716705,22.9034968,0 
113.5716686,22.9034942,0 
113.5716668,22.9034917,0 
113.5716650,22.9034893,0 
113.5716634,22.9034869,0 
113.5716617,22.9034845,0 
113.5716602,22.9034823,0 
113.5716587,22.9034800,0 
113.5716573,22.9034779,0 
113.5716560,22.9034758,0 
113.5716547,22.9034738,0 
113.5716535,22.9034718,0 
113.5716524,22.9034699,0 
113.5716514,22.9034681,0 
113.5716504,22.9034663,0 
113.5716495,22.9034647,0 
113.5716487,22.9034630,0 
113.5716479,22.9034615,0 
113.5716473,22.9034600,0 
113.5716467,22.9034586,0 
113.5716462,22.9034573,0 
113.5716458,22.9034560,0 
113.5716454,22.9034548,0 
113.5716451,22.9034537,0 
113.5716449,22.9034527,0 
113.5716448,22.9034517,0 
113.5716448,22.9034508,0 
113.5716448,22.9034500,0 
113.5716449,22.9034493,0 
113.5716451,22.9034486,0 
113.5716454,22.9034480,0 
113.5716457,22.9034475,0 
113.5716462,22.9034471,0 
</coordinates>
</LineString>
</Placemark>
</Folder>