<Folder>
<name>SV 36 228.504234 9.754768</name>
<visibility>1</visibility>
<Placemark>
<name>circle</name>
<visibility>1</visibility>
<Style>
<geomColor></geomColor>
<geomScale>2</geomScale></Style>
<LineString>
<coordinates>
113.5717943,22.9036509,0 
113.5717947,22.9036506,0 
113.5717951,22.9036503,0 
113.5717956,22.9036500,0 
113.5717961,22.9036498,0 
113.5717966,22.9036496,0 
113.5717973,22.9036495,0 
113.5717979,22.9036494,0 
113.5717986,22.9036493,0 
113.5717993,22.9036493,0 
113.5718001,22.9036493,0 
113.5718010,22.9036494,0 
113.5718018,22.9036495,0 
113.5718028,22.9036496,0 
113.5718037,22.9036498,0 
113.5718047,22.9036500,0 
113.5718058,22.9036503,0 
113.5718069,22.9036506,0 
113.5718080,22.9036509,0 
113.5718092,22.9036513,0 
113.5718104,22.9036517,0 
113.5718117,22.9036521,0 
113.5718130,22.9036526,0 
113.5718143,22.9036532,0 
113.5718157,22.9036537,0 
113.5718171,22.9036543,0 
113.5718186,22.9036550,0 
113.5718201,22.9036556,0 
113.5718216,22.9036564,0 
113.5718232,22.9036571,0 
113.5718248,22.9036579,0 
113.5718264,22.9036587,0 
113.5718281,22.9036596,0 
113.5718298,22.9036605,0 
113.5718315,22.9036614,0 
113.5718333,22.9036624,0 
113.5718351,22.9036634,0 
113.5718369,22.9036644,0 
113.5718388,22.9036655,0 
113.5718406,22.9036666,0 
113.5718426,22.9036677,0 
113.5718445,22.9036688,0 
113.5718465,22.9036700,0 
113.5718485,22.9036713,0 
113.5718505,22.9036725,0 
113.5718525,22.9036738,0 
113.5718546,22.9036751,0 
113.5718566,22.9036764,0 
113.5718587,22.9036778,0 
113.5718609,22.9036792,0 
113.5718630,22.9036806,0 
113.5718652,22.9036821,0 
113.5718673,22.9036835,0 
113.5718695,22.9036850,0 
113.5718717,22.9036866,0 
113.5718739,22.9036881,0 
113.5718762,22.9036897,0 
113.5718784,22.9036912,0 
113.5718807,22.9036929,0 
113.5718829,22.9036945,0 
113.5718852,22.9036961,0 
113.5718875,22.9036978,0 
113.5718898,22.9036995,0 
113.5718921,22.9037012,0 
113.5718944,22.9037029,0 
113.5718967,22.9037047,0 
113.5718990,22.9037064,0 
113.5719013,22.9037082,0 
113.5719036,22.9037100,0 
113.5719059,22.9037118,0 
113.5719082,22.9037136,0 
113.5719105,22.9037154,0 
113.5719128,22.9037172,0 
113.5719151,22.9037191,0 
113.5719174,22.9037209,0 
113.5719197,22.9037228,0 
113.5719220,22.9037246,0 
113.5719243,22.9037265,0 
113.5719265,22.9037284,0 
113.5719288,22.9037302,0 
113.5719310,22.9037321,0 
113.5719332,22.9037340,0 
113.5719355,22.9037359,0 
113.5719377,22.9037378,0 
113.5719398,22.9037397,0 
113.5719420,22.9037416,0 
113.5719442,22.9037435,0 
113.5719463,22.9037454,0 
113.5719484,22.9037473,0 
113.5719505,22.9037492,0 
113.5719526,22.9037510,0 
113.5719546,22.9037529,0 
113.5719567,22.9037548,0 
113.5719587,22.9037567,0 
113.5719607,22.9037585,0 
113.5719626,22.9037604,0 
113.5719646,22.9037622,0 
113.5719665,22.9037640,0 
113.5719684,22.9037658,0 
113.5719702,22.9037677,0 
113.5719720,22.9037695,0 
113.5719738,22.9037712,0 
113.5719756,22.9037730,0 
113.5719773,22.9037748,0 
113.5719790,22.9037765,0 
113.5719807,22.9037782,0 
113.5719823,22.9037799,0 
113.5719839,22.9037816,0 
113.5719854,22.9037833,0 
113.5719870,22.9037849,0 
113.5719885,22.9037866,0 
113.5719899,22.9037882,0 
113.5719913,22.9037898,0 
113.5719927,22.9037913,0 
113.5719940,22.9037929,0 
113.5719953,22.9037944,0 
113.5719966,22.9037959,0 
113.5719978,22.9037974,0 
113.5719990,22.9037988,0 
113.5720001,22.9038002,0 
113.5720012,22.9038016,0 
113.5720022,22.9038030,0 
113.5720032,22.9038043,0 
113.5720042,22.9038057,0 
113.5720051,22.9038069,0 
113.5720059,22.9038082,0 
113.5720068,22.9038094,0 
113.5720075,22.9038106,0 
113.5720083,22.9038118,0 
113.5720090,22.9038129,0 
113.5720096,22.9038140,0 
113.5720102,22.9038151,0 
113.5720107,22.9038161,0 
113.5720112,22.9038171,0 
113.5720117,22.9038181,0 
113.5720121,22.9038190,0 
113.5720125,22.9038199,0 
113.5720128,22.9038208,0 
113.5720130,22.9038216,0 
113.5720132,22.9038224,0 
113.5720134,22.9038231,0 
113.5720135,22.9038238,0 
113.5720136,22.9038245,0 
113.5720136,22.9038252,0 
113.5720136,22.9038258,0 
113.5720135,22.9038263,0 
113.5720134,22.9038269,0 
113.5720132,22.9038274,0 
113.5720130,22.9038278,0 
113.5720127,22.9038282,0 
113.5720124,22.9038286,0 
113.5720120,22.9038289,0 
113.5720116,22.9038292,0 
113.5720111,22.9038295,0 
113.5720106,22.9038297,0 
113.5720101,22.9038299,0 
113.5720095,22.9038300,0 
113.5720088,22.9038301,0 
113.5720081,22.9038302,0 
113.5720074,22.9038302,0 
113.5720066,22.9038302,0 
113.5720058,22.9038301,0 
113.5720049,22.9038300,0 
113.5720040,22.9038299,0 
113.5720030,22.9038297,0 
113.5720020,22.9038295,0 
113.5720009,22.9038293,0 
113.5719999,22.9038290,0 
113.5719987,22.9038286,0 
113.5719975,22.9038283,0 
113.5719963,22.9038278,0 
113.5719951,22.9038274,0 
113.5719938,22.9038269,0 
113.5719924,22.9038264,0 
113.5719910,22.9038258,0 
113.5719896,22.9038252,0 
113.5719882,22.9038246,0 
113.5719867,22.9038239,0 
113.5719851,22.9038232,0 
113.5719836,22.9038224,0 
113.5719820,22.9038216,0 
113.5719803,22.9038208,0 
113.5719787,22.9038200,0 
113.5719770,22.9038191,0 
113.5719752,22.9038181,0 
113.5719734,22.9038172,0 
113.5719717,22.9038162,0 
113.5719698,22.9038151,0 
113.5719680,22.9038141,0 
113.5719661,22.9038130,0 
113.5719642,22.9038119,0 
113.5719622,22.9038107,0 
113.5719603,22.9038095,0 
113.5719583,22.9038083,0 
113.5719563,22.9038070,0 
113.5719542,22.9038058,0 
113.5719522,22.9038044,0 
113.5719501,22.9038031,0 
113.5719480,22.9038017,0 
113.5719459,22.9038003,0 
113.5719437,22.9037989,0 
113.5719416,22.9037975,0 
113.5719394,22.9037960,0 
113.5719372,22.9037945,0 
113.5719350,22.9037930,0 
113.5719328,22.9037914,0 
113.5719305,22.9037899,0 
113.5719283,22.9037883,0 
113.5719261,22.9037867,0 
113.5719238,22.9037851,0 
113.5719215,22.9037834,0 
113.5719192,22.9037817,0 
113.5719169,22.9037800,0 
113.5719147,22.9037783,0 
113.5719124,22.9037766,0 
113.5719100,22.9037749,0 
113.5719077,22.9037731,0 
113.5719054,22.9037714,0 
113.5719031,22.9037696,0 
113.5719008,22.9037678,0 
113.5718985,22.9037660,0 
113.5718962,22.9037642,0 
113.5718939,22.9037623,0 
113.5718916,22.9037605,0 
113.5718893,22.9037586,0 
113.5718870,22.9037568,0 
113.5718847,22.9037549,0 
113.5718825,22.9037531,0 
113.5718802,22.9037512,0 
113.5718780,22.9037493,0 
113.5718757,22.9037474,0 
113.5718735,22.9037455,0 
113.5718713,22.9037436,0 
113.5718691,22.9037417,0 
113.5718669,22.9037398,0 
113.5718647,22.9037379,0 
113.5718626,22.9037361,0 
113.5718604,22.9037342,0 
113.5718583,22.9037323,0 
113.5718562,22.9037304,0 
113.5718541,22.9037285,0 
113.5718521,22.9037266,0 
113.5718500,22.9037248,0 
113.5718480,22.9037229,0 
113.5718461,22.9037210,0 
113.5718441,22.9037192,0 
113.5718422,22.9037173,0 
113.5718403,22.9037155,0 
113.5718384,22.9037137,0 
113.5718365,22.9037119,0 
113.5718347,22.9037101,0 
113.5718329,22.9037083,0 
113.5718312,22.9037065,0 
113.5718294,22.9037048,0 
113.5718277,22.9037030,0 
113.5718261,22.9037013,0 
113.5718244,22.9036996,0 
113.5718228,22.9036979,0 
113.5718213,22.9036963,0 
113.5718198,22.9036946,0 
113.5718183,22.9036930,0 
113.5718168,22.9036914,0 
113.5718154,22.9036898,0 
113.5718140,22.9036882,0 
113.5718127,22.9036867,0 
113.5718114,22.9036851,0 
113.5718102,22.9036836,0 
113.5718089,22.9036822,0 
113.5718078,22.9036807,0 
113.5718066,22.9036793,0 
113.5718056,22.9036779,0 
113.5718045,22.9036765,0 
113.5718035,22.9036752,0 
113.5718026,22.9036739,0 
113.5718016,22.9036726,0 
113.5718008,22.9036713,0 
113.5718000,22.9036701,0 
113.5717992,22.9036689,0 
113.5717984,22.9036678,0 
113.5717978,22.9036666,0 
113.5717971,22.9036655,0 
113.5717965,22.9036645,0 
113.5717960,22.9036634,0 
113.5717955,22.9036624,0 
113.5717950,22.9036615,0 
113.5717946,22.9036605,0 
113.5717943,22.9036596,0 
113.5717940,22.9036588,0 
113.5717937,22.9036580,0 
113.5717935,22.9036572,0 
113.5717933,22.9036564,0 
113.5717932,22.9036557,0 
113.5717931,22.9036550,0 
113.5717931,22.9036544,0 
113.5717932,22.9036538,0 
113.5717932,22.9036532,0 
113.5717934,22.9036527,0 
113.5717935,22.9036522,0 
113.5717938,22.9036517,0 
113.5717940,22.9036513,0 
113.5717943,22.9036509,0 
</coordinates>
</LineString>
</Placemark>
</Folder>