<Folder>
<name>SV 31 225.214431 9.932152</name>
<visibility>1</visibility>
<Placemark>
<name>circle</name>
<visibility>1</visibility>
<Style>
<geomColor>FFFF00FF</geomColor>
<geomScale>2</geomScale></Style>
<LineString>
<coordinates>
113.5718208,22.9036448,0 
113.5718212,22.9036444,0 
113.5718216,22.9036442,0 
113.5718221,22.9036439,0 
113.5718226,22.9036438,0 
113.5718232,22.9036436,0 
113.5718238,22.9036435,0 
113.5718244,22.9036434,0 
113.5718251,22.9036434,0 
113.5718258,22.9036434,0 
113.5718266,22.9036435,0 
113.5718274,22.9036435,0 
113.5718282,22.9036437,0 
113.5718291,22.9036439,0 
113.5718300,22.9036441,0 
113.5718310,22.9036443,0 
113.5718320,22.9036446,0 
113.5718330,22.9036450,0 
113.5718341,22.9036453,0 
113.5718352,22.9036457,0 
113.5718364,22.9036462,0 
113.5718376,22.9036467,0 
113.5718388,22.9036472,0 
113.5718401,22.9036478,0 
113.5718414,22.9036484,0 
113.5718427,22.9036490,0 
113.5718441,22.9036497,0 
113.5718455,22.9036505,0 
113.5718469,22.9036512,0 
113.5718484,22.9036520,0 
113.5718499,22.9036529,0 
113.5718514,22.9036537,0 
113.5718530,22.9036546,0 
113.5718546,22.9036556,0 
113.5718562,22.9036566,0 
113.5718578,22.9036576,0 
113.5718595,22.9036586,0 
113.5718612,22.9036597,0 
113.5718629,22.9036608,0 
113.5718647,22.9036620,0 
113.5718665,22.9036631,0 
113.5718683,22.9036643,0 
113.5718701,22.9036656,0 
113.5718719,22.9036669,0 
113.5718738,22.9036682,0 
113.5718757,22.9036695,0 
113.5718776,22.9036709,0 
113.5718795,22.9036723,0 
113.5718815,22.9036737,0 
113.5718834,22.9036751,0 
113.5718854,22.9036766,0 
113.5718874,22.9036781,0 
113.5718894,22.9036796,0 
113.5718914,22.9036812,0 
113.5718935,22.9036827,0 
113.5718955,22.9036843,0 
113.5718976,22.9036860,0 
113.5718996,22.9036876,0 
113.5719017,22.9036893,0 
113.5719038,22.9036909,0 
113.5719059,22.9036926,0 
113.5719080,22.9036944,0 
113.5719101,22.9036961,0 
113.5719122,22.9036979,0 
113.5719143,22.9036996,0 
113.5719164,22.9037014,0 
113.5719186,22.9037032,0 
113.5719207,22.9037051,0 
113.5719228,22.9037069,0 
113.5719249,22.9037087,0 
113.5719270,22.9037106,0 
113.5719291,22.9037125,0 
113.5719312,22.9037143,0 
113.5719333,22.9037162,0 
113.5719354,22.9037181,0 
113.5719375,22.9037200,0 
113.5719396,22.9037219,0 
113.5719417,22.9037239,0 
113.5719437,22.9037258,0 
113.5719458,22.9037277,0 
113.5719478,22.9037296,0 
113.5719499,22.9037316,0 
113.5719519,22.9037335,0 
113.5719539,22.9037354,0 
113.5719559,22.9037374,0 
113.5719579,22.9037393,0 
113.5719598,22.9037412,0 
113.5719618,22.9037432,0 
113.5719637,22.9037451,0 
113.5719656,22.9037470,0 
113.5719675,22.9037489,0 
113.5719693,22.9037509,0 
113.5719712,22.9037528,0 
113.5719730,22.9037547,0 
113.5719748,22.9037566,0 
113.5719766,22.9037584,0 
113.5719783,22.9037603,0 
113.5719800,22.9037622,0 
113.5719817,22.9037640,0 
113.5719834,22.9037659,0 
113.5719851,22.9037677,0 
113.5719867,22.9037695,0 
113.5719883,22.9037713,0 
113.5719898,22.9037731,0 
113.5719913,22.9037748,0 
113.5719928,22.9037766,0 
113.5719943,22.9037783,0 
113.5719957,22.9037800,0 
113.5719971,22.9037817,0 
113.5719985,22.9037834,0 
113.5719998,22.9037850,0 
113.5720011,22.9037867,0 
113.5720024,22.9037883,0 
113.5720036,22.9037899,0 
113.5720048,22.9037914,0 
113.5720059,22.9037930,0 
113.5720070,22.9037945,0 
113.5720081,22.9037960,0 
113.5720091,22.9037974,0 
113.5720101,22.9037988,0 
113.5720111,22.9038002,0 
113.5720120,22.9038016,0 
113.5720129,22.9038030,0 
113.5720137,22.9038043,0 
113.5720145,22.9038056,0 
113.5720153,22.9038068,0 
113.5720160,22.9038081,0 
113.5720167,22.9038092,0 
113.5720173,22.9038104,0 
113.5720179,22.9038115,0 
113.5720184,22.9038126,0 
113.5720189,22.9038137,0 
113.5720194,22.9038147,0 
113.5720198,22.9038157,0 
113.5720202,22.9038167,0 
113.5720205,22.9038176,0 
113.5720208,22.9038185,0 
113.5720210,22.9038193,0 
113.5720212,22.9038202,0 
113.5720214,22.9038209,0 
113.5720215,22.9038217,0 
113.5720215,22.9038224,0 
113.5720216,22.9038230,0 
113.5720215,22.9038237,0 
113.5720215,22.9038242,0 
113.5720213,22.9038248,0 
113.5720212,22.9038253,0 
113.5720210,22.9038258,0 
113.5720207,22.9038262,0 
113.5720204,22.9038266,0 
113.5720201,22.9038269,0 
113.5720197,22.9038273,0 
113.5720193,22.9038275,0 
113.5720188,22.9038278,0 
113.5720183,22.9038280,0 
113.5720178,22.9038281,0 
113.5720172,22.9038282,0 
113.5720165,22.9038283,0 
113.5720159,22.9038283,0 
113.5720151,22.9038283,0 
113.5720144,22.9038283,0 
113.5720136,22.9038282,0 
113.5720127,22.9038280,0 
113.5720118,22.9038279,0 
113.5720109,22.9038276,0 
113.5720100,22.9038274,0 
113.5720089,22.9038271,0 
113.5720079,22.9038268,0 
113.5720068,22.9038264,0 
113.5720057,22.9038260,0 
113.5720045,22.9038255,0 
113.5720034,22.9038250,0 
113.5720021,22.9038245,0 
113.5720009,22.9038239,0 
113.5719996,22.9038233,0 
113.5719982,22.9038227,0 
113.5719969,22.9038220,0 
113.5719955,22.9038213,0 
113.5719940,22.9038205,0 
113.5719925,22.9038197,0 
113.5719910,22.9038189,0 
113.5719895,22.9038180,0 
113.5719880,22.9038171,0 
113.5719864,22.9038161,0 
113.5719847,22.9038152,0 
113.5719831,22.9038141,0 
113.5719814,22.9038131,0 
113.5719797,22.9038120,0 
113.5719780,22.9038109,0 
113.5719762,22.9038098,0 
113.5719745,22.9038086,0 
113.5719727,22.9038074,0 
113.5719708,22.9038061,0 
113.5719690,22.9038048,0 
113.5719671,22.9038035,0 
113.5719652,22.9038022,0 
113.5719633,22.9038008,0 
113.5719614,22.9037995,0 
113.5719595,22.9037980,0 
113.5719575,22.9037966,0 
113.5719555,22.9037951,0 
113.5719535,22.9037936,0 
113.5719515,22.9037921,0 
113.5719495,22.9037905,0 
113.5719475,22.9037890,0 
113.5719454,22.9037874,0 
113.5719434,22.9037857,0 
113.5719413,22.9037841,0 
113.5719392,22.9037824,0 
113.5719371,22.9037808,0 
113.5719350,22.9037791,0 
113.5719329,22.9037773,0 
113.5719308,22.9037756,0 
113.5719287,22.9037738,0 
113.5719266,22.9037721,0 
113.5719245,22.9037703,0 
113.5719224,22.9037685,0 
113.5719203,22.9037667,0 
113.5719181,22.9037648,0 
113.5719160,22.9037630,0 
113.5719139,22.9037611,0 
113.5719118,22.9037593,0 
113.5719097,22.9037574,0 
113.5719076,22.9037555,0 
113.5719055,22.9037536,0 
113.5719034,22.9037517,0 
113.5719013,22.9037498,0 
113.5718993,22.9037479,0 
113.5718972,22.9037459,0 
113.5718951,22.9037440,0 
113.5718931,22.9037421,0 
113.5718911,22.9037401,0 
113.5718890,22.9037382,0 
113.5718870,22.9037363,0 
113.5718850,22.9037343,0 
113.5718831,22.9037324,0 
113.5718811,22.9037305,0 
113.5718792,22.9037285,0 
113.5718772,22.9037266,0 
113.5718753,22.9037247,0 
113.5718735,22.9037228,0 
113.5718716,22.9037208,0 
113.5718697,22.9037189,0 
113.5718679,22.9037170,0 
113.5718661,22.9037151,0 
113.5718644,22.9037133,0 
113.5718626,22.9037114,0 
113.5718609,22.9037095,0 
113.5718592,22.9037077,0 
113.5718575,22.9037058,0 
113.5718559,22.9037040,0 
113.5718543,22.9037022,0 
113.5718527,22.9037004,0 
113.5718511,22.9036986,0 
113.5718496,22.9036969,0 
113.5718481,22.9036951,0 
113.5718466,22.9036934,0 
113.5718452,22.9036917,0 
113.5718438,22.9036900,0 
113.5718425,22.9036883,0 
113.5718411,22.9036867,0 
113.5718398,22.9036850,0 
113.5718386,22.9036834,0 
113.5718373,22.9036818,0 
113.5718362,22.9036803,0 
113.5718350,22.9036787,0 
113.5718339,22.9036772,0 
113.5718328,22.9036758,0 
113.5718318,22.9036743,0 
113.5718308,22.9036729,0 
113.5718298,22.9036715,0 
113.5718289,22.9036701,0 
113.5718280,22.9036687,0 
113.5718272,22.9036674,0 
113.5718264,22.9036661,0 
113.5718257,22.9036649,0 
113.5718249,22.9036637,0 
113.5718243,22.9036625,0 
113.5718236,22.9036613,0 
113.5718231,22.9036602,0 
113.5718225,22.9036591,0 
113.5718220,22.9036580,0 
113.5718215,22.9036570,0 
113.5718211,22.9036560,0 
113.5718208,22.9036550,0 
113.5718204,22.9036541,0 
113.5718202,22.9036532,0 
113.5718199,22.9036524,0 
113.5718197,22.9036516,0 
113.5718196,22.9036508,0 
113.5718195,22.9036500,0 
113.5718194,22.9036493,0 
113.5718194,22.9036487,0 
113.5718194,22.9036480,0 
113.5718195,22.9036475,0 
113.5718196,22.9036469,0 
113.5718198,22.9036464,0 
113.5718200,22.9036459,0 
113.5718202,22.9036455,0 
113.5718205,22.9036451,0 
113.5718208,22.9036448,0 
</coordinates>
</LineString>
</Placemark>
</Folder>