<Folder>
<name>SV 31 222.706411 6.662196</name>
<visibility>1</visibility>
<Placemark>
<name>circle</name>
<visibility>1</visibility>
<Style>
<geomColor>FFFF00FF</geomColor>
<geomScale>2</geomScale></Style>
<LineString>
<coordinates>
113.5716402,22.9034411,0 
113.5716407,22.9034408,0 
113.5716413,22.9034405,0 
113.5716420,22.9034403,0 
113.5716427,22.9034402,0 
113.5716435,22.9034401,0 
113.5716444,22.9034402,0 
113.5716454,22.9034403,0 
113.5716464,22.9034405,0 
113.5716475,22.9034407,0 
113.5716487,22.9034411,0 
113.5716500,22.9034415,0 
113.5716513,22.9034420,0 
113.5716527,22.9034426,0 
113.5716542,22.9034432,0 
113.5716557,22.9034439,0 
113.5716573,22.9034447,0 
113.5716590,22.9034456,0 
113.5716608,22.9034466,0 
113.5716626,22.9034476,0 
113.5716645,22.9034487,0 
113.5716665,22.9034499,0 
113.5716685,22.9034511,0 
113.5716706,22.9034524,0 
113.5716727,22.9034538,0 
113.5716749,22.9034553,0 
113.5716772,22.9034568,0 
113.5716796,22.9034584,0 
113.5716820,22.9034601,0 
113.5716844,22.9034619,0 
113.5716869,22.9034637,0 
113.5716895,22.9034656,0 
113.5716921,22.9034675,0 
113.5716948,22.9034695,0 
113.5716976,22.9034716,0 
113.5717004,22.9034737,0 
113.5717032,22.9034759,0 
113.5717061,22.9034782,0 
113.5717090,22.9034805,0 
113.5717120,22.9034829,0 
113.5717151,22.9034854,0 
113.5717181,22.9034879,0 
113.5717213,22.9034904,0 
113.5717244,22.9034930,0 
113.5717276,22.9034957,0 
113.5717309,22.9034984,0 
113.5717341,22.9035012,0 
113.5717375,22.9035040,0 
113.5717408,22.9035069,0 
113.5717442,22.9035098,0 
113.5717476,22.9035128,0 
113.5717511,22.9035158,0 
113.5717545,22.9035189,0 
113.5717580,22.9035220,0 
113.5717616,22.9035252,0 
113.5717651,22.9035283,0 
113.5717687,22.9035316,0 
113.5717723,22.9035348,0 
113.5717759,22.9035381,0 
113.5717795,22.9035415,0 
113.5717832,22.9035448,0 
113.5717868,22.9035482,0 
113.5717905,22.9035517,0 
113.5717942,22.9035551,0 
113.5717979,22.9035586,0 
113.5718016,22.9035621,0 
113.5718053,22.9035657,0 
113.5718090,22.9035692,0 
113.5718128,22.9035728,0 
113.5718165,22.9035764,0 
113.5718202,22.9035800,0 
113.5718239,22.9035836,0 
113.5718276,22.9035873,0 
113.5718313,22.9035909,0 
113.5718351,22.9035946,0 
113.5718388,22.9035983,0 
113.5718424,22.9036020,0 
113.5718461,22.9036057,0 
113.5718498,22.9036094,0 
113.5718534,22.9036131,0 
113.5718571,22.9036168,0 
113.5718607,22.9036205,0 
113.5718643,22.9036242,0 
113.5718679,22.9036279,0 
113.5718714,22.9036316,0 
113.5718749,22.9036353,0 
113.5718784,22.9036390,0 
113.5718819,22.9036427,0 
113.5718854,22.9036463,0 
113.5718888,22.9036500,0 
113.5718922,22.9036536,0 
113.5718955,22.9036572,0 
113.5718988,22.9036608,0 
113.5719021,22.9036644,0 
113.5719054,22.9036680,0 
113.5719086,22.9036715,0 
113.5719117,22.9036750,0 
113.5719149,22.9036785,0 
113.5719179,22.9036820,0 
113.5719210,22.9036854,0 
113.5719240,22.9036888,0 
113.5719269,22.9036922,0 
113.5719298,22.9036955,0 
113.5719326,22.9036988,0 
113.5719354,22.9037021,0 
113.5719382,22.9037054,0 
113.5719409,22.9037085,0 
113.5719435,22.9037117,0 
113.5719461,22.9037148,0 
113.5719486,22.9037179,0 
113.5719511,22.9037209,0 
113.5719535,22.9037239,0 
113.5719558,22.9037268,0 
113.5719581,22.9037297,0 
113.5719603,22.9037325,0 
113.5719625,22.9037353,0 
113.5719646,22.9037381,0 
113.5719666,22.9037407,0 
113.5719686,22.9037434,0 
113.5719705,22.9037459,0 
113.5719723,22.9037485,0 
113.5719740,22.9037509,0 
113.5719757,22.9037533,0 
113.5719774,22.9037557,0 
113.5719789,22.9037579,0 
113.5719804,22.9037601,0 
113.5719818,22.9037623,0 
113.5719831,22.9037644,0 
113.5719844,22.9037664,0 
113.5719856,22.9037684,0 
113.5719867,22.9037703,0 
113.5719877,22.9037721,0 
113.5719887,22.9037739,0 
113.5719896,22.9037755,0 
113.5719904,22.9037772,0 
113.5719912,22.9037787,0 
113.5719918,22.9037802,0 
113.5719924,22.9037816,0 
113.5719929,22.9037829,0 
113.5719933,22.9037842,0 
113.5719937,22.9037854,0 
113.5719940,22.9037865,0 
113.5719942,22.9037875,0 
113.5719943,22.9037885,0 
113.5719943,22.9037894,0 
113.5719943,22.9037902,0 
113.5719942,22.9037910,0 
113.5719940,22.9037916,0 
113.5719937,22.9037922,0 
113.5719934,22.9037927,0 
113.5719929,22.9037931,0 
113.5719924,22.9037935,0 
113.5719919,22.9037938,0 
113.5719912,22.9037940,0 
113.5719905,22.9037941,0 
113.5719897,22.9037942,0 
113.5719888,22.9037941,0 
113.5719878,22.9037940,0 
113.5719868,22.9037938,0 
113.5719857,22.9037936,0 
113.5719845,22.9037932,0 
113.5719832,22.9037928,0 
113.5719819,22.9037923,0 
113.5719805,22.9037917,0 
113.5719790,22.9037911,0 
113.5719775,22.9037904,0 
113.5719758,22.9037896,0 
113.5719742,22.9037887,0 
113.5719724,22.9037877,0 
113.5719706,22.9037867,0 
113.5719687,22.9037856,0 
113.5719667,22.9037844,0 
113.5719647,22.9037832,0 
113.5719626,22.9037819,0 
113.5719604,22.9037805,0 
113.5719582,22.9037790,0 
113.5719559,22.9037775,0 
113.5719536,22.9037758,0 
113.5719512,22.9037742,0 
113.5719487,22.9037724,0 
113.5719462,22.9037706,0 
113.5719437,22.9037687,0 
113.5719410,22.9037668,0 
113.5719383,22.9037648,0 
113.5719356,22.9037627,0 
113.5719328,22.9037606,0 
113.5719300,22.9037583,0 
113.5719271,22.9037561,0 
113.5719241,22.9037538,0 
113.5719211,22.9037514,0 
113.5719181,22.9037489,0 
113.5719150,22.9037464,0 
113.5719119,22.9037439,0 
113.5719088,22.9037412,0 
113.5719056,22.9037386,0 
113.5719023,22.9037358,0 
113.5718990,22.9037331,0 
113.5718957,22.9037302,0 
113.5718924,22.9037274,0 
113.5718890,22.9037244,0 
113.5718856,22.9037215,0 
113.5718821,22.9037185,0 
113.5718786,22.9037154,0 
113.5718751,22.9037123,0 
113.5718716,22.9037091,0 
113.5718681,22.9037059,0 
113.5718645,22.9037027,0 
113.5718609,22.9036995,0 
113.5718573,22.9036962,0 
113.5718536,22.9036928,0 
113.5718500,22.9036895,0 
113.5718463,22.9036861,0 
113.5718427,22.9036826,0 
113.5718390,22.9036792,0 
113.5718353,22.9036757,0 
113.5718316,22.9036722,0 
113.5718279,22.9036686,0 
113.5718241,22.9036651,0 
113.5718204,22.9036615,0 
113.5718167,22.9036579,0 
113.5718130,22.9036543,0 
113.5718093,22.9036507,0 
113.5718055,22.9036470,0 
113.5718018,22.9036433,0 
113.5717981,22.9036397,0 
113.5717944,22.9036360,0 
113.5717907,22.9036323,0 
113.5717871,22.9036286,0 
113.5717834,22.9036249,0 
113.5717797,22.9036212,0 
113.5717761,22.9036175,0 
113.5717725,22.9036138,0 
113.5717689,22.9036101,0 
113.5717653,22.9036064,0 
113.5717618,22.9036027,0 
113.5717582,22.9035990,0 
113.5717547,22.9035953,0 
113.5717513,22.9035916,0 
113.5717478,22.9035880,0 
113.5717444,22.9035843,0 
113.5717410,22.9035807,0 
113.5717377,22.9035771,0 
113.5717343,22.9035735,0 
113.5717311,22.9035699,0 
113.5717278,22.9035663,0 
113.5717246,22.9035628,0 
113.5717214,22.9035593,0 
113.5717183,22.9035558,0 
113.5717152,22.9035523,0 
113.5717122,22.9035489,0 
113.5717092,22.9035455,0 
113.5717063,22.9035421,0 
113.5717034,22.9035387,0 
113.5717005,22.9035354,0 
113.5716977,22.9035322,0 
113.5716950,22.9035289,0 
113.5716923,22.9035257,0 
113.5716897,22.9035226,0 
113.5716871,22.9035195,0 
113.5716846,22.9035164,0 
113.5716821,22.9035134,0 
113.5716797,22.9035104,0 
113.5716774,22.9035075,0 
113.5716751,22.9035046,0 
113.5716729,22.9035017,0 
113.5716707,22.9034990,0 
113.5716686,22.9034962,0 
113.5716666,22.9034935,0 
113.5716646,22.9034909,0 
113.5716627,22.9034883,0 
113.5716609,22.9034858,0 
113.5716591,22.9034834,0 
113.5716574,22.9034810,0 
113.5716558,22.9034786,0 
113.5716543,22.9034764,0 
113.5716528,22.9034741,0 
113.5716514,22.9034720,0 
113.5716500,22.9034699,0 
113.5716488,22.9034679,0 
113.5716476,22.9034659,0 
113.5716465,22.9034640,0 
113.5716454,22.9034622,0 
113.5716445,22.9034604,0 
113.5716436,22.9034587,0 
113.5716428,22.9034571,0 
113.5716420,22.9034556,0 
113.5716414,22.9034541,0 
113.5716408,22.9034527,0 
113.5716403,22.9034514,0 
113.5716398,22.9034501,0 
113.5716395,22.9034489,0 
113.5716392,22.9034478,0 
113.5716390,22.9034467,0 
113.5716389,22.9034458,0 
113.5716388,22.9034449,0 
113.5716389,22.9034441,0 
113.5716390,22.9034433,0 
113.5716392,22.9034427,0 
113.5716395,22.9034421,0 
113.5716398,22.9034416,0 
113.5716402,22.9034411,0 
</coordinates>
</LineString>
</Placemark>
</Folder>