<Folder>
<name>SV  4 317.633442 12.333893</name>
<visibility>1</visibility>
<Placemark>
<name>circle</name>
<visibility>1</visibility>
<Style>
<geomColor></geomColor>
<geomScale>2</geomScale></Style>
<LineString>
<coordinates>
113.5718992,22.9041028,0 
113.5718989,22.9041025,0 
113.5718986,22.9041022,0 
113.5718983,22.9041019,0 
113.5718981,22.9041015,0 
113.5718979,22.9041011,0 
113.5718978,22.9041007,0 
113.5718976,22.9041002,0 
113.5718975,22.9040997,0 
113.5718974,22.9040992,0 
113.5718974,22.9040987,0 
113.5718974,22.9040981,0 
113.5718974,22.9040975,0 
113.5718974,22.9040969,0 
113.5718975,22.9040962,0 
113.5718976,22.9040955,0 
113.5718978,22.9040948,0 
113.5718979,22.9040941,0 
113.5718981,22.9040934,0 
113.5718983,22.9040926,0 
113.5718986,22.9040918,0 
113.5718989,22.9040909,0 
113.5718992,22.9040901,0 
113.5718995,22.9040892,0 
113.5718999,22.9040883,0 
113.5719003,22.9040874,0 
113.5719007,22.9040864,0 
113.5719012,22.9040855,0 
113.5719016,22.9040845,0 
113.5719022,22.9040835,0 
113.5719027,22.9040824,0 
113.5719033,22.9040814,0 
113.5719039,22.9040803,0 
113.5719045,22.9040792,0 
113.5719051,22.9040781,0 
113.5719058,22.9040770,0 
113.5719065,22.9040758,0 
113.5719072,22.9040747,0 
113.5719080,22.9040735,0 
113.5719087,22.9040723,0 
113.5719095,22.9040711,0 
113.5719104,22.9040698,0 
113.5719112,22.9040686,0 
113.5719121,22.9040673,0 
113.5719130,22.9040661,0 
113.5719139,22.9040648,0 
113.5719148,22.9040635,0 
113.5719158,22.9040622,0 
113.5719168,22.9040609,0 
113.5719178,22.9040595,0 
113.5719188,22.9040582,0 
113.5719199,22.9040568,0 
113.5719209,22.9040555,0 
113.5719220,22.9040541,0 
113.5719231,22.9040527,0 
113.5719242,22.9040513,0 
113.5719254,22.9040499,0 
113.5719266,22.9040485,0 
113.5719277,22.9040471,0 
113.5719289,22.9040457,0 
113.5719301,22.9040443,0 
113.5719314,22.9040429,0 
113.5719326,22.9040415,0 
113.5719338,22.9040401,0 
113.5719351,22.9040386,0 
113.5719364,22.9040372,0 
113.5719377,22.9040358,0 
113.5719390,22.9040344,0 
113.5719403,22.9040329,0 
113.5719416,22.9040315,0 
113.5719430,22.9040301,0 
113.5719443,22.9040287,0 
113.5719457,22.9040273,0 
113.5719470,22.9040259,0 
113.5719484,22.9040245,0 
113.5719498,22.9040230,0 
113.5719512,22.9040217,0 
113.5719526,22.9040203,0 
113.5719540,22.9040189,0 
113.5719554,22.9040175,0 
113.5719568,22.9040161,0 
113.5719582,22.9040148,0 
113.5719596,22.9040134,0 
113.5719610,22.9040121,0 
113.5719625,22.9040108,0 
113.5719639,22.9040095,0 
113.5719653,22.9040081,0 
113.5719667,22.9040069,0 
113.5719682,22.9040056,0 
113.5719696,22.9040043,0 
113.5719710,22.9040031,0 
113.5719724,22.9040018,0 
113.5719738,22.9040006,0 
113.5719752,22.9039994,0 
113.5719766,22.9039982,0 
113.5719780,22.9039970,0 
113.5719794,22.9039959,0 
113.5719808,22.9039947,0 
113.5719822,22.9039936,0 
113.5719836,22.9039925,0 
113.5719849,22.9039914,0 
113.5719863,22.9039903,0 
113.5719876,22.9039893,0 
113.5719890,22.9039883,0 
113.5719903,22.9039873,0 
113.5719916,22.9039863,0 
113.5719929,22.9039853,0 
113.5719942,22.9039844,0 
113.5719955,22.9039835,0 
113.5719968,22.9039826,0 
113.5719980,22.9039817,0 
113.5719993,22.9039809,0 
113.5720005,22.9039800,0 
113.5720017,22.9039792,0 
113.5720029,22.9039785,0 
113.5720041,22.9039777,0 
113.5720052,22.9039770,0 
113.5720064,22.9039763,0 
113.5720075,22.9039756,0 
113.5720086,22.9039750,0 
113.5720097,22.9039744,0 
113.5720107,22.9039738,0 
113.5720118,22.9039732,0 
113.5720128,22.9039727,0 
113.5720138,22.9039722,0 
113.5720148,22.9039717,0 
113.5720158,22.9039713,0 
113.5720167,22.9039709,0 
113.5720176,22.9039705,0 
113.5720185,22.9039701,0 
113.5720194,22.9039698,0 
113.5720202,22.9039695,0 
113.5720211,22.9039692,0 
113.5720219,22.9039689,0 
113.5720226,22.9039687,0 
113.5720234,22.9039685,0 
113.5720241,22.9039684,0 
113.5720248,22.9039682,0 
113.5720255,22.9039681,0 
113.5720261,22.9039681,0 
113.5720267,22.9039680,0 
113.5720273,22.9039680,0 
113.5720279,22.9039680,0 
113.5720284,22.9039681,0 
113.5720289,22.9039682,0 
113.5720294,22.9039683,0 
113.5720299,22.9039684,0 
113.5720303,22.9039686,0 
113.5720307,22.9039688,0 
113.5720311,22.9039690,0 
113.5720314,22.9039693,0 
113.5720317,22.9039696,0 
113.5720320,22.9039699,0 
113.5720322,22.9039702,0 
113.5720325,22.9039706,0 
113.5720327,22.9039710,0 
113.5720328,22.9039714,0 
113.5720330,22.9039719,0 
113.5720331,22.9039724,0 
113.5720331,22.9039729,0 
113.5720332,22.9039734,0 
113.5720332,22.9039740,0 
113.5720332,22.9039746,0 
113.5720331,22.9039752,0 
113.5720331,22.9039759,0 
113.5720329,22.9039766,0 
113.5720328,22.9039773,0 
113.5720327,22.9039780,0 
113.5720325,22.9039788,0 
113.5720322,22.9039795,0 
113.5720320,22.9039803,0 
113.5720317,22.9039812,0 
113.5720314,22.9039820,0 
113.5720311,22.9039829,0 
113.5720307,22.9039838,0 
113.5720303,22.9039847,0 
113.5720299,22.9039857,0 
113.5720294,22.9039866,0 
113.5720289,22.9039876,0 
113.5720284,22.9039887,0 
113.5720279,22.9039897,0 
113.5720273,22.9039907,0 
113.5720267,22.9039918,0 
113.5720261,22.9039929,0 
113.5720255,22.9039940,0 
113.5720248,22.9039951,0 
113.5720241,22.9039963,0 
113.5720234,22.9039975,0 
113.5720226,22.9039986,0 
113.5720218,22.9039998,0 
113.5720210,22.9040010,0 
113.5720202,22.9040023,0 
113.5720194,22.9040035,0 
113.5720185,22.9040048,0 
113.5720176,22.9040060,0 
113.5720167,22.9040073,0 
113.5720157,22.9040086,0 
113.5720148,22.9040099,0 
113.5720138,22.9040113,0 
113.5720128,22.9040126,0 
113.5720118,22.9040139,0 
113.5720107,22.9040153,0 
113.5720096,22.9040167,0 
113.5720086,22.9040180,0 
113.5720074,22.9040194,0 
113.5720063,22.9040208,0 
113.5720052,22.9040222,0 
113.5720040,22.9040236,0 
113.5720028,22.9040250,0 
113.5720017,22.9040264,0 
113.5720004,22.9040278,0 
113.5719992,22.9040292,0 
113.5719980,22.9040306,0 
113.5719967,22.9040321,0 
113.5719955,22.9040335,0 
113.5719942,22.9040349,0 
113.5719929,22.9040363,0 
113.5719916,22.9040377,0 
113.5719903,22.9040392,0 
113.5719889,22.9040406,0 
113.5719876,22.9040420,0 
113.5719862,22.9040434,0 
113.5719849,22.9040448,0 
113.5719835,22.9040463,0 
113.5719822,22.9040477,0 
113.5719808,22.9040491,0 
113.5719794,22.9040505,0 
113.5719780,22.9040519,0 
113.5719766,22.9040532,0 
113.5719752,22.9040546,0 
113.5719738,22.9040560,0 
113.5719724,22.9040573,0 
113.5719709,22.9040587,0 
113.5719695,22.9040600,0 
113.5719681,22.9040613,0 
113.5719667,22.9040627,0 
113.5719653,22.9040640,0 
113.5719638,22.9040653,0 
113.5719624,22.9040665,0 
113.5719610,22.9040678,0 
113.5719596,22.9040691,0 
113.5719582,22.9040703,0 
113.5719568,22.9040715,0 
113.5719553,22.9040727,0 
113.5719539,22.9040739,0 
113.5719525,22.9040751,0 
113.5719511,22.9040763,0 
113.5719498,22.9040774,0 
113.5719484,22.9040785,0 
113.5719470,22.9040796,0 
113.5719456,22.9040807,0 
113.5719443,22.9040818,0 
113.5719429,22.9040828,0 
113.5719416,22.9040838,0 
113.5719403,22.9040848,0 
113.5719390,22.9040858,0 
113.5719376,22.9040868,0 
113.5719364,22.9040877,0 
113.5719351,22.9040886,0 
113.5719338,22.9040895,0 
113.5719326,22.9040904,0 
113.5719313,22.9040913,0 
113.5719301,22.9040921,0 
113.5719289,22.9040929,0 
113.5719277,22.9040936,0 
113.5719265,22.9040944,0 
113.5719254,22.9040951,0 
113.5719242,22.9040958,0 
113.5719231,22.9040965,0 
113.5719220,22.9040971,0 
113.5719209,22.9040977,0 
113.5719198,22.9040983,0 
113.5719188,22.9040989,0 
113.5719178,22.9040994,0 
113.5719168,22.9040999,0 
113.5719158,22.9041004,0 
113.5719148,22.9041008,0 
113.5719139,22.9041013,0 
113.5719130,22.9041017,0 
113.5719121,22.9041020,0 
113.5719112,22.9041024,0 
113.5719103,22.9041027,0 
113.5719095,22.9041029,0 
113.5719087,22.9041032,0 
113.5719079,22.9041034,0 
113.5719072,22.9041036,0 
113.5719065,22.9041037,0 
113.5719058,22.9041039,0 
113.5719051,22.9041040,0 
113.5719045,22.9041040,0 
113.5719038,22.9041041,0 
113.5719032,22.9041041,0 
113.5719027,22.9041041,0 
113.5719021,22.9041040,0 
113.5719016,22.9041039,0 
113.5719012,22.9041038,0 
113.5719007,22.9041037,0 
113.5719003,22.9041035,0 
113.5718999,22.9041033,0 
113.5718995,22.9041031,0 
113.5718992,22.9041028,0 
</coordinates>
</LineString>
</Placemark>
</Folder>