<Folder>
<name>SV  4 319.135255 14.942197</name>
<visibility>1</visibility>
<Placemark>
<name>circle</name>
<visibility>1</visibility>
<Style>
<geomColor></geomColor>
<geomScale>2</geomScale></Style>
<LineString>
<coordinates>
113.5719470,22.9040630,0 
113.5719467,22.9040627,0 
113.5719464,22.9040624,0 
113.5719461,22.9040621,0 
113.5719459,22.9040618,0 
113.5719457,22.9040615,0 
113.5719455,22.9040611,0 
113.5719454,22.9040607,0 
113.5719452,22.9040603,0 
113.5719451,22.9040599,0 
113.5719450,22.9040595,0 
113.5719449,22.9040590,0 
113.5719449,22.9040585,0 
113.5719449,22.9040580,0 
113.5719449,22.9040575,0 
113.5719449,22.9040569,0 
113.5719449,22.9040563,0 
113.5719450,22.9040558,0 
113.5719451,22.9040551,0 
113.5719452,22.9040545,0 
113.5719453,22.9040539,0 
113.5719454,22.9040532,0 
113.5719456,22.9040525,0 
113.5719458,22.9040518,0 
113.5719460,22.9040511,0 
113.5719462,22.9040504,0 
113.5719465,22.9040496,0 
113.5719468,22.9040489,0 
113.5719471,22.9040481,0 
113.5719474,22.9040473,0 
113.5719477,22.9040464,0 
113.5719481,22.9040456,0 
113.5719485,22.9040448,0 
113.5719489,22.9040439,0 
113.5719493,22.9040430,0 
113.5719497,22.9040421,0 
113.5719502,22.9040412,0 
113.5719507,22.9040403,0 
113.5719512,22.9040394,0 
113.5719517,22.9040385,0 
113.5719522,22.9040375,0 
113.5719528,22.9040365,0 
113.5719534,22.9040356,0 
113.5719539,22.9040346,0 
113.5719546,22.9040336,0 
113.5719552,22.9040326,0 
113.5719558,22.9040316,0 
113.5719565,22.9040305,0 
113.5719572,22.9040295,0 
113.5719579,22.9040285,0 
113.5719586,22.9040274,0 
113.5719593,22.9040264,0 
113.5719601,22.9040253,0 
113.5719608,22.9040243,0 
113.5719616,22.9040232,0 
113.5719624,22.9040221,0 
113.5719632,22.9040210,0 
113.5719640,22.9040199,0 
113.5719649,22.9040189,0 
113.5719657,22.9040178,0 
113.5719666,22.9040167,0 
113.5719674,22.9040156,0 
113.5719683,22.9040145,0 
113.5719692,22.9040134,0 
113.5719701,22.9040123,0 
113.5719710,22.9040112,0 
113.5719720,22.9040101,0 
113.5719729,22.9040090,0 
113.5719739,22.9040079,0 
113.5719748,22.9040068,0 
113.5719758,22.9040057,0 
113.5719768,22.9040046,0 
113.5719777,22.9040035,0 
113.5719787,22.9040024,0 
113.5719797,22.9040014,0 
113.5719807,22.9040003,0 
113.5719818,22.9039992,0 
113.5719828,22.9039981,0 
113.5719838,22.9039971,0 
113.5719848,22.9039960,0 
113.5719858,22.9039950,0 
113.5719869,22.9039939,0 
113.5719879,22.9039929,0 
113.5719890,22.9039919,0 
113.5719900,22.9039909,0 
113.5719911,22.9039899,0 
113.5719921,22.9039889,0 
113.5719932,22.9039879,0 
113.5719942,22.9039869,0 
113.5719953,22.9039860,0 
113.5719963,22.9039850,0 
113.5719974,22.9039841,0 
113.5719984,22.9039831,0 
113.5719995,22.9039822,0 
113.5720005,22.9039813,0 
113.5720016,22.9039804,0 
113.5720026,22.9039795,0 
113.5720036,22.9039787,0 
113.5720047,22.9039778,0 
113.5720057,22.9039770,0 
113.5720067,22.9039762,0 
113.5720077,22.9039754,0 
113.5720088,22.9039746,0 
113.5720098,22.9039738,0 
113.5720108,22.9039731,0 
113.5720118,22.9039723,0 
113.5720128,22.9039716,0 
113.5720137,22.9039709,0 
113.5720147,22.9039702,0 
113.5720157,22.9039696,0 
113.5720166,22.9039689,0 
113.5720176,22.9039683,0 
113.5720185,22.9039677,0 
113.5720194,22.9039671,0 
113.5720204,22.9039665,0 
113.5720213,22.9039660,0 
113.5720221,22.9039654,0 
113.5720230,22.9039649,0 
113.5720239,22.9039644,0 
113.5720247,22.9039640,0 
113.5720256,22.9039635,0 
113.5720264,22.9039631,0 
113.5720272,22.9039627,0 
113.5720280,22.9039623,0 
113.5720288,22.9039620,0 
113.5720296,22.9039616,0 
113.5720304,22.9039613,0 
113.5720311,22.9039610,0 
113.5720318,22.9039607,0 
113.5720325,22.9039605,0 
113.5720332,22.9039602,0 
113.5720339,22.9039600,0 
113.5720346,22.9039599,0 
113.5720352,22.9039597,0 
113.5720358,22.9039596,0 
113.5720364,22.9039594,0 
113.5720370,22.9039593,0 
113.5720376,22.9039593,0 
113.5720381,22.9039592,0 
113.5720387,22.9039592,0 
113.5720392,22.9039592,0 
113.5720397,22.9039592,0 
113.5720401,22.9039593,0 
113.5720406,22.9039593,0 
113.5720410,22.9039594,0 
113.5720415,22.9039595,0 
113.5720418,22.9039597,0 
113.5720422,22.9039598,0 
113.5720426,22.9039600,0 
113.5720429,22.9039602,0 
113.5720432,22.9039605,0 
113.5720435,22.9039607,0 
113.5720438,22.9039610,0 
113.5720440,22.9039613,0 
113.5720442,22.9039616,0 
113.5720445,22.9039619,0 
113.5720446,22.9039623,0 
113.5720448,22.9039627,0 
113.5720449,22.9039631,0 
113.5720451,22.9039635,0 
113.5720451,22.9039640,0 
113.5720452,22.9039644,0 
113.5720453,22.9039649,0 
113.5720453,22.9039654,0 
113.5720453,22.9039660,0 
113.5720453,22.9039665,0 
113.5720453,22.9039671,0 
113.5720452,22.9039677,0 
113.5720451,22.9039683,0 
113.5720450,22.9039689,0 
113.5720449,22.9039695,0 
113.5720447,22.9039702,0 
113.5720446,22.9039709,0 
113.5720444,22.9039716,0 
113.5720442,22.9039723,0 
113.5720439,22.9039730,0 
113.5720437,22.9039738,0 
113.5720434,22.9039746,0 
113.5720431,22.9039753,0 
113.5720428,22.9039762,0 
113.5720425,22.9039770,0 
113.5720421,22.9039778,0 
113.5720417,22.9039786,0 
113.5720413,22.9039795,0 
113.5720409,22.9039804,0 
113.5720405,22.9039813,0 
113.5720400,22.9039822,0 
113.5720395,22.9039831,0 
113.5720390,22.9039840,0 
113.5720385,22.9039850,0 
113.5720380,22.9039859,0 
113.5720374,22.9039869,0 
113.5720368,22.9039878,0 
113.5720362,22.9039888,0 
113.5720356,22.9039898,0 
113.5720350,22.9039908,0 
113.5720343,22.9039918,0 
113.5720337,22.9039929,0 
113.5720330,22.9039939,0 
113.5720323,22.9039949,0 
113.5720316,22.9039960,0 
113.5720308,22.9039970,0 
113.5720301,22.9039981,0 
113.5720293,22.9039992,0 
113.5720286,22.9040002,0 
113.5720278,22.9040013,0 
113.5720270,22.9040024,0 
113.5720261,22.9040035,0 
113.5720253,22.9040046,0 
113.5720245,22.9040056,0 
113.5720236,22.9040067,0 
113.5720227,22.9040078,0 
113.5720218,22.9040089,0 
113.5720209,22.9040100,0 
113.5720200,22.9040111,0 
113.5720191,22.9040122,0 
113.5720182,22.9040133,0 
113.5720173,22.9040144,0 
113.5720163,22.9040155,0 
113.5720153,22.9040166,0 
113.5720144,22.9040177,0 
113.5720134,22.9040188,0 
113.5720124,22.9040199,0 
113.5720114,22.9040210,0 
113.5720104,22.9040221,0 
113.5720094,22.9040231,0 
113.5720084,22.9040242,0 
113.5720074,22.9040253,0 
113.5720064,22.9040263,0 
113.5720054,22.9040274,0 
113.5720043,22.9040284,0 
113.5720033,22.9040295,0 
113.5720022,22.9040305,0 
113.5720012,22.9040315,0 
113.5720002,22.9040325,0 
113.5719991,22.9040335,0 
113.5719981,22.9040345,0 
113.5719970,22.9040355,0 
113.5719960,22.9040365,0 
113.5719949,22.9040375,0 
113.5719939,22.9040384,0 
113.5719928,22.9040394,0 
113.5719918,22.9040403,0 
113.5719907,22.9040412,0 
113.5719897,22.9040421,0 
113.5719886,22.9040430,0 
113.5719876,22.9040439,0 
113.5719865,22.9040447,0 
113.5719855,22.9040456,0 
113.5719845,22.9040464,0 
113.5719834,22.9040472,0 
113.5719824,22.9040480,0 
113.5719814,22.9040488,0 
113.5719804,22.9040496,0 
113.5719794,22.9040503,0 
113.5719784,22.9040511,0 
113.5719774,22.9040518,0 
113.5719764,22.9040525,0 
113.5719755,22.9040532,0 
113.5719745,22.9040538,0 
113.5719735,22.9040545,0 
113.5719726,22.9040551,0 
113.5719717,22.9040557,0 
113.5719707,22.9040563,0 
113.5719698,22.9040569,0 
113.5719689,22.9040574,0 
113.5719680,22.9040580,0 
113.5719671,22.9040585,0 
113.5719663,22.9040590,0 
113.5719654,22.9040594,0 
113.5719646,22.9040599,0 
113.5719637,22.9040603,0 
113.5719629,22.9040607,0 
113.5719621,22.9040611,0 
113.5719613,22.9040615,0 
113.5719606,22.9040618,0 
113.5719598,22.9040621,0 
113.5719591,22.9040624,0 
113.5719584,22.9040627,0 
113.5719576,22.9040629,0 
113.5719569,22.9040632,0 
113.5719563,22.9040634,0 
113.5719556,22.9040636,0 
113.5719550,22.9040637,0 
113.5719543,22.9040639,0 
113.5719537,22.9040640,0 
113.5719532,22.9040641,0 
113.5719526,22.9040641,0 
113.5719520,22.9040642,0 
113.5719515,22.9040642,0 
113.5719510,22.9040642,0 
113.5719505,22.9040642,0 
113.5719500,22.9040641,0 
113.5719496,22.9040641,0 
113.5719491,22.9040640,0 
113.5719487,22.9040639,0 
113.5719483,22.9040637,0 
113.5719479,22.9040636,0 
113.5719476,22.9040634,0 
113.5719473,22.9040632,0 
113.5719470,22.9040630,0 
</coordinates>
</LineString>
</Placemark>
</Folder>