<Folder>
<name>SV 26 189.809467 9.580264</name>
<visibility>1</visibility>
<Placemark>
<name>circle</name>
<visibility>1</visibility>
<Style>
<geomColor>FF1E69D2</geomColor>
<geomScale>2</geomScale></Style>
<LineString>
<coordinates>
113.5720279,22.9035159,0 
113.5720284,22.9035159,0 
113.5720290,22.9035159,0 
113.5720295,22.9035160,0 
113.5720301,22.9035161,0 
113.5720306,22.9035163,0 
113.5720312,22.9035165,0 
113.5720318,22.9035168,0 
113.5720324,22.9035172,0 
113.5720330,22.9035176,0 
113.5720336,22.9035181,0 
113.5720342,22.9035187,0 
113.5720349,22.9035193,0 
113.5720355,22.9035199,0 
113.5720362,22.9035207,0 
113.5720368,22.9035214,0 
113.5720375,22.9035223,0 
113.5720381,22.9035232,0 
113.5720388,22.9035241,0 
113.5720395,22.9035251,0 
113.5720402,22.9035262,0 
113.5720409,22.9035273,0 
113.5720416,22.9035285,0 
113.5720423,22.9035297,0 
113.5720430,22.9035310,0 
113.5720437,22.9035323,0 
113.5720444,22.9035337,0 
113.5720452,22.9035352,0 
113.5720459,22.9035366,0 
113.5720466,22.9035382,0 
113.5720474,22.9035398,0 
113.5720481,22.9035414,0 
113.5720488,22.9035431,0 
113.5720496,22.9035449,0 
113.5720503,22.9035466,0 
113.5720511,22.9035485,0 
113.5720518,22.9035504,0 
113.5720526,22.9035523,0 
113.5720533,22.9035543,0 
113.5720541,22.9035563,0 
113.5720548,22.9035583,0 
113.5720556,22.9035604,0 
113.5720563,22.9035626,0 
113.5720570,22.9035647,0 
113.5720578,22.9035670,0 
113.5720585,22.9035692,0 
113.5720593,22.9035715,0 
113.5720600,22.9035738,0 
113.5720607,22.9035762,0 
113.5720615,22.9035786,0 
113.5720622,22.9035810,0 
113.5720629,22.9035835,0 
113.5720636,22.9035859,0 
113.5720643,22.9035885,0 
113.5720651,22.9035910,0 
113.5720658,22.9035936,0 
113.5720665,22.9035962,0 
113.5720672,22.9035988,0 
113.5720678,22.9036015,0 
113.5720685,22.9036041,0 
113.5720692,22.9036068,0 
113.5720699,22.9036095,0 
113.5720705,22.9036123,0 
113.5720712,22.9036150,0 
113.5720718,22.9036178,0 
113.5720725,22.9036206,0 
113.5720731,22.9036234,0 
113.5720737,22.9036262,0 
113.5720743,22.9036290,0 
113.5720749,22.9036318,0 
113.5720755,22.9036346,0 
113.5720761,22.9036375,0 
113.5720767,22.9036403,0 
113.5720773,22.9036432,0 
113.5720778,22.9036461,0 
113.5720784,22.9036489,0 
113.5720789,22.9036518,0 
113.5720794,22.9036547,0 
113.5720799,22.9036575,0 
113.5720804,22.9036604,0 
113.5720809,22.9036633,0 
113.5720814,22.9036661,0 
113.5720818,22.9036690,0 
113.5720823,22.9036718,0 
113.5720827,22.9036747,0 
113.5720832,22.9036775,0 
113.5720836,22.9036803,0 
113.5720840,22.9036831,0 
113.5720844,22.9036859,0 
113.5720847,22.9036887,0 
113.5720851,22.9036914,0 
113.5720854,22.9036942,0 
113.5720858,22.9036969,0 
113.5720861,22.9036996,0 
113.5720864,22.9037023,0 
113.5720867,22.9037050,0 
113.5720869,22.9037076,0 
113.5720872,22.9037102,0 
113.5720874,22.9037128,0 
113.5720877,22.9037154,0 
113.5720879,22.9037179,0 
113.5720881,22.9037204,0 
113.5720883,22.9037229,0 
113.5720884,22.9037254,0 
113.5720886,22.9037278,0 
113.5720887,22.9037302,0 
113.5720889,22.9037325,0 
113.5720890,22.9037348,0 
113.5720891,22.9037371,0 
113.5720891,22.9037394,0 
113.5720892,22.9037416,0 
113.5720892,22.9037437,0 
113.5720893,22.9037459,0 
113.5720893,22.9037480,0 
113.5720893,22.9037500,0 
113.5720893,22.9037520,0 
113.5720892,22.9037540,0 
113.5720892,22.9037559,0 
113.5720891,22.9037577,0 
113.5720890,22.9037596,0 
113.5720890,22.9037613,0 
113.5720888,22.9037631,0 
113.5720887,22.9037648,0 
113.5720886,22.9037664,0 
113.5720884,22.9037680,0 
113.5720882,22.9037695,0 
113.5720881,22.9037710,0 
113.5720879,22.9037724,0 
113.5720876,22.9037738,0 
113.5720874,22.9037751,0 
113.5720872,22.9037764,0 
113.5720869,22.9037776,0 
113.5720866,22.9037787,0 
113.5720863,22.9037799,0 
113.5720860,22.9037809,0 
113.5720857,22.9037819,0 
113.5720854,22.9037828,0 
113.5720850,22.9037837,0 
113.5720847,22.9037845,0 
113.5720843,22.9037853,0 
113.5720839,22.9037860,0 
113.5720835,22.9037867,0 
113.5720831,22.9037872,0 
113.5720827,22.9037878,0 
113.5720822,22.9037882,0 
113.5720818,22.9037887,0 
113.5720813,22.9037890,0 
113.5720808,22.9037893,0 
113.5720803,22.9037895,0 
113.5720798,22.9037897,0 
113.5720793,22.9037898,0 
113.5720788,22.9037899,0 
113.5720783,22.9037899,0 
113.5720777,22.9037898,0 
113.5720772,22.9037897,0 
113.5720766,22.9037895,0 
113.5720760,22.9037892,0 
113.5720754,22.9037889,0 
113.5720748,22.9037886,0 
113.5720742,22.9037881,0 
113.5720736,22.9037876,0 
113.5720730,22.9037871,0 
113.5720724,22.9037865,0 
113.5720717,22.9037858,0 
113.5720711,22.9037851,0 
113.5720704,22.9037843,0 
113.5720698,22.9037835,0 
113.5720691,22.9037826,0 
113.5720684,22.9037817,0 
113.5720677,22.9037806,0 
113.5720670,22.9037796,0 
113.5720663,22.9037785,0 
113.5720656,22.9037773,0 
113.5720649,22.9037761,0 
113.5720642,22.9037748,0 
113.5720635,22.9037734,0 
113.5720628,22.9037721,0 
113.5720621,22.9037706,0 
113.5720613,22.9037691,0 
113.5720606,22.9037676,0 
113.5720599,22.9037660,0 
113.5720591,22.9037643,0 
113.5720584,22.9037626,0 
113.5720577,22.9037609,0 
113.5720569,22.9037591,0 
113.5720562,22.9037573,0 
113.5720554,22.9037554,0 
113.5720547,22.9037535,0 
113.5720539,22.9037515,0 
113.5720532,22.9037495,0 
113.5720524,22.9037474,0 
113.5720517,22.9037453,0 
113.5720509,22.9037432,0 
113.5720502,22.9037410,0 
113.5720494,22.9037388,0 
113.5720487,22.9037366,0 
113.5720480,22.9037343,0 
113.5720472,22.9037319,0 
113.5720465,22.9037296,0 
113.5720458,22.9037272,0 
113.5720450,22.9037248,0 
113.5720443,22.9037223,0 
113.5720436,22.9037198,0 
113.5720429,22.9037173,0 
113.5720422,22.9037148,0 
113.5720415,22.9037122,0 
113.5720408,22.9037096,0 
113.5720401,22.9037070,0 
113.5720394,22.9037043,0 
113.5720387,22.9037016,0 
113.5720380,22.9036989,0 
113.5720374,22.9036962,0 
113.5720367,22.9036935,0 
113.5720360,22.9036908,0 
113.5720354,22.9036880,0 
113.5720348,22.9036852,0 
113.5720341,22.9036824,0 
113.5720335,22.9036796,0 
113.5720329,22.9036768,0 
113.5720323,22.9036740,0 
113.5720317,22.9036711,0 
113.5720311,22.9036683,0 
113.5720305,22.9036654,0 
113.5720300,22.9036626,0 
113.5720294,22.9036597,0 
113.5720289,22.9036568,0 
113.5720283,22.9036540,0 
113.5720278,22.9036511,0 
113.5720273,22.9036482,0 
113.5720268,22.9036453,0 
113.5720263,22.9036425,0 
113.5720258,22.9036396,0 
113.5720254,22.9036368,0 
113.5720249,22.9036339,0 
113.5720245,22.9036311,0 
113.5720241,22.9036283,0 
113.5720237,22.9036254,0 
113.5720233,22.9036226,0 
113.5720229,22.9036199,0 
113.5720225,22.9036171,0 
113.5720221,22.9036143,0 
113.5720218,22.9036116,0 
113.5720215,22.9036088,0 
113.5720212,22.9036061,0 
113.5720208,22.9036034,0 
113.5720206,22.9036008,0 
113.5720203,22.9035981,0 
113.5720200,22.9035955,0 
113.5720198,22.9035929,0 
113.5720196,22.9035904,0 
113.5720193,22.9035878,0 
113.5720191,22.9035853,0 
113.5720190,22.9035828,0 
113.5720188,22.9035804,0 
113.5720186,22.9035780,0 
113.5720185,22.9035756,0 
113.5720184,22.9035732,0 
113.5720183,22.9035709,0 
113.5720182,22.9035686,0 
113.5720181,22.9035664,0 
113.5720180,22.9035642,0 
113.5720180,22.9035620,0 
113.5720180,22.9035599,0 
113.5720179,22.9035578,0 
113.5720179,22.9035558,0 
113.5720180,22.9035538,0 
113.5720180,22.9035518,0 
113.5720180,22.9035499,0 
113.5720181,22.9035480,0 
113.5720182,22.9035462,0 
113.5720183,22.9035444,0 
113.5720184,22.9035427,0 
113.5720185,22.9035410,0 
113.5720187,22.9035394,0 
113.5720188,22.9035378,0 
113.5720190,22.9035363,0 
113.5720192,22.9035348,0 
113.5720194,22.9035334,0 
113.5720196,22.9035320,0 
113.5720198,22.9035307,0 
113.5720201,22.9035294,0 
113.5720203,22.9035282,0 
113.5720206,22.9035270,0 
113.5720209,22.9035259,0 
113.5720212,22.9035249,0 
113.5720215,22.9035239,0 
113.5720219,22.9035229,0 
113.5720222,22.9035220,0 
113.5720226,22.9035212,0 
113.5720229,22.9035205,0 
113.5720233,22.9035198,0 
113.5720237,22.9035191,0 
113.5720241,22.9035185,0 
113.5720246,22.9035180,0 
113.5720250,22.9035175,0 
113.5720255,22.9035171,0 
113.5720259,22.9035168,0 
113.5720264,22.9035165,0 
113.5720269,22.9035162,0 
113.5720274,22.9035161,0 
113.5720279,22.9035159,0 
</coordinates>
</LineString>
</Placemark>
</Folder>