<Folder>
<name>SV 26 185.585623 5.289194</name>
<visibility>1</visibility>
<Placemark>
<name>circle</name>
<visibility>1</visibility>
<Style>
<geomColor>FF1E69D2</geomColor>
<geomScale>2</geomScale></Style>
<LineString>
<coordinates>
113.5720085,22.9030381,0 
113.5720092,22.9030382,0 
113.5720100,22.9030383,0 
113.5720108,22.9030386,0 
113.5720115,22.9030391,0 
113.5720123,22.9030397,0 
113.5720131,22.9030405,0 
113.5720140,22.9030414,0 
113.5720148,22.9030425,0 
113.5720157,22.9030437,0 
113.5720165,22.9030451,0 
113.5720174,22.9030466,0 
113.5720183,22.9030483,0 
113.5720192,22.9030501,0 
113.5720201,22.9030521,0 
113.5720210,22.9030542,0 
113.5720220,22.9030564,0 
113.5720229,22.9030588,0 
113.5720239,22.9030614,0 
113.5720248,22.9030641,0 
113.5720258,22.9030669,0 
113.5720268,22.9030699,0 
113.5720278,22.9030730,0 
113.5720288,22.9030762,0 
113.5720298,22.9030796,0 
113.5720308,22.9030831,0 
113.5720318,22.9030867,0 
113.5720329,22.9030905,0 
113.5720339,22.9030944,0 
113.5720349,22.9030985,0 
113.5720360,22.9031026,0 
113.5720370,22.9031069,0 
113.5720381,22.9031113,0 
113.5720391,22.9031158,0 
113.5720402,22.9031205,0 
113.5720412,22.9031252,0 
113.5720423,22.9031301,0 
113.5720433,22.9031351,0 
113.5720444,22.9031402,0 
113.5720455,22.9031454,0 
113.5720465,22.9031507,0 
113.5720476,22.9031561,0 
113.5720486,22.9031616,0 
113.5720497,22.9031672,0 
113.5720508,22.9031730,0 
113.5720518,22.9031788,0 
113.5720529,22.9031846,0 
113.5720539,22.9031906,0 
113.5720550,22.9031967,0 
113.5720560,22.9032028,0 
113.5720570,22.9032091,0 
113.5720581,22.9032154,0 
113.5720591,22.9032217,0 
113.5720601,22.9032282,0 
113.5720611,22.9032347,0 
113.5720621,22.9032413,0 
113.5720631,22.9032479,0 
113.5720641,22.9032547,0 
113.5720651,22.9032614,0 
113.5720661,22.9032682,0 
113.5720670,22.9032751,0 
113.5720680,22.9032820,0 
113.5720689,22.9032890,0 
113.5720699,22.9032960,0 
113.5720708,22.9033031,0 
113.5720717,22.9033101,0 
113.5720726,22.9033173,0 
113.5720735,22.9033244,0 
113.5720744,22.9033316,0 
113.5720752,22.9033388,0 
113.5720761,22.9033460,0 
113.5720769,22.9033532,0 
113.5720777,22.9033605,0 
113.5720785,22.9033677,0 
113.5720793,22.9033750,0 
113.5720801,22.9033823,0 
113.5720809,22.9033895,0 
113.5720816,22.9033968,0 
113.5720824,22.9034041,0 
113.5720831,22.9034113,0 
113.5720838,22.9034186,0 
113.5720845,22.9034258,0 
113.5720851,22.9034330,0 
113.5720858,22.9034402,0 
113.5720864,22.9034474,0 
113.5720870,22.9034545,0 
113.5720876,22.9034616,0 
113.5720882,22.9034687,0 
113.5720888,22.9034758,0 
113.5720893,22.9034828,0 
113.5720898,22.9034897,0 
113.5720903,22.9034966,0 
113.5720908,22.9035035,0 
113.5720912,22.9035103,0 
113.5720917,22.9035171,0 
113.5720921,22.9035238,0 
113.5720925,22.9035304,0 
113.5720929,22.9035370,0 
113.5720932,22.9035435,0 
113.5720936,22.9035499,0 
113.5720939,22.9035563,0 
113.5720942,22.9035626,0 
113.5720945,22.9035688,0 
113.5720947,22.9035750,0 
113.5720949,22.9035810,0 
113.5720952,22.9035870,0 
113.5720953,22.9035929,0 
113.5720955,22.9035986,0 
113.5720956,22.9036043,0 
113.5720958,22.9036099,0 
113.5720959,22.9036154,0 
113.5720959,22.9036208,0 
113.5720960,22.9036261,0 
113.5720960,22.9036313,0 
113.5720960,22.9036364,0 
113.5720960,22.9036414,0 
113.5720960,22.9036462,0 
113.5720959,22.9036510,0 
113.5720958,22.9036556,0 
113.5720957,22.9036601,0 
113.5720956,22.9036645,0 
113.5720955,22.9036688,0 
113.5720953,22.9036729,0 
113.5720951,22.9036769,0 
113.5720949,22.9036808,0 
113.5720947,22.9036846,0 
113.5720944,22.9036882,0 
113.5720941,22.9036917,0 
113.5720938,22.9036950,0 
113.5720935,22.9036983,0 
113.5720932,22.9037014,0 
113.5720928,22.9037043,0 
113.5720924,22.9037071,0 
113.5720920,22.9037098,0 
113.5720916,22.9037123,0 
113.5720912,22.9037147,0 
113.5720907,22.9037169,0 
113.5720902,22.9037190,0 
113.5720897,22.9037210,0 
113.5720892,22.9037228,0 
113.5720887,22.9037244,0 
113.5720881,22.9037259,0 
113.5720875,22.9037273,0 
113.5720869,22.9037285,0 
113.5720863,22.9037295,0 
113.5720857,22.9037304,0 
113.5720850,22.9037312,0 
113.5720843,22.9037318,0 
113.5720837,22.9037322,0 
113.5720830,22.9037325,0 
113.5720822,22.9037327,0 
113.5720815,22.9037326,0 
113.5720807,22.9037325,0 
113.5720800,22.9037322,0 
113.5720792,22.9037317,0 
113.5720784,22.9037311,0 
113.5720776,22.9037303,0 
113.5720768,22.9037294,0 
113.5720759,22.9037283,0 
113.5720751,22.9037271,0 
113.5720742,22.9037257,0 
113.5720733,22.9037242,0 
113.5720724,22.9037225,0 
113.5720715,22.9037207,0 
113.5720706,22.9037187,0 
113.5720697,22.9037166,0 
113.5720688,22.9037144,0 
113.5720678,22.9037120,0 
113.5720669,22.9037094,0 
113.5720659,22.9037067,0 
113.5720649,22.9037039,0 
113.5720639,22.9037009,0 
113.5720629,22.9036978,0 
113.5720619,22.9036946,0 
113.5720609,22.9036912,0 
113.5720599,22.9036877,0 
113.5720589,22.9036841,0 
113.5720579,22.9036803,0 
113.5720568,22.9036764,0 
113.5720558,22.9036723,0 
113.5720548,22.9036682,0 
113.5720537,22.9036639,0 
113.5720527,22.9036595,0 
113.5720516,22.9036550,0 
113.5720506,22.9036503,0 
113.5720495,22.9036456,0 
113.5720485,22.9036407,0 
113.5720474,22.9036357,0 
113.5720463,22.9036306,0 
113.5720453,22.9036254,0 
113.5720442,22.9036201,0 
113.5720431,22.9036147,0 
113.5720421,22.9036092,0 
113.5720410,22.9036036,0 
113.5720400,22.9035978,0 
113.5720389,22.9035920,0 
113.5720379,22.9035862,0 
113.5720368,22.9035802,0 
113.5720358,22.9035741,0 
113.5720347,22.9035680,0 
113.5720337,22.9035617,0 
113.5720327,22.9035554,0 
113.5720317,22.9035491,0 
113.5720306,22.9035426,0 
113.5720296,22.9035361,0 
113.5720286,22.9035295,0 
113.5720276,22.9035229,0 
113.5720266,22.9035161,0 
113.5720256,22.9035094,0 
113.5720247,22.9035026,0 
113.5720237,22.9034957,0 
113.5720228,22.9034888,0 
113.5720218,22.9034818,0 
113.5720209,22.9034748,0 
113.5720200,22.9034677,0 
113.5720190,22.9034607,0 
113.5720181,22.9034535,0 
113.5720173,22.9034464,0 
113.5720164,22.9034392,0 
113.5720155,22.9034320,0 
113.5720147,22.9034248,0 
113.5720138,22.9034176,0 
113.5720130,22.9034103,0 
113.5720122,22.9034031,0 
113.5720114,22.9033958,0 
113.5720106,22.9033885,0 
113.5720099,22.9033813,0 
113.5720091,22.9033740,0 
113.5720084,22.9033667,0 
113.5720077,22.9033595,0 
113.5720070,22.9033522,0 
113.5720063,22.9033450,0 
113.5720056,22.9033378,0 
113.5720050,22.9033306,0 
113.5720043,22.9033234,0 
113.5720037,22.9033163,0 
113.5720031,22.9033092,0 
113.5720025,22.9033021,0 
113.5720020,22.9032950,0 
113.5720014,22.9032880,0 
113.5720009,22.9032811,0 
113.5720004,22.9032742,0 
113.5719999,22.9032673,0 
113.5719995,22.9032605,0 
113.5719990,22.9032537,0 
113.5719986,22.9032470,0 
113.5719982,22.9032404,0 
113.5719978,22.9032338,0 
113.5719975,22.9032273,0 
113.5719972,22.9032208,0 
113.5719968,22.9032145,0 
113.5719965,22.9032082,0 
113.5719963,22.9032020,0 
113.5719960,22.9031958,0 
113.5719958,22.9031898,0 
113.5719956,22.9031838,0 
113.5719954,22.9031779,0 
113.5719952,22.9031722,0 
113.5719951,22.9031665,0 
113.5719950,22.9031609,0 
113.5719949,22.9031554,0 
113.5719948,22.9031500,0 
113.5719947,22.9031447,0 
113.5719947,22.9031395,0 
113.5719947,22.9031344,0 
113.5719947,22.9031294,0 
113.5719948,22.9031246,0 
113.5719948,22.9031198,0 
113.5719949,22.9031152,0 
113.5719950,22.9031107,0 
113.5719951,22.9031063,0 
113.5719953,22.9031020,0 
113.5719954,22.9030979,0 
113.5719956,22.9030939,0 
113.5719958,22.9030900,0 
113.5719961,22.9030862,0 
113.5719963,22.9030826,0 
113.5719966,22.9030791,0 
113.5719969,22.9030757,0 
113.5719972,22.9030725,0 
113.5719976,22.9030694,0 
113.5719979,22.9030665,0 
113.5719983,22.9030637,0 
113.5719987,22.9030610,0 
113.5719991,22.9030585,0 
113.5719996,22.9030561,0 
113.5720000,22.9030539,0 
113.5720005,22.9030518,0 
113.5720010,22.9030498,0 
113.5720015,22.9030480,0 
113.5720021,22.9030464,0 
113.5720026,22.9030449,0 
113.5720032,22.9030435,0 
113.5720038,22.9030423,0 
113.5720044,22.9030413,0 
113.5720051,22.9030404,0 
113.5720057,22.9030396,0 
113.5720064,22.9030390,0 
113.5720071,22.9030386,0 
113.5720078,22.9030383,0 
113.5720085,22.9030381,0 
</coordinates>
</LineString>
</Placemark>
</Folder>