<Folder>
<name>SV 31 225.214431 9.932152</name>
<visibility>1</visibility>
<Placemark>
<name>circle</name>
<visibility>1</visibility>
<Style>
<geomColor>FFFF00FF</geomColor>
<geomScale>2</geomScale></Style>
<LineString>
<coordinates>
113.5718162,22.9036406,0 
113.5718166,22.9036402,0 
113.5718170,22.9036400,0 
113.5718175,22.9036397,0 
113.5718180,22.9036395,0 
113.5718186,22.9036394,0 
113.5718192,22.9036393,0 
113.5718198,22.9036392,0 
113.5718205,22.9036392,0 
113.5718212,22.9036392,0 
113.5718220,22.9036392,0 
113.5718228,22.9036393,0 
113.5718236,22.9036395,0 
113.5718245,22.9036396,0 
113.5718254,22.9036399,0 
113.5718264,22.9036401,0 
113.5718274,22.9036404,0 
113.5718284,22.9036407,0 
113.5718295,22.9036411,0 
113.5718306,22.9036415,0 
113.5718318,22.9036420,0 
113.5718330,22.9036425,0 
113.5718342,22.9036430,0 
113.5718355,22.9036436,0 
113.5718368,22.9036442,0 
113.5718381,22.9036448,0 
113.5718395,22.9036455,0 
113.5718409,22.9036463,0 
113.5718424,22.9036470,0 
113.5718438,22.9036478,0 
113.5718453,22.9036487,0 
113.5718469,22.9036495,0 
113.5718484,22.9036504,0 
113.5718500,22.9036514,0 
113.5718516,22.9036524,0 
113.5718533,22.9036534,0 
113.5718550,22.9036544,0 
113.5718567,22.9036555,0 
113.5718584,22.9036566,0 
113.5718602,22.9036578,0 
113.5718619,22.9036590,0 
113.5718637,22.9036602,0 
113.5718656,22.9036614,0 
113.5718674,22.9036627,0 
113.5718693,22.9036640,0 
113.5718712,22.9036653,0 
113.5718731,22.9036667,0 
113.5718750,22.9036681,0 
113.5718770,22.9036695,0 
113.5718789,22.9036710,0 
113.5718809,22.9036724,0 
113.5718829,22.9036739,0 
113.5718849,22.9036755,0 
113.5718870,22.9036770,0 
113.5718890,22.9036786,0 
113.5718910,22.9036802,0 
113.5718931,22.9036818,0 
113.5718952,22.9036835,0 
113.5718972,22.9036851,0 
113.5718993,22.9036868,0 
113.5719014,22.9036885,0 
113.5719035,22.9036902,0 
113.5719056,22.9036920,0 
113.5719077,22.9036937,0 
113.5719099,22.9036955,0 
113.5719120,22.9036973,0 
113.5719141,22.9036991,0 
113.5719162,22.9037009,0 
113.5719183,22.9037028,0 
113.5719205,22.9037046,0 
113.5719226,22.9037065,0 
113.5719247,22.9037084,0 
113.5719268,22.9037102,0 
113.5719289,22.9037121,0 
113.5719310,22.9037140,0 
113.5719331,22.9037159,0 
113.5719352,22.9037178,0 
113.5719373,22.9037198,0 
113.5719393,22.9037217,0 
113.5719414,22.9037236,0 
113.5719434,22.9037256,0 
113.5719455,22.9037275,0 
113.5719475,22.9037294,0 
113.5719495,22.9037314,0 
113.5719515,22.9037333,0 
113.5719535,22.9037352,0 
113.5719554,22.9037372,0 
113.5719574,22.9037391,0 
113.5719593,22.9037411,0 
113.5719612,22.9037430,0 
113.5719631,22.9037449,0 
113.5719650,22.9037468,0 
113.5719668,22.9037487,0 
113.5719686,22.9037506,0 
113.5719704,22.9037525,0 
113.5719722,22.9037544,0 
113.5719740,22.9037563,0 
113.5719757,22.9037582,0 
113.5719774,22.9037600,0 
113.5719791,22.9037618,0 
113.5719807,22.9037637,0 
113.5719823,22.9037655,0 
113.5719839,22.9037673,0 
113.5719855,22.9037691,0 
113.5719870,22.9037708,0 
113.5719885,22.9037726,0 
113.5719900,22.9037743,0 
113.5719914,22.9037760,0 
113.5719928,22.9037777,0 
113.5719942,22.9037794,0 
113.5719955,22.9037811,0 
113.5719968,22.9037827,0 
113.5719980,22.9037843,0 
113.5719993,22.9037859,0 
113.5720005,22.9037874,0 
113.5720016,22.9037890,0 
113.5720027,22.9037905,0 
113.5720038,22.9037920,0 
113.5720048,22.9037934,0 
113.5720058,22.9037949,0 
113.5720068,22.9037963,0 
113.5720077,22.9037977,0 
113.5720086,22.9037990,0 
113.5720094,22.9038003,0 
113.5720102,22.9038016,0 
113.5720110,22.9038029,0 
113.5720117,22.9038041,0 
113.5720124,22.9038053,0 
113.5720130,22.9038065,0 
113.5720136,22.9038076,0 
113.5720141,22.9038087,0 
113.5720146,22.9038097,0 
113.5720151,22.9038108,0 
113.5720155,22.9038118,0 
113.5720159,22.9038127,0 
113.5720162,22.9038137,0 
113.5720165,22.9038145,0 
113.5720167,22.9038154,0 
113.5720169,22.9038162,0 
113.5720171,22.9038170,0 
113.5720172,22.9038177,0 
113.5720172,22.9038184,0 
113.5720173,22.9038191,0 
113.5720172,22.9038197,0 
113.5720172,22.9038203,0 
113.5720170,22.9038209,0 
113.5720169,22.9038214,0 
113.5720167,22.9038218,0 
113.5720164,22.9038223,0 
113.5720161,22.9038227,0 
113.5720158,22.9038230,0 
113.5720154,22.9038233,0 
113.5720150,22.9038236,0 
113.5720145,22.9038238,0 
113.5720140,22.9038240,0 
113.5720135,22.9038242,0 
113.5720129,22.9038243,0 
113.5720122,22.9038244,0 
113.5720116,22.9038244,0 
113.5720108,22.9038244,0 
113.5720101,22.9038243,0 
113.5720093,22.9038242,0 
113.5720084,22.9038241,0 
113.5720075,22.9038239,0 
113.5720066,22.9038237,0 
113.5720056,22.9038235,0 
113.5720046,22.9038232,0 
113.5720036,22.9038228,0 
113.5720025,22.9038225,0 
113.5720014,22.9038220,0 
113.5720002,22.9038216,0 
113.5719990,22.9038211,0 
113.5719978,22.9038206,0 
113.5719965,22.9038200,0 
113.5719952,22.9038194,0 
113.5719939,22.9038187,0 
113.5719925,22.9038180,0 
113.5719911,22.9038173,0 
113.5719897,22.9038166,0 
113.5719882,22.9038158,0 
113.5719867,22.9038149,0 
113.5719852,22.9038140,0 
113.5719836,22.9038131,0 
113.5719820,22.9038122,0 
113.5719804,22.9038112,0 
113.5719787,22.9038102,0 
113.5719771,22.9038091,0 
113.5719754,22.9038081,0 
113.5719736,22.9038069,0 
113.5719719,22.9038058,0 
113.5719701,22.9038046,0 
113.5719683,22.9038034,0 
113.5719665,22.9038022,0 
113.5719646,22.9038009,0 
113.5719627,22.9037996,0 
113.5719609,22.9037982,0 
113.5719589,22.9037969,0 
113.5719570,22.9037955,0 
113.5719551,22.9037941,0 
113.5719531,22.9037926,0 
113.5719511,22.9037911,0 
113.5719491,22.9037896,0 
113.5719471,22.9037881,0 
113.5719451,22.9037866,0 
113.5719430,22.9037850,0 
113.5719410,22.9037834,0 
113.5719389,22.9037818,0 
113.5719369,22.9037801,0 
113.5719348,22.9037784,0 
113.5719327,22.9037768,0 
113.5719306,22.9037751,0 
113.5719285,22.9037733,0 
113.5719264,22.9037716,0 
113.5719243,22.9037698,0 
113.5719222,22.9037681,0 
113.5719201,22.9037663,0 
113.5719179,22.9037645,0 
113.5719158,22.9037626,0 
113.5719137,22.9037608,0 
113.5719116,22.9037590,0 
113.5719095,22.9037571,0 
113.5719073,22.9037552,0 
113.5719052,22.9037533,0 
113.5719031,22.9037514,0 
113.5719010,22.9037495,0 
113.5718989,22.9037476,0 
113.5718968,22.9037457,0 
113.5718948,22.9037438,0 
113.5718927,22.9037419,0 
113.5718906,22.9037400,0 
113.5718886,22.9037380,0 
113.5718866,22.9037361,0 
113.5718845,22.9037341,0 
113.5718825,22.9037322,0 
113.5718805,22.9037303,0 
113.5718786,22.9037283,0 
113.5718766,22.9037264,0 
113.5718747,22.9037245,0 
113.5718727,22.9037225,0 
113.5718708,22.9037206,0 
113.5718689,22.9037187,0 
113.5718671,22.9037168,0 
113.5718652,22.9037148,0 
113.5718634,22.9037129,0 
113.5718616,22.9037110,0 
113.5718598,22.9037092,0 
113.5718581,22.9037073,0 
113.5718563,22.9037054,0 
113.5718546,22.9037036,0 
113.5718530,22.9037017,0 
113.5718513,22.9036999,0 
113.5718497,22.9036981,0 
113.5718481,22.9036963,0 
113.5718466,22.9036945,0 
113.5718450,22.9036927,0 
113.5718435,22.9036910,0 
113.5718421,22.9036893,0 
113.5718406,22.9036875,0 
113.5718392,22.9036858,0 
113.5718379,22.9036842,0 
113.5718366,22.9036825,0 
113.5718353,22.9036809,0 
113.5718340,22.9036793,0 
113.5718328,22.9036777,0 
113.5718316,22.9036761,0 
113.5718304,22.9036746,0 
113.5718293,22.9036731,0 
113.5718282,22.9036716,0 
113.5718272,22.9036701,0 
113.5718262,22.9036687,0 
113.5718252,22.9036673,0 
113.5718243,22.9036659,0 
113.5718234,22.9036646,0 
113.5718226,22.9036632,0 
113.5718218,22.9036620,0 
113.5718211,22.9036607,0 
113.5718203,22.9036595,0 
113.5718197,22.9036583,0 
113.5718190,22.9036571,0 
113.5718185,22.9036560,0 
113.5718179,22.9036549,0 
113.5718174,22.9036538,0 
113.5718169,22.9036528,0 
113.5718165,22.9036518,0 
113.5718162,22.9036508,0 
113.5718158,22.9036499,0 
113.5718156,22.9036490,0 
113.5718153,22.9036482,0 
113.5718151,22.9036474,0 
113.5718150,22.9036466,0 
113.5718149,22.9036458,0 
113.5718148,22.9036451,0 
113.5718148,22.9036445,0 
113.5718148,22.9036438,0 
113.5718149,22.9036433,0 
113.5718150,22.9036427,0 
113.5718152,22.9036422,0 
113.5718154,22.9036417,0 
113.5718156,22.9036413,0 
113.5718159,22.9036409,0 
113.5718162,22.9036406,0 
</coordinates>
</LineString>
</Placemark>
</Folder>