<Folder>
<name>SV  4 317.633442 12.333893</name>
<visibility>1</visibility>
<Placemark>
<name>circle</name>
<visibility>1</visibility>
<Style>
<geomColor></geomColor>
<geomScale>2</geomScale></Style>
<LineString>
<coordinates>
113.5718891,22.9041130,0 
113.5718888,22.9041127,0 
113.5718885,22.9041123,0 
113.5718882,22.9041120,0 
113.5718880,22.9041116,0 
113.5718878,22.9041111,0 
113.5718876,22.9041107,0 
113.5718875,22.9041102,0 
113.5718874,22.9041097,0 
113.5718873,22.9041091,0 
113.5718872,22.9041085,0 
113.5718872,22.9041079,0 
113.5718872,22.9041073,0 
113.5718873,22.9041066,0 
113.5718874,22.9041059,0 
113.5718875,22.9041052,0 
113.5718876,22.9041045,0 
113.5718878,22.9041037,0 
113.5718880,22.9041029,0 
113.5718882,22.9041021,0 
113.5718885,22.9041012,0 
113.5718888,22.9041003,0 
113.5718891,22.9040994,0 
113.5718895,22.9040985,0 
113.5718899,22.9040975,0 
113.5718903,22.9040965,0 
113.5718908,22.9040955,0 
113.5718913,22.9040945,0 
113.5718918,22.9040935,0 
113.5718923,22.9040924,0 
113.5718929,22.9040913,0 
113.5718935,22.9040902,0 
113.5718941,22.9040890,0 
113.5718948,22.9040879,0 
113.5718955,22.9040867,0 
113.5718962,22.9040855,0 
113.5718969,22.9040843,0 
113.5718977,22.9040830,0 
113.5718985,22.9040818,0 
113.5718993,22.9040805,0 
113.5719002,22.9040792,0 
113.5719010,22.9040779,0 
113.5719019,22.9040766,0 
113.5719029,22.9040752,0 
113.5719038,22.9040739,0 
113.5719048,22.9040725,0 
113.5719058,22.9040711,0 
113.5719068,22.9040697,0 
113.5719079,22.9040683,0 
113.5719089,22.9040669,0 
113.5719100,22.9040655,0 
113.5719111,22.9040640,0 
113.5719123,22.9040626,0 
113.5719134,22.9040611,0 
113.5719146,22.9040597,0 
113.5719158,22.9040582,0 
113.5719170,22.9040567,0 
113.5719182,22.9040552,0 
113.5719195,22.9040537,0 
113.5719208,22.9040522,0 
113.5719221,22.9040507,0 
113.5719234,22.9040492,0 
113.5719247,22.9040477,0 
113.5719260,22.9040462,0 
113.5719274,22.9040447,0 
113.5719287,22.9040432,0 
113.5719301,22.9040417,0 
113.5719315,22.9040402,0 
113.5719329,22.9040386,0 
113.5719343,22.9040371,0 
113.5719357,22.9040356,0 
113.5719372,22.9040341,0 
113.5719386,22.9040326,0 
113.5719400,22.9040311,0 
113.5719415,22.9040296,0 
113.5719430,22.9040281,0 
113.5719445,22.9040266,0 
113.5719459,22.9040252,0 
113.5719474,22.9040237,0 
113.5719489,22.9040222,0 
113.5719504,22.9040208,0 
113.5719519,22.9040193,0 
113.5719534,22.9040179,0 
113.5719549,22.9040165,0 
113.5719564,22.9040151,0 
113.5719580,22.9040137,0 
113.5719595,22.9040123,0 
113.5719610,22.9040109,0 
113.5719625,22.9040095,0 
113.5719640,22.9040082,0 
113.5719655,22.9040069,0 
113.5719670,22.9040055,0 
113.5719685,22.9040042,0 
113.5719700,22.9040030,0 
113.5719715,22.9040017,0 
113.5719730,22.9040004,0 
113.5719745,22.9039992,0 
113.5719760,22.9039980,0 
113.5719774,22.9039968,0 
113.5719789,22.9039956,0 
113.5719803,22.9039945,0 
113.5719818,22.9039933,0 
113.5719832,22.9039922,0 
113.5719846,22.9039911,0 
113.5719860,22.9039901,0 
113.5719875,22.9039890,0 
113.5719888,22.9039880,0 
113.5719902,22.9039870,0 
113.5719916,22.9039860,0 
113.5719929,22.9039851,0 
113.5719943,22.9039842,0 
113.5719956,22.9039833,0 
113.5719969,22.9039824,0 
113.5719982,22.9039815,0 
113.5719994,22.9039807,0 
113.5720007,22.9039799,0 
113.5720019,22.9039792,0 
113.5720031,22.9039784,0 
113.5720043,22.9039777,0 
113.5720055,22.9039770,0 
113.5720066,22.9039764,0 
113.5720078,22.9039758,0 
113.5720089,22.9039752,0 
113.5720100,22.9039746,0 
113.5720111,22.9039740,0 
113.5720121,22.9039735,0 
113.5720131,22.9039731,0 
113.5720141,22.9039726,0 
113.5720151,22.9039722,0 
113.5720161,22.9039718,0 
113.5720170,22.9039715,0 
113.5720179,22.9039711,0 
113.5720188,22.9039708,0 
113.5720196,22.9039706,0 
113.5720204,22.9039703,0 
113.5720212,22.9039701,0 
113.5720220,22.9039700,0 
113.5720227,22.9039698,0 
113.5720235,22.9039697,0 
113.5720241,22.9039697,0 
113.5720248,22.9039696,0 
113.5720254,22.9039696,0 
113.5720260,22.9039696,0 
113.5720266,22.9039697,0 
113.5720271,22.9039698,0 
113.5720276,22.9039699,0 
113.5720281,22.9039700,0 
113.5720286,22.9039702,0 
113.5720290,22.9039704,0 
113.5720294,22.9039707,0 
113.5720298,22.9039709,0 
113.5720301,22.9039713,0 
113.5720304,22.9039716,0 
113.5720307,22.9039720,0 
113.5720309,22.9039724,0 
113.5720311,22.9039728,0 
113.5720313,22.9039732,0 
113.5720314,22.9039737,0 
113.5720315,22.9039742,0 
113.5720316,22.9039748,0 
113.5720316,22.9039754,0 
113.5720317,22.9039760,0 
113.5720316,22.9039766,0 
113.5720316,22.9039773,0 
113.5720315,22.9039780,0 
113.5720314,22.9039787,0 
113.5720313,22.9039794,0 
113.5720311,22.9039802,0 
113.5720309,22.9039810,0 
113.5720306,22.9039819,0 
113.5720304,22.9039827,0 
113.5720301,22.9039836,0 
113.5720297,22.9039845,0 
113.5720294,22.9039854,0 
113.5720290,22.9039864,0 
113.5720286,22.9039874,0 
113.5720281,22.9039884,0 
113.5720276,22.9039894,0 
113.5720271,22.9039905,0 
113.5720266,22.9039915,0 
113.5720260,22.9039926,0 
113.5720254,22.9039938,0 
113.5720248,22.9039949,0 
113.5720241,22.9039961,0 
113.5720234,22.9039972,0 
113.5720227,22.9039984,0 
113.5720220,22.9039997,0 
113.5720212,22.9040009,0 
113.5720204,22.9040022,0 
113.5720196,22.9040034,0 
113.5720187,22.9040047,0 
113.5720179,22.9040060,0 
113.5720170,22.9040074,0 
113.5720160,22.9040087,0 
113.5720151,22.9040100,0 
113.5720141,22.9040114,0 
113.5720131,22.9040128,0 
113.5720121,22.9040142,0 
113.5720110,22.9040156,0 
113.5720100,22.9040170,0 
113.5720089,22.9040184,0 
113.5720077,22.9040199,0 
113.5720066,22.9040213,0 
113.5720055,22.9040228,0 
113.5720043,22.9040242,0 
113.5720031,22.9040257,0 
113.5720019,22.9040272,0 
113.5720006,22.9040287,0 
113.5719994,22.9040302,0 
113.5719981,22.9040317,0 
113.5719968,22.9040332,0 
113.5719955,22.9040347,0 
113.5719942,22.9040362,0 
113.5719929,22.9040377,0 
113.5719915,22.9040392,0 
113.5719902,22.9040407,0 
113.5719888,22.9040422,0 
113.5719874,22.9040438,0 
113.5719860,22.9040453,0 
113.5719846,22.9040468,0 
113.5719832,22.9040483,0 
113.5719817,22.9040498,0 
113.5719803,22.9040513,0 
113.5719788,22.9040528,0 
113.5719774,22.9040543,0 
113.5719759,22.9040558,0 
113.5719744,22.9040573,0 
113.5719730,22.9040588,0 
113.5719715,22.9040602,0 
113.5719700,22.9040617,0 
113.5719685,22.9040631,0 
113.5719670,22.9040646,0 
113.5719655,22.9040660,0 
113.5719640,22.9040674,0 
113.5719624,22.9040689,0 
113.5719609,22.9040703,0 
113.5719594,22.9040716,0 
113.5719579,22.9040730,0 
113.5719564,22.9040744,0 
113.5719549,22.9040757,0 
113.5719534,22.9040771,0 
113.5719519,22.9040784,0 
113.5719504,22.9040797,0 
113.5719489,22.9040810,0 
113.5719474,22.9040822,0 
113.5719459,22.9040835,0 
113.5719444,22.9040847,0 
113.5719429,22.9040859,0 
113.5719415,22.9040871,0 
113.5719400,22.9040883,0 
113.5719385,22.9040894,0 
113.5719371,22.9040906,0 
113.5719357,22.9040917,0 
113.5719343,22.9040928,0 
113.5719328,22.9040938,0 
113.5719314,22.9040949,0 
113.5719301,22.9040959,0 
113.5719287,22.9040969,0 
113.5719273,22.9040979,0 
113.5719260,22.9040988,0 
113.5719246,22.9040998,0 
113.5719233,22.9041007,0 
113.5719220,22.9041015,0 
113.5719207,22.9041024,0 
113.5719195,22.9041032,0 
113.5719182,22.9041040,0 
113.5719170,22.9041048,0 
113.5719158,22.9041055,0 
113.5719146,22.9041062,0 
113.5719134,22.9041069,0 
113.5719122,22.9041075,0 
113.5719111,22.9041082,0 
113.5719100,22.9041088,0 
113.5719089,22.9041093,0 
113.5719078,22.9041099,0 
113.5719068,22.9041104,0 
113.5719058,22.9041109,0 
113.5719048,22.9041113,0 
113.5719038,22.9041117,0 
113.5719028,22.9041121,0 
113.5719019,22.9041125,0 
113.5719010,22.9041128,0 
113.5719001,22.9041131,0 
113.5718993,22.9041133,0 
113.5718985,22.9041136,0 
113.5718977,22.9041138,0 
113.5718969,22.9041139,0 
113.5718962,22.9041141,0 
113.5718954,22.9041142,0 
113.5718948,22.9041143,0 
113.5718941,22.9041143,0 
113.5718935,22.9041143,0 
113.5718929,22.9041143,0 
113.5718923,22.9041142,0 
113.5718918,22.9041141,0 
113.5718912,22.9041140,0 
113.5718908,22.9041139,0 
113.5718903,22.9041137,0 
113.5718899,22.9041135,0 
113.5718895,22.9041132,0 
113.5718891,22.9041130,0 
</coordinates>
</LineString>
</Placemark>
</Folder>