<Folder>
<name>SV  4 319.135255 14.942197</name>
<visibility>1</visibility>
<Placemark>
<name>circle</name>
<visibility>1</visibility>
<Style>
<geomColor></geomColor>
<geomScale>2</geomScale></Style>
<LineString>
<coordinates>
113.5719395,22.9040709,0 
113.5719392,22.9040707,0 
113.5719389,22.9040704,0 
113.5719386,22.9040701,0 
113.5719384,22.9040697,0 
113.5719381,22.9040694,0 
113.5719380,22.9040690,0 
113.5719378,22.9040686,0 
113.5719376,22.9040681,0 
113.5719375,22.9040677,0 
113.5719374,22.9040672,0 
113.5719373,22.9040667,0 
113.5719373,22.9040662,0 
113.5719372,22.9040657,0 
113.5719372,22.9040651,0 
113.5719373,22.9040645,0 
113.5719373,22.9040639,0 
113.5719374,22.9040633,0 
113.5719374,22.9040626,0 
113.5719375,22.9040620,0 
113.5719377,22.9040613,0 
113.5719378,22.9040606,0 
113.5719380,22.9040598,0 
113.5719382,22.9040591,0 
113.5719384,22.9040583,0 
113.5719387,22.9040576,0 
113.5719390,22.9040568,0 
113.5719393,22.9040559,0 
113.5719396,22.9040551,0 
113.5719399,22.9040543,0 
113.5719403,22.9040534,0 
113.5719407,22.9040525,0 
113.5719411,22.9040516,0 
113.5719415,22.9040507,0 
113.5719419,22.9040498,0 
113.5719424,22.9040488,0 
113.5719429,22.9040478,0 
113.5719434,22.9040469,0 
113.5719439,22.9040459,0 
113.5719445,22.9040449,0 
113.5719451,22.9040439,0 
113.5719456,22.9040428,0 
113.5719463,22.9040418,0 
113.5719469,22.9040408,0 
113.5719475,22.9040397,0 
113.5719482,22.9040386,0 
113.5719489,22.9040376,0 
113.5719496,22.9040365,0 
113.5719503,22.9040354,0 
113.5719511,22.9040343,0 
113.5719518,22.9040332,0 
113.5719526,22.9040320,0 
113.5719534,22.9040309,0 
113.5719542,22.9040298,0 
113.5719550,22.9040286,0 
113.5719559,22.9040275,0 
113.5719567,22.9040264,0 
113.5719576,22.9040252,0 
113.5719585,22.9040240,0 
113.5719594,22.9040229,0 
113.5719603,22.9040217,0 
113.5719612,22.9040206,0 
113.5719622,22.9040194,0 
113.5719631,22.9040182,0 
113.5719641,22.9040171,0 
113.5719651,22.9040159,0 
113.5719661,22.9040147,0 
113.5719671,22.9040135,0 
113.5719681,22.9040124,0 
113.5719691,22.9040112,0 
113.5719701,22.9040101,0 
113.5719712,22.9040089,0 
113.5719722,22.9040077,0 
113.5719733,22.9040066,0 
113.5719743,22.9040054,0 
113.5719754,22.9040043,0 
113.5719765,22.9040032,0 
113.5719775,22.9040020,0 
113.5719786,22.9040009,0 
113.5719797,22.9039998,0 
113.5719808,22.9039987,0 
113.5719819,22.9039976,0 
113.5719830,22.9039965,0 
113.5719841,22.9039954,0 
113.5719852,22.9039943,0 
113.5719864,22.9039932,0 
113.5719875,22.9039922,0 
113.5719886,22.9039911,0 
113.5719897,22.9039901,0 
113.5719908,22.9039891,0 
113.5719919,22.9039881,0 
113.5719931,22.9039870,0 
113.5719942,22.9039861,0 
113.5719953,22.9039851,0 
113.5719964,22.9039841,0 
113.5719975,22.9039832,0 
113.5719986,22.9039822,0 
113.5719997,22.9039813,0 
113.5720008,22.9039804,0 
113.5720019,22.9039795,0 
113.5720030,22.9039787,0 
113.5720041,22.9039778,0 
113.5720052,22.9039770,0 
113.5720062,22.9039762,0 
113.5720073,22.9039754,0 
113.5720084,22.9039746,0 
113.5720094,22.9039738,0 
113.5720105,22.9039731,0 
113.5720115,22.9039724,0 
113.5720125,22.9039716,0 
113.5720135,22.9039710,0 
113.5720145,22.9039703,0 
113.5720155,22.9039696,0 
113.5720165,22.9039690,0 
113.5720175,22.9039684,0 
113.5720185,22.9039678,0 
113.5720194,22.9039673,0 
113.5720203,22.9039667,0 
113.5720213,22.9039662,0 
113.5720222,22.9039657,0 
113.5720231,22.9039652,0 
113.5720240,22.9039648,0 
113.5720248,22.9039643,0 
113.5720257,22.9039639,0 
113.5720265,22.9039635,0 
113.5720273,22.9039632,0 
113.5720281,22.9039628,0 
113.5720289,22.9039625,0 
113.5720297,22.9039622,0 
113.5720304,22.9039620,0 
113.5720312,22.9039617,0 
113.5720319,22.9039615,0 
113.5720326,22.9039613,0 
113.5720333,22.9039611,0 
113.5720339,22.9039610,0 
113.5720346,22.9039609,0 
113.5720352,22.9039608,0 
113.5720358,22.9039607,0 
113.5720364,22.9039606,0 
113.5720370,22.9039606,0 
113.5720375,22.9039606,0 
113.5720380,22.9039606,0 
113.5720385,22.9039607,0 
113.5720390,22.9039608,0 
113.5720395,22.9039609,0 
113.5720399,22.9039610,0 
113.5720404,22.9039611,0 
113.5720407,22.9039613,0 
113.5720411,22.9039615,0 
113.5720415,22.9039617,0 
113.5720418,22.9039620,0 
113.5720421,22.9039622,0 
113.5720424,22.9039625,0 
113.5720427,22.9039628,0 
113.5720429,22.9039632,0 
113.5720431,22.9039635,0 
113.5720433,22.9039639,0 
113.5720435,22.9039643,0 
113.5720436,22.9039648,0 
113.5720438,22.9039652,0 
113.5720439,22.9039657,0 
113.5720439,22.9039662,0 
113.5720440,22.9039667,0 
113.5720440,22.9039672,0 
113.5720440,22.9039678,0 
113.5720440,22.9039684,0 
113.5720440,22.9039690,0 
113.5720439,22.9039696,0 
113.5720438,22.9039703,0 
113.5720437,22.9039709,0 
113.5720436,22.9039716,0 
113.5720434,22.9039723,0 
113.5720433,22.9039730,0 
113.5720430,22.9039738,0 
113.5720428,22.9039746,0 
113.5720426,22.9039753,0 
113.5720423,22.9039761,0 
113.5720420,22.9039770,0 
113.5720417,22.9039778,0 
113.5720414,22.9039786,0 
113.5720410,22.9039795,0 
113.5720406,22.9039804,0 
113.5720402,22.9039813,0 
113.5720398,22.9039822,0 
113.5720393,22.9039831,0 
113.5720389,22.9039841,0 
113.5720384,22.9039850,0 
113.5720379,22.9039860,0 
113.5720373,22.9039870,0 
113.5720368,22.9039880,0 
113.5720362,22.9039890,0 
113.5720356,22.9039900,0 
113.5720350,22.9039911,0 
113.5720344,22.9039921,0 
113.5720337,22.9039932,0 
113.5720331,22.9039943,0 
113.5720324,22.9039953,0 
113.5720317,22.9039964,0 
113.5720309,22.9039975,0 
113.5720302,22.9039986,0 
113.5720294,22.9039997,0 
113.5720287,22.9040008,0 
113.5720279,22.9040020,0 
113.5720270,22.9040031,0 
113.5720262,22.9040042,0 
113.5720254,22.9040054,0 
113.5720245,22.9040065,0 
113.5720237,22.9040077,0 
113.5720228,22.9040088,0 
113.5720219,22.9040100,0 
113.5720210,22.9040112,0 
113.5720200,22.9040123,0 
113.5720191,22.9040135,0 
113.5720181,22.9040147,0 
113.5720172,22.9040158,0 
113.5720162,22.9040170,0 
113.5720152,22.9040182,0 
113.5720142,22.9040193,0 
113.5720132,22.9040205,0 
113.5720122,22.9040217,0 
113.5720112,22.9040228,0 
113.5720101,22.9040240,0 
113.5720091,22.9040252,0 
113.5720080,22.9040263,0 
113.5720070,22.9040275,0 
113.5720059,22.9040286,0 
113.5720048,22.9040297,0 
113.5720037,22.9040309,0 
113.5720026,22.9040320,0 
113.5720015,22.9040331,0 
113.5720005,22.9040342,0 
113.5719994,22.9040353,0 
113.5719982,22.9040364,0 
113.5719971,22.9040375,0 
113.5719960,22.9040386,0 
113.5719949,22.9040397,0 
113.5719938,22.9040407,0 
113.5719927,22.9040418,0 
113.5719916,22.9040428,0 
113.5719904,22.9040438,0 
113.5719893,22.9040448,0 
113.5719882,22.9040458,0 
113.5719871,22.9040468,0 
113.5719860,22.9040478,0 
113.5719849,22.9040488,0 
113.5719838,22.9040497,0 
113.5719826,22.9040506,0 
113.5719815,22.9040516,0 
113.5719804,22.9040525,0 
113.5719793,22.9040533,0 
113.5719783,22.9040542,0 
113.5719772,22.9040551,0 
113.5719761,22.9040559,0 
113.5719750,22.9040567,0 
113.5719740,22.9040575,0 
113.5719729,22.9040583,0 
113.5719718,22.9040591,0 
113.5719708,22.9040598,0 
113.5719698,22.9040605,0 
113.5719687,22.9040613,0 
113.5719677,22.9040619,0 
113.5719667,22.9040626,0 
113.5719657,22.9040633,0 
113.5719647,22.9040639,0 
113.5719638,22.9040645,0 
113.5719628,22.9040651,0 
113.5719619,22.9040656,0 
113.5719609,22.9040662,0 
113.5719600,22.9040667,0 
113.5719591,22.9040672,0 
113.5719582,22.9040677,0 
113.5719573,22.9040681,0 
113.5719564,22.9040686,0 
113.5719556,22.9040690,0 
113.5719548,22.9040693,0 
113.5719539,22.9040697,0 
113.5719531,22.9040700,0 
113.5719523,22.9040704,0 
113.5719516,22.9040707,0 
113.5719508,22.9040709,0 
113.5719501,22.9040712,0 
113.5719494,22.9040714,0 
113.5719487,22.9040716,0 
113.5719480,22.9040718,0 
113.5719473,22.9040719,0 
113.5719467,22.9040720,0 
113.5719461,22.9040721,0 
113.5719454,22.9040722,0 
113.5719449,22.9040722,0 
113.5719443,22.9040723,0 
113.5719437,22.9040723,0 
113.5719432,22.9040722,0 
113.5719427,22.9040722,0 
113.5719422,22.9040721,0 
113.5719418,22.9040720,0 
113.5719413,22.9040719,0 
113.5719409,22.9040718,0 
113.5719405,22.9040716,0 
113.5719401,22.9040714,0 
113.5719398,22.9040712,0 
113.5719395,22.9040709,0 
</coordinates>
</LineString>
</Placemark>
</Folder>