<Folder>
<name>SV 12 224.731993 14.908368</name>
<visibility>1</visibility>
<Placemark>
<name>circle</name>
<visibility>1</visibility>
<Style>
<geomColor>FF00FF00</geomColor>
<geomScale>2</geomScale></Style>
<LineString>
<coordinates>
113.5719380,22.9037494,0 
113.5719383,22.9037491,0 
113.5719385,22.9037489,0 
113.5719389,22.9037487,0 
113.5719392,22.9037486,0 
113.5719395,22.9037484,0 
113.5719399,22.9037483,0 
113.5719403,22.9037482,0 
113.5719407,22.9037481,0 
113.5719411,22.9037480,0 
113.5719416,22.9037480,0 
113.5719420,22.9037480,0 
113.5719425,22.9037480,0 
113.5719430,22.9037480,0 
113.5719436,22.9037480,0 
113.5719441,22.9037480,0 
113.5719447,22.9037481,0 
113.5719452,22.9037482,0 
113.5719458,22.9037483,0 
113.5719465,22.9037484,0 
113.5719471,22.9037486,0 
113.5719477,22.9037488,0 
113.5719484,22.9037490,0 
113.5719491,22.9037492,0 
113.5719498,22.9037494,0 
113.5719505,22.9037496,0 
113.5719512,22.9037499,0 
113.5719520,22.9037502,0 
113.5719527,22.9037505,0 
113.5719535,22.9037508,0 
113.5719543,22.9037512,0 
113.5719551,22.9037515,0 
113.5719559,22.9037519,0 
113.5719567,22.9037523,0 
113.5719575,22.9037527,0 
113.5719584,22.9037532,0 
113.5719592,22.9037536,0 
113.5719601,22.9037541,0 
113.5719610,22.9037546,0 
113.5719619,22.9037551,0 
113.5719628,22.9037556,0 
113.5719637,22.9037561,0 
113.5719646,22.9037567,0 
113.5719656,22.9037572,0 
113.5719665,22.9037578,0 
113.5719675,22.9037584,0 
113.5719684,22.9037590,0 
113.5719694,22.9037597,0 
113.5719704,22.9037603,0 
113.5719713,22.9037610,0 
113.5719723,22.9037617,0 
113.5719733,22.9037623,0 
113.5719743,22.9037630,0 
113.5719753,22.9037638,0 
113.5719763,22.9037645,0 
113.5719773,22.9037652,0 
113.5719783,22.9037660,0 
113.5719794,22.9037668,0 
113.5719804,22.9037675,0 
113.5719814,22.9037683,0 
113.5719824,22.9037691,0 
113.5719834,22.9037699,0 
113.5719845,22.9037707,0 
113.5719855,22.9037716,0 
113.5719865,22.9037724,0 
113.5719875,22.9037733,0 
113.5719886,22.9037741,0 
113.5719896,22.9037750,0 
113.5719906,22.9037759,0 
113.5719916,22.9037767,0 
113.5719926,22.9037776,0 
113.5719936,22.9037785,0 
113.5719947,22.9037794,0 
113.5719957,22.9037803,0 
113.5719967,22.9037813,0 
113.5719977,22.9037822,0 
113.5719986,22.9037831,0 
113.5719996,22.9037840,0 
113.5720006,22.9037850,0 
113.5720016,22.9037859,0 
113.5720025,22.9037868,0 
113.5720035,22.9037878,0 
113.5720044,22.9037887,0 
113.5720054,22.9037897,0 
113.5720063,22.9037906,0 
113.5720072,22.9037916,0 
113.5720081,22.9037925,0 
113.5720090,22.9037935,0 
113.5720099,22.9037944,0 
113.5720108,22.9037954,0 
113.5720117,22.9037963,0 
113.5720125,22.9037973,0 
113.5720134,22.9037982,0 
113.5720142,22.9037992,0 
113.5720151,22.9038001,0 
113.5720159,22.9038011,0 
113.5720167,22.9038020,0 
113.5720174,22.9038029,0 
113.5720182,22.9038039,0 
113.5720190,22.9038048,0 
113.5720197,22.9038057,0 
113.5720204,22.9038066,0 
113.5720211,22.9038075,0 
113.5720218,22.9038084,0 
113.5720225,22.9038093,0 
113.5720231,22.9038102,0 
113.5720238,22.9038111,0 
113.5720244,22.9038120,0 
113.5720250,22.9038128,0 
113.5720256,22.9038137,0 
113.5720262,22.9038145,0 
113.5720267,22.9038154,0 
113.5720273,22.9038162,0 
113.5720278,22.9038170,0 
113.5720283,22.9038178,0 
113.5720288,22.9038186,0 
113.5720292,22.9038194,0 
113.5720297,22.9038202,0 
113.5720301,22.9038209,0 
113.5720305,22.9038217,0 
113.5720309,22.9038224,0 
113.5720313,22.9038232,0 
113.5720316,22.9038239,0 
113.5720319,22.9038246,0 
113.5720322,22.9038253,0 
113.5720325,22.9038259,0 
113.5720328,22.9038266,0 
113.5720330,22.9038272,0 
113.5720333,22.9038279,0 
113.5720335,22.9038285,0 
113.5720336,22.9038291,0 
113.5720338,22.9038297,0 
113.5720339,22.9038302,0 
113.5720340,22.9038308,0 
113.5720341,22.9038313,0 
113.5720342,22.9038318,0 
113.5720343,22.9038323,0 
113.5720343,22.9038328,0 
113.5720343,22.9038333,0 
113.5720343,22.9038337,0 
113.5720342,22.9038341,0 
113.5720342,22.9038346,0 
113.5720341,22.9038350,0 
113.5720340,22.9038353,0 
113.5720339,22.9038357,0 
113.5720337,22.9038360,0 
113.5720336,22.9038363,0 
113.5720334,22.9038367,0 
113.5720332,22.9038369,0 
113.5720330,22.9038372,0 
113.5720327,22.9038374,0 
113.5720325,22.9038377,0 
113.5720322,22.9038379,0 
113.5720319,22.9038381,0 
113.5720315,22.9038382,0 
113.5720312,22.9038384,0 
113.5720308,22.9038385,0 
113.5720304,22.9038386,0 
113.5720300,22.9038387,0 
113.5720296,22.9038388,0 
113.5720291,22.9038388,0 
113.5720287,22.9038388,0 
113.5720282,22.9038389,0 
113.5720277,22.9038388,0 
113.5720271,22.9038388,0 
113.5720266,22.9038388,0 
113.5720260,22.9038387,0 
113.5720255,22.9038386,0 
113.5720249,22.9038385,0 
113.5720243,22.9038384,0 
113.5720236,22.9038382,0 
113.5720230,22.9038380,0 
113.5720223,22.9038378,0 
113.5720216,22.9038376,0 
113.5720209,22.9038374,0 
113.5720202,22.9038372,0 
113.5720195,22.9038369,0 
113.5720188,22.9038366,0 
113.5720180,22.9038363,0 
113.5720172,22.9038360,0 
113.5720164,22.9038356,0 
113.5720156,22.9038353,0 
113.5720148,22.9038349,0 
113.5720140,22.9038345,0 
113.5720132,22.9038341,0 
113.5720123,22.9038336,0 
113.5720115,22.9038332,0 
113.5720106,22.9038327,0 
113.5720097,22.9038322,0 
113.5720088,22.9038317,0 
113.5720079,22.9038312,0 
113.5720070,22.9038307,0 
113.5720061,22.9038301,0 
113.5720051,22.9038296,0 
113.5720042,22.9038290,0 
113.5720032,22.9038284,0 
113.5720023,22.9038278,0 
113.5720013,22.9038271,0 
113.5720003,22.9038265,0 
113.5719994,22.9038258,0 
113.5719984,22.9038251,0 
113.5719974,22.9038245,0 
113.5719964,22.9038238,0 
113.5719954,22.9038230,0 
113.5719944,22.9038223,0 
113.5719934,22.9038216,0 
113.5719924,22.9038208,0 
113.5719914,22.9038201,0 
113.5719903,22.9038193,0 
113.5719893,22.9038185,0 
113.5719883,22.9038177,0 
113.5719873,22.9038169,0 
113.5719862,22.9038161,0 
113.5719852,22.9038152,0 
113.5719842,22.9038144,0 
113.5719832,22.9038135,0 
113.5719821,22.9038127,0 
113.5719811,22.9038118,0 
113.5719801,22.9038109,0 
113.5719791,22.9038101,0 
113.5719781,22.9038092,0 
113.5719771,22.9038083,0 
113.5719761,22.9038074,0 
113.5719750,22.9038065,0 
113.5719740,22.9038055,0 
113.5719731,22.9038046,0 
113.5719721,22.9038037,0 
113.5719711,22.9038028,0 
113.5719701,22.9038018,0 
113.5719691,22.9038009,0 
113.5719682,22.9038000,0 
113.5719672,22.9037990,0 
113.5719663,22.9037981,0 
113.5719653,22.9037971,0 
113.5719644,22.9037962,0 
113.5719635,22.9037952,0 
113.5719626,22.9037943,0 
113.5719617,22.9037933,0 
113.5719608,22.9037924,0 
113.5719599,22.9037914,0 
113.5719590,22.9037905,0 
113.5719582,22.9037895,0 
113.5719573,22.9037886,0 
113.5719565,22.9037876,0 
113.5719557,22.9037867,0 
113.5719549,22.9037857,0 
113.5719541,22.9037848,0 
113.5719533,22.9037839,0 
113.5719525,22.9037829,0 
113.5719518,22.9037820,0 
113.5719510,22.9037811,0 
113.5719503,22.9037802,0 
113.5719496,22.9037793,0 
113.5719489,22.9037784,0 
113.5719482,22.9037775,0 
113.5719476,22.9037766,0 
113.5719469,22.9037757,0 
113.5719463,22.9037748,0 
113.5719457,22.9037740,0 
113.5719451,22.9037731,0 
113.5719445,22.9037723,0 
113.5719440,22.9037714,0 
113.5719434,22.9037706,0 
113.5719429,22.9037698,0 
113.5719424,22.9037690,0 
113.5719419,22.9037682,0 
113.5719415,22.9037674,0 
113.5719410,22.9037666,0 
113.5719406,22.9037659,0 
113.5719402,22.9037651,0 
113.5719398,22.9037644,0 
113.5719394,22.9037636,0 
113.5719391,22.9037629,0 
113.5719388,22.9037622,0 
113.5719385,22.9037615,0 
113.5719382,22.9037609,0 
113.5719379,22.9037602,0 
113.5719377,22.9037596,0 
113.5719375,22.9037589,0 
113.5719373,22.9037583,0 
113.5719371,22.9037577,0 
113.5719369,22.9037571,0 
113.5719368,22.9037566,0 
113.5719367,22.9037560,0 
113.5719366,22.9037555,0 
113.5719365,22.9037550,0 
113.5719365,22.9037545,0 
113.5719364,22.9037540,0 
113.5719364,22.9037535,0 
113.5719364,22.9037531,0 
113.5719365,22.9037527,0 
113.5719365,22.9037522,0 
113.5719366,22.9037518,0 
113.5719367,22.9037515,0 
113.5719368,22.9037511,0 
113.5719370,22.9037508,0 
113.5719371,22.9037505,0 
113.5719373,22.9037502,0 
113.5719375,22.9037499,0 
113.5719377,22.9037496,0 
113.5719380,22.9037494,0 
</coordinates>
</LineString>
</Placemark>
</Folder>