<Folder>
<name>SV 36 225.994374 7.194540</name>
<visibility>1</visibility>
<Placemark>
<name>circle</name>
<visibility>1</visibility>
<Style>
<geomColor></geomColor>
<geomScale>2</geomScale></Style>
<LineString>
<coordinates>
113.5716538,22.9035030,0 
113.5716543,22.9035026,0 
113.5716548,22.9035023,0 
113.5716554,22.9035021,0 
113.5716561,22.9035019,0 
113.5716568,22.9035018,0 
113.5716577,22.9035018,0 
113.5716586,22.9035018,0 
113.5716595,22.9035019,0 
113.5716606,22.9035020,0 
113.5716617,22.9035022,0 
113.5716629,22.9035025,0 
113.5716641,22.9035029,0 
113.5716654,22.9035033,0 
113.5716668,22.9035038,0 
113.5716683,22.9035043,0 
113.5716698,22.9035049,0 
113.5716714,22.9035056,0 
113.5716730,22.9035064,0 
113.5716748,22.9035072,0 
113.5716765,22.9035080,0 
113.5716784,22.9035090,0 
113.5716803,22.9035100,0 
113.5716823,22.9035110,0 
113.5716843,22.9035121,0 
113.5716864,22.9035133,0 
113.5716886,22.9035146,0 
113.5716908,22.9035159,0 
113.5716930,22.9035172,0 
113.5716954,22.9035186,0 
113.5716977,22.9035201,0 
113.5717002,22.9035217,0 
113.5717027,22.9035233,0 
113.5717052,22.9035249,0 
113.5717078,22.9035266,0 
113.5717104,22.9035284,0 
113.5717131,22.9035302,0 
113.5717159,22.9035321,0 
113.5717186,22.9035340,0 
113.5717215,22.9035360,0 
113.5717243,22.9035380,0 
113.5717273,22.9035401,0 
113.5717302,22.9035422,0 
113.5717332,22.9035444,0 
113.5717362,22.9035466,0 
113.5717393,22.9035488,0 
113.5717424,22.9035512,0 
113.5717456,22.9035535,0 
113.5717487,22.9035559,0 
113.5717519,22.9035583,0 
113.5717552,22.9035608,0 
113.5717584,22.9035634,0 
113.5717617,22.9035659,0 
113.5717651,22.9035685,0 
113.5717684,22.9035712,0 
113.5717718,22.9035738,0 
113.5717752,22.9035765,0 
113.5717786,22.9035793,0 
113.5717820,22.9035820,0 
113.5717855,22.9035848,0 
113.5717889,22.9035877,0 
113.5717924,22.9035905,0 
113.5717959,22.9035934,0 
113.5717994,22.9035963,0 
113.5718029,22.9035993,0 
113.5718064,22.9036022,0 
113.5718099,22.9036052,0 
113.5718135,22.9036082,0 
113.5718170,22.9036112,0 
113.5718205,22.9036143,0 
113.5718241,22.9036173,0 
113.5718276,22.9036204,0 
113.5718311,22.9036235,0 
113.5718347,22.9036266,0 
113.5718382,22.9036297,0 
113.5718417,22.9036328,0 
113.5718452,22.9036359,0 
113.5718487,22.9036391,0 
113.5718522,22.9036422,0 
113.5718557,22.9036454,0 
113.5718591,22.9036485,0 
113.5718626,22.9036517,0 
113.5718660,22.9036548,0 
113.5718694,22.9036580,0 
113.5718728,22.9036611,0 
113.5718761,22.9036642,0 
113.5718795,22.9036674,0 
113.5718828,22.9036705,0 
113.5718860,22.9036736,0 
113.5718893,22.9036767,0 
113.5718925,22.9036798,0 
113.5718957,22.9036829,0 
113.5718989,22.9036860,0 
113.5719020,22.9036891,0 
113.5719051,22.9036921,0 
113.5719081,22.9036951,0 
113.5719112,22.9036982,0 
113.5719141,22.9037011,0 
113.5719171,22.9037041,0 
113.5719200,22.9037071,0 
113.5719228,22.9037100,0 
113.5719256,22.9037129,0 
113.5719284,22.9037157,0 
113.5719311,22.9037186,0 
113.5719338,22.9037214,0 
113.5719364,22.9037242,0 
113.5719389,22.9037269,0 
113.5719415,22.9037296,0 
113.5719439,22.9037323,0 
113.5719463,22.9037350,0 
113.5719487,22.9037376,0 
113.5719510,22.9037402,0 
113.5719532,22.9037427,0 
113.5719554,22.9037452,0 
113.5719575,22.9037476,0 
113.5719596,22.9037501,0 
113.5719616,22.9037524,0 
113.5719635,22.9037547,0 
113.5719654,22.9037570,0 
113.5719672,22.9037593,0 
113.5719690,22.9037614,0 
113.5719707,22.9037636,0 
113.5719723,22.9037657,0 
113.5719738,22.9037677,0 
113.5719753,22.9037697,0 
113.5719767,22.9037716,0 
113.5719781,22.9037735,0 
113.5719794,22.9037754,0 
113.5719806,22.9037771,0 
113.5719817,22.9037789,0 
113.5719828,22.9037805,0 
113.5719838,22.9037822,0 
113.5719848,22.9037837,0 
113.5719856,22.9037852,0 
113.5719864,22.9037866,0 
113.5719871,22.9037880,0 
113.5719878,22.9037893,0 
113.5719883,22.9037906,0 
113.5719888,22.9037918,0 
113.5719893,22.9037929,0 
113.5719896,22.9037940,0 
113.5719899,22.9037950,0 
113.5719901,22.9037960,0 
113.5719902,22.9037969,0 
113.5719903,22.9037977,0 
113.5719903,22.9037985,0 
113.5719902,22.9037992,0 
113.5719900,22.9037998,0 
113.5719898,22.9038004,0 
113.5719895,22.9038009,0 
113.5719891,22.9038013,0 
113.5719886,22.9038017,0 
113.5719881,22.9038020,0 
113.5719875,22.9038022,0 
113.5719868,22.9038024,0 
113.5719860,22.9038025,0 
113.5719852,22.9038025,0 
113.5719843,22.9038025,0 
113.5719833,22.9038024,0 
113.5719823,22.9038023,0 
113.5719812,22.9038021,0 
113.5719800,22.9038018,0 
113.5719788,22.9038014,0 
113.5719774,22.9038010,0 
113.5719761,22.9038005,0 
113.5719746,22.9038000,0 
113.5719731,22.9037994,0 
113.5719715,22.9037987,0 
113.5719698,22.9037979,0 
113.5719681,22.9037971,0 
113.5719663,22.9037963,0 
113.5719645,22.9037953,0 
113.5719626,22.9037943,0 
113.5719606,22.9037933,0 
113.5719586,22.9037922,0 
113.5719565,22.9037910,0 
113.5719543,22.9037897,0 
113.5719521,22.9037884,0 
113.5719498,22.9037871,0 
113.5719475,22.9037857,0 
113.5719451,22.9037842,0 
113.5719427,22.9037826,0 
113.5719402,22.9037811,0 
113.5719377,22.9037794,0 
113.5719351,22.9037777,0 
113.5719324,22.9037759,0 
113.5719298,22.9037741,0 
113.5719270,22.9037722,0 
113.5719242,22.9037703,0 
113.5719214,22.9037683,0 
113.5719185,22.9037663,0 
113.5719156,22.9037642,0 
113.5719127,22.9037621,0 
113.5719097,22.9037600,0 
113.5719066,22.9037577,0 
113.5719036,22.9037555,0 
113.5719005,22.9037532,0 
113.5718973,22.9037508,0 
113.5718941,22.9037484,0 
113.5718909,22.9037460,0 
113.5718877,22.9037435,0 
113.5718844,22.9037410,0 
113.5718811,22.9037384,0 
113.5718778,22.9037358,0 
113.5718745,22.9037332,0 
113.5718711,22.9037305,0 
113.5718677,22.9037278,0 
113.5718643,22.9037250,0 
113.5718609,22.9037223,0 
113.5718574,22.9037195,0 
113.5718540,22.9037166,0 
113.5718505,22.9037138,0 
113.5718470,22.9037109,0 
113.5718435,22.9037080,0 
113.5718400,22.9037050,0 
113.5718365,22.9037021,0 
113.5718329,22.9036991,0 
113.5718294,22.9036961,0 
113.5718259,22.9036931,0 
113.5718223,22.9036900,0 
113.5718188,22.9036870,0 
113.5718153,22.9036839,0 
113.5718117,22.9036808,0 
113.5718082,22.9036777,0 
113.5718047,22.9036746,0 
113.5718012,22.9036715,0 
113.5717977,22.9036684,0 
113.5717942,22.9036652,0 
113.5717907,22.9036621,0 
113.5717872,22.9036589,0 
113.5717837,22.9036558,0 
113.5717803,22.9036526,0 
113.5717769,22.9036495,0 
113.5717735,22.9036463,0 
113.5717701,22.9036432,0 
113.5717667,22.9036401,0 
113.5717634,22.9036369,0 
113.5717601,22.9036338,0 
113.5717568,22.9036307,0 
113.5717536,22.9036276,0 
113.5717504,22.9036245,0 
113.5717472,22.9036214,0 
113.5717440,22.9036183,0 
113.5717409,22.9036152,0 
113.5717378,22.9036122,0 
113.5717347,22.9036092,0 
113.5717317,22.9036061,0 
113.5717287,22.9036032,0 
113.5717258,22.9036002,0 
113.5717229,22.9035972,0 
113.5717201,22.9035943,0 
113.5717173,22.9035914,0 
113.5717145,22.9035886,0 
113.5717118,22.9035857,0 
113.5717091,22.9035829,0 
113.5717065,22.9035801,0 
113.5717039,22.9035774,0 
113.5717014,22.9035747,0 
113.5716990,22.9035720,0 
113.5716966,22.9035693,0 
113.5716942,22.9035667,0 
113.5716919,22.9035642,0 
113.5716897,22.9035616,0 
113.5716875,22.9035591,0 
113.5716854,22.9035567,0 
113.5716833,22.9035543,0 
113.5716813,22.9035519,0 
113.5716793,22.9035496,0 
113.5716775,22.9035473,0 
113.5716757,22.9035450,0 
113.5716739,22.9035429,0 
113.5716722,22.9035407,0 
113.5716706,22.9035386,0 
113.5716690,22.9035366,0 
113.5716675,22.9035346,0 
113.5716661,22.9035327,0 
113.5716648,22.9035308,0 
113.5716635,22.9035289,0 
113.5716623,22.9035272,0 
113.5716611,22.9035254,0 
113.5716601,22.9035238,0 
113.5716590,22.9035222,0 
113.5716581,22.9035206,0 
113.5716573,22.9035191,0 
113.5716565,22.9035177,0 
113.5716557,22.9035163,0 
113.5716551,22.9035150,0 
113.5716545,22.9035137,0 
113.5716540,22.9035125,0 
113.5716536,22.9035114,0 
113.5716533,22.9035103,0 
113.5716530,22.9035093,0 
113.5716528,22.9035083,0 
113.5716526,22.9035074,0 
113.5716526,22.9035066,0 
113.5716526,22.9035058,0 
113.5716527,22.9035051,0 
113.5716529,22.9035045,0 
113.5716531,22.9035039,0 
113.5716534,22.9035034,0 
113.5716538,22.9035030,0 
</coordinates>
</LineString>
</Placemark>
</Folder>