<Folder>
<name>SV 12 221.674116 13.005564</name>
<visibility>1</visibility>
<Placemark>
<name>circle</name>
<visibility>1</visibility>
<Style>
<geomColor>FF00FF00</geomColor>
<geomScale>2</geomScale></Style>
<LineString>
<coordinates>
113.5719188,22.9037125,0 
113.5719191,22.9037123,0 
113.5719194,22.9037121,0 
113.5719198,22.9037119,0 
113.5719202,22.9037117,0 
113.5719206,22.9037116,0 
113.5719210,22.9037115,0 
113.5719214,22.9037114,0 
113.5719219,22.9037114,0 
113.5719224,22.9037114,0 
113.5719229,22.9037114,0 
113.5719234,22.9037114,0 
113.5719240,22.9037114,0 
113.5719246,22.9037115,0 
113.5719252,22.9037116,0 
113.5719258,22.9037118,0 
113.5719264,22.9037119,0 
113.5719271,22.9037121,0 
113.5719278,22.9037123,0 
113.5719285,22.9037125,0 
113.5719292,22.9037128,0 
113.5719299,22.9037131,0 
113.5719307,22.9037134,0 
113.5719315,22.9037137,0 
113.5719323,22.9037140,0 
113.5719331,22.9037144,0 
113.5719339,22.9037148,0 
113.5719348,22.9037152,0 
113.5719356,22.9037157,0 
113.5719365,22.9037162,0 
113.5719374,22.9037166,0 
113.5719384,22.9037172,0 
113.5719393,22.9037177,0 
113.5719402,22.9037183,0 
113.5719412,22.9037189,0 
113.5719422,22.9037195,0 
113.5719432,22.9037201,0 
113.5719442,22.9037207,0 
113.5719452,22.9037214,0 
113.5719462,22.9037221,0 
113.5719473,22.9037228,0 
113.5719483,22.9037236,0 
113.5719494,22.9037243,0 
113.5719505,22.9037251,0 
113.5719515,22.9037259,0 
113.5719526,22.9037267,0 
113.5719537,22.9037275,0 
113.5719549,22.9037284,0 
113.5719560,22.9037292,0 
113.5719571,22.9037301,0 
113.5719582,22.9037310,0 
113.5719594,22.9037319,0 
113.5719605,22.9037329,0 
113.5719617,22.9037338,0 
113.5719629,22.9037348,0 
113.5719640,22.9037358,0 
113.5719652,22.9037368,0 
113.5719664,22.9037378,0 
113.5719675,22.9037388,0 
113.5719687,22.9037399,0 
113.5719699,22.9037409,0 
113.5719711,22.9037420,0 
113.5719723,22.9037430,0 
113.5719735,22.9037441,0 
113.5719746,22.9037452,0 
113.5719758,22.9037463,0 
113.5719770,22.9037475,0 
113.5719782,22.9037486,0 
113.5719794,22.9037497,0 
113.5719806,22.9037509,0 
113.5719817,22.9037520,0 
113.5719829,22.9037532,0 
113.5719841,22.9037544,0 
113.5719852,22.9037555,0 
113.5719864,22.9037567,0 
113.5719875,22.9037579,0 
113.5719887,22.9037591,0 
113.5719898,22.9037603,0 
113.5719910,22.9037615,0 
113.5719921,22.9037627,0 
113.5719932,22.9037639,0 
113.5719943,22.9037651,0 
113.5719954,22.9037663,0 
113.5719965,22.9037675,0 
113.5719976,22.9037687,0 
113.5719986,22.9037699,0 
113.5719997,22.9037712,0 
113.5720007,22.9037724,0 
113.5720018,22.9037736,0 
113.5720028,22.9037748,0 
113.5720038,22.9037760,0 
113.5720048,22.9037772,0 
113.5720058,22.9037784,0 
113.5720068,22.9037796,0 
113.5720077,22.9037808,0 
113.5720087,22.9037820,0 
113.5720096,22.9037832,0 
113.5720105,22.9037843,0 
113.5720114,22.9037855,0 
113.5720123,22.9037867,0 
113.5720131,22.9037878,0 
113.5720140,22.9037890,0 
113.5720148,22.9037901,0 
113.5720156,22.9037912,0 
113.5720164,22.9037923,0 
113.5720171,22.9037934,0 
113.5720179,22.9037945,0 
113.5720186,22.9037956,0 
113.5720193,22.9037967,0 
113.5720200,22.9037978,0 
113.5720207,22.9037988,0 
113.5720213,22.9037998,0 
113.5720220,22.9038009,0 
113.5720226,22.9038019,0 
113.5720232,22.9038029,0 
113.5720237,22.9038039,0 
113.5720243,22.9038048,0 
113.5720248,22.9038058,0 
113.5720253,22.9038067,0 
113.5720258,22.9038076,0 
113.5720262,22.9038085,0 
113.5720266,22.9038094,0 
113.5720270,22.9038103,0 
113.5720274,22.9038111,0 
113.5720278,22.9038119,0 
113.5720281,22.9038128,0 
113.5720284,22.9038135,0 
113.5720287,22.9038143,0 
113.5720290,22.9038151,0 
113.5720292,22.9038158,0 
113.5720294,22.9038165,0 
113.5720296,22.9038172,0 
113.5720298,22.9038179,0 
113.5720299,22.9038185,0 
113.5720300,22.9038191,0 
113.5720301,22.9038198,0 
113.5720302,22.9038203,0 
113.5720302,22.9038209,0 
113.5720303,22.9038214,0 
113.5720303,22.9038219,0 
113.5720302,22.9038224,0 
113.5720302,22.9038229,0 
113.5720301,22.9038234,0 
113.5720300,22.9038238,0 
113.5720298,22.9038242,0 
113.5720297,22.9038245,0 
113.5720295,22.9038249,0 
113.5720293,22.9038252,0 
113.5720291,22.9038255,0 
113.5720288,22.9038258,0 
113.5720285,22.9038260,0 
113.5720282,22.9038263,0 
113.5720279,22.9038265,0 
113.5720276,22.9038266,0 
113.5720272,22.9038268,0 
113.5720268,22.9038269,0 
113.5720264,22.9038270,0 
113.5720259,22.9038271,0 
113.5720255,22.9038271,0 
113.5720250,22.9038272,0 
113.5720245,22.9038272,0 
113.5720239,22.9038271,0 
113.5720234,22.9038271,0 
113.5720228,22.9038270,0 
113.5720222,22.9038269,0 
113.5720216,22.9038268,0 
113.5720209,22.9038266,0 
113.5720203,22.9038265,0 
113.5720196,22.9038262,0 
113.5720189,22.9038260,0 
113.5720181,22.9038258,0 
113.5720174,22.9038255,0 
113.5720166,22.9038252,0 
113.5720159,22.9038249,0 
113.5720151,22.9038245,0 
113.5720142,22.9038241,0 
113.5720134,22.9038237,0 
113.5720126,22.9038233,0 
113.5720117,22.9038229,0 
113.5720108,22.9038224,0 
113.5720099,22.9038219,0 
113.5720090,22.9038214,0 
113.5720081,22.9038208,0 
113.5720071,22.9038203,0 
113.5720061,22.9038197,0 
113.5720052,22.9038191,0 
113.5720042,22.9038184,0 
113.5720032,22.9038178,0 
113.5720021,22.9038171,0 
113.5720011,22.9038164,0 
113.5720001,22.9038157,0 
113.5719990,22.9038150,0 
113.5719980,22.9038142,0 
113.5719969,22.9038134,0 
113.5719958,22.9038127,0 
113.5719947,22.9038118,0 
113.5719936,22.9038110,0 
113.5719925,22.9038102,0 
113.5719914,22.9038093,0 
113.5719902,22.9038084,0 
113.5719891,22.9038075,0 
113.5719879,22.9038066,0 
113.5719868,22.9038057,0 
113.5719856,22.9038047,0 
113.5719845,22.9038037,0 
113.5719833,22.9038028,0 
113.5719821,22.9038018,0 
113.5719810,22.9038007,0 
113.5719798,22.9037997,0 
113.5719786,22.9037987,0 
113.5719774,22.9037976,0 
113.5719762,22.9037966,0 
113.5719751,22.9037955,0 
113.5719739,22.9037944,0 
113.5719727,22.9037933,0 
113.5719715,22.9037922,0 
113.5719703,22.9037911,0 
113.5719691,22.9037900,0 
113.5719680,22.9037888,0 
113.5719668,22.9037877,0 
113.5719656,22.9037865,0 
113.5719644,22.9037854,0 
113.5719633,22.9037842,0 
113.5719621,22.9037830,0 
113.5719609,22.9037818,0 
113.5719598,22.9037806,0 
113.5719587,22.9037795,0 
113.5719575,22.9037783,0 
113.5719564,22.9037771,0 
113.5719553,22.9037759,0 
113.5719541,22.9037746,0 
113.5719530,22.9037734,0 
113.5719519,22.9037722,0 
113.5719508,22.9037710,0 
113.5719498,22.9037698,0 
113.5719487,22.9037686,0 
113.5719476,22.9037674,0 
113.5719466,22.9037662,0 
113.5719456,22.9037650,0 
113.5719445,22.9037637,0 
113.5719435,22.9037625,0 
113.5719425,22.9037613,0 
113.5719415,22.9037601,0 
113.5719406,22.9037589,0 
113.5719396,22.9037578,0 
113.5719387,22.9037566,0 
113.5719378,22.9037554,0 
113.5719368,22.9037542,0 
113.5719360,22.9037530,0 
113.5719351,22.9037519,0 
113.5719342,22.9037507,0 
113.5719334,22.9037496,0 
113.5719326,22.9037484,0 
113.5719318,22.9037473,0 
113.5719310,22.9037462,0 
113.5719302,22.9037451,0 
113.5719294,22.9037440,0 
113.5719287,22.9037429,0 
113.5719280,22.9037418,0 
113.5719273,22.9037408,0 
113.5719266,22.9037397,0 
113.5719260,22.9037387,0 
113.5719254,22.9037377,0 
113.5719248,22.9037367,0 
113.5719242,22.9037357,0 
113.5719236,22.9037347,0 
113.5719231,22.9037337,0 
113.5719225,22.9037328,0 
113.5719221,22.9037318,0 
113.5719216,22.9037309,0 
113.5719211,22.9037300,0 
113.5719207,22.9037291,0 
113.5719203,22.9037283,0 
113.5719199,22.9037274,0 
113.5719196,22.9037266,0 
113.5719192,22.9037258,0 
113.5719189,22.9037250,0 
113.5719186,22.9037242,0 
113.5719184,22.9037235,0 
113.5719181,22.9037227,0 
113.5719179,22.9037220,0 
113.5719177,22.9037213,0 
113.5719175,22.9037207,0 
113.5719174,22.9037200,0 
113.5719173,22.9037194,0 
113.5719172,22.9037188,0 
113.5719171,22.9037182,0 
113.5719171,22.9037176,0 
113.5719171,22.9037171,0 
113.5719171,22.9037166,0 
113.5719171,22.9037161,0 
113.5719172,22.9037156,0 
113.5719173,22.9037152,0 
113.5719174,22.9037148,0 
113.5719175,22.9037144,0 
113.5719177,22.9037140,0 
113.5719178,22.9037136,0 
113.5719180,22.9037133,0 
113.5719183,22.9037130,0 
113.5719185,22.9037127,0 
113.5719188,22.9037125,0 
</coordinates>
</LineString>
</Placemark>
</Folder>