<Folder>
<name>SV 36 228.504234 9.754768</name>
<visibility>1</visibility>
<Placemark>
<name>circle</name>
<visibility>1</visibility>
<Style>
<geomColor></geomColor>
<geomScale>2</geomScale></Style>
<LineString>
<coordinates>
113.5717887,22.9036463,0 
113.5717890,22.9036460,0 
113.5717894,22.9036457,0 
113.5717899,22.9036454,0 
113.5717904,22.9036452,0 
113.5717910,22.9036450,0 
113.5717916,22.9036449,0 
113.5717922,22.9036448,0 
113.5717929,22.9036447,0 
113.5717937,22.9036447,0 
113.5717945,22.9036447,0 
113.5717953,22.9036448,0 
113.5717962,22.9036449,0 
113.5717971,22.9036450,0 
113.5717981,22.9036452,0 
113.5717991,22.9036454,0 
113.5718001,22.9036456,0 
113.5718012,22.9036459,0 
113.5718024,22.9036463,0 
113.5718036,22.9036467,0 
113.5718048,22.9036471,0 
113.5718060,22.9036475,0 
113.5718073,22.9036480,0 
113.5718087,22.9036485,0 
113.5718101,22.9036491,0 
113.5718115,22.9036497,0 
113.5718130,22.9036503,0 
113.5718145,22.9036510,0 
113.5718160,22.9036517,0 
113.5718176,22.9036525,0 
113.5718192,22.9036533,0 
113.5718208,22.9036541,0 
113.5718225,22.9036550,0 
113.5718242,22.9036559,0 
113.5718259,22.9036568,0 
113.5718277,22.9036578,0 
113.5718295,22.9036588,0 
113.5718313,22.9036598,0 
113.5718332,22.9036609,0 
113.5718351,22.9036620,0 
113.5718370,22.9036631,0 
113.5718390,22.9036643,0 
113.5718409,22.9036655,0 
113.5718429,22.9036667,0 
113.5718449,22.9036679,0 
113.5718470,22.9036692,0 
113.5718491,22.9036705,0 
113.5718511,22.9036719,0 
113.5718532,22.9036732,0 
113.5718554,22.9036746,0 
113.5718575,22.9036761,0 
113.5718597,22.9036775,0 
113.5718619,22.9036790,0 
113.5718641,22.9036805,0 
113.5718663,22.9036820,0 
113.5718685,22.9036836,0 
113.5718707,22.9036851,0 
113.5718730,22.9036867,0 
113.5718752,22.9036883,0 
113.5718775,22.9036900,0 
113.5718798,22.9036916,0 
113.5718821,22.9036933,0 
113.5718844,22.9036950,0 
113.5718867,22.9036967,0 
113.5718890,22.9036984,0 
113.5718913,22.9037002,0 
113.5718936,22.9037019,0 
113.5718959,22.9037037,0 
113.5718982,22.9037055,0 
113.5719005,22.9037073,0 
113.5719029,22.9037091,0 
113.5719052,22.9037109,0 
113.5719075,22.9037128,0 
113.5719098,22.9037146,0 
113.5719121,22.9037165,0 
113.5719144,22.9037183,0 
113.5719167,22.9037202,0 
113.5719189,22.9037221,0 
113.5719212,22.9037240,0 
113.5719235,22.9037258,0 
113.5719257,22.9037277,0 
113.5719280,22.9037296,0 
113.5719302,22.9037315,0 
113.5719324,22.9037334,0 
113.5719346,22.9037353,0 
113.5719368,22.9037372,0 
113.5719389,22.9037391,0 
113.5719411,22.9037410,0 
113.5719432,22.9037429,0 
113.5719453,22.9037448,0 
113.5719474,22.9037467,0 
113.5719494,22.9037486,0 
113.5719515,22.9037505,0 
113.5719535,22.9037523,0 
113.5719555,22.9037542,0 
113.5719574,22.9037560,0 
113.5719594,22.9037579,0 
113.5719613,22.9037597,0 
113.5719632,22.9037615,0 
113.5719650,22.9037634,0 
113.5719669,22.9037652,0 
113.5719686,22.9037669,0 
113.5719704,22.9037687,0 
113.5719721,22.9037705,0 
113.5719738,22.9037722,0 
113.5719755,22.9037740,0 
113.5719771,22.9037757,0 
113.5719787,22.9037774,0 
113.5719803,22.9037790,0 
113.5719818,22.9037807,0 
113.5719833,22.9037823,0 
113.5719848,22.9037839,0 
113.5719862,22.9037855,0 
113.5719876,22.9037871,0 
113.5719889,22.9037887,0 
113.5719902,22.9037902,0 
113.5719915,22.9037917,0 
113.5719927,22.9037932,0 
113.5719939,22.9037946,0 
113.5719950,22.9037960,0 
113.5719961,22.9037974,0 
113.5719971,22.9037988,0 
113.5719981,22.9038002,0 
113.5719991,22.9038015,0 
113.5720000,22.9038028,0 
113.5720009,22.9038040,0 
113.5720017,22.9038052,0 
113.5720025,22.9038064,0 
113.5720032,22.9038076,0 
113.5720039,22.9038087,0 
113.5720045,22.9038098,0 
113.5720051,22.9038109,0 
113.5720057,22.9038119,0 
113.5720062,22.9038129,0 
113.5720066,22.9038139,0 
113.5720070,22.9038149,0 
113.5720074,22.9038158,0 
113.5720077,22.9038166,0 
113.5720080,22.9038174,0 
113.5720082,22.9038182,0 
113.5720083,22.9038190,0 
113.5720085,22.9038197,0 
113.5720085,22.9038204,0 
113.5720085,22.9038210,0 
113.5720085,22.9038216,0 
113.5720084,22.9038222,0 
113.5720083,22.9038227,0 
113.5720081,22.9038232,0 
113.5720079,22.9038237,0 
113.5720076,22.9038241,0 
113.5720073,22.9038245,0 
113.5720070,22.9038248,0 
113.5720065,22.9038251,0 
113.5720061,22.9038254,0 
113.5720056,22.9038256,0 
113.5720050,22.9038258,0 
113.5720044,22.9038259,0 
113.5720038,22.9038260,0 
113.5720031,22.9038261,0 
113.5720023,22.9038261,0 
113.5720015,22.9038261,0 
113.5720007,22.9038260,0 
113.5719998,22.9038259,0 
113.5719989,22.9038258,0 
113.5719979,22.9038256,0 
113.5719969,22.9038254,0 
113.5719959,22.9038251,0 
113.5719948,22.9038248,0 
113.5719936,22.9038245,0 
113.5719924,22.9038241,0 
113.5719912,22.9038237,0 
113.5719899,22.9038233,0 
113.5719886,22.9038228,0 
113.5719873,22.9038223,0 
113.5719859,22.9038217,0 
113.5719845,22.9038211,0 
113.5719830,22.9038204,0 
113.5719815,22.9038198,0 
113.5719800,22.9038190,0 
113.5719784,22.9038183,0 
113.5719768,22.9038175,0 
113.5719752,22.9038167,0 
113.5719735,22.9038158,0 
113.5719718,22.9038149,0 
113.5719701,22.9038140,0 
113.5719683,22.9038130,0 
113.5719665,22.9038120,0 
113.5719646,22.9038110,0 
113.5719628,22.9038099,0 
113.5719609,22.9038088,0 
113.5719590,22.9038077,0 
113.5719570,22.9038065,0 
113.5719551,22.9038053,0 
113.5719531,22.9038041,0 
113.5719510,22.9038029,0 
113.5719490,22.9038016,0 
113.5719469,22.9038003,0 
113.5719448,22.9037989,0 
113.5719427,22.9037975,0 
113.5719406,22.9037961,0 
113.5719385,22.9037947,0 
113.5719363,22.9037933,0 
113.5719341,22.9037918,0 
113.5719319,22.9037903,0 
113.5719297,22.9037888,0 
113.5719275,22.9037872,0 
113.5719253,22.9037856,0 
113.5719230,22.9037841,0 
113.5719207,22.9037824,0 
113.5719185,22.9037808,0 
113.5719162,22.9037792,0 
113.5719139,22.9037775,0 
113.5719116,22.9037758,0 
113.5719093,22.9037741,0 
113.5719070,22.9037724,0 
113.5719047,22.9037706,0 
113.5719024,22.9037688,0 
113.5719001,22.9037671,0 
113.5718978,22.9037653,0 
113.5718954,22.9037635,0 
113.5718931,22.9037617,0 
113.5718908,22.9037599,0 
113.5718885,22.9037580,0 
113.5718862,22.9037562,0 
113.5718839,22.9037543,0 
113.5718816,22.9037525,0 
113.5718793,22.9037506,0 
113.5718770,22.9037487,0 
113.5718748,22.9037468,0 
113.5718725,22.9037449,0 
113.5718703,22.9037431,0 
113.5718680,22.9037412,0 
113.5718658,22.9037393,0 
113.5718636,22.9037374,0 
113.5718614,22.9037355,0 
113.5718592,22.9037336,0 
113.5718571,22.9037317,0 
113.5718549,22.9037298,0 
113.5718528,22.9037279,0 
113.5718507,22.9037260,0 
113.5718486,22.9037241,0 
113.5718466,22.9037222,0 
113.5718445,22.9037203,0 
113.5718425,22.9037185,0 
113.5718405,22.9037166,0 
113.5718386,22.9037147,0 
113.5718366,22.9037129,0 
113.5718347,22.9037111,0 
113.5718328,22.9037092,0 
113.5718310,22.9037074,0 
113.5718291,22.9037056,0 
113.5718273,22.9037038,0 
113.5718256,22.9037021,0 
113.5718238,22.9037003,0 
113.5718221,22.9036986,0 
113.5718205,22.9036968,0 
113.5718188,22.9036951,0 
113.5718172,22.9036934,0 
113.5718157,22.9036918,0 
113.5718141,22.9036901,0 
113.5718127,22.9036885,0 
113.5718112,22.9036868,0 
113.5718098,22.9036853,0 
113.5718084,22.9036837,0 
113.5718071,22.9036821,0 
113.5718058,22.9036806,0 
113.5718045,22.9036791,0 
113.5718033,22.9036776,0 
113.5718021,22.9036762,0 
113.5718010,22.9036747,0 
113.5717999,22.9036733,0 
113.5717989,22.9036720,0 
113.5717979,22.9036706,0 
113.5717969,22.9036693,0 
113.5717960,22.9036680,0 
113.5717951,22.9036668,0 
113.5717943,22.9036655,0 
113.5717935,22.9036643,0 
113.5717928,22.9036632,0 
113.5717921,22.9036620,0 
113.5717914,22.9036609,0 
113.5717909,22.9036599,0 
113.5717903,22.9036588,0 
113.5717898,22.9036578,0 
113.5717894,22.9036569,0 
113.5717889,22.9036559,0 
113.5717886,22.9036550,0 
113.5717883,22.9036542,0 
113.5717880,22.9036533,0 
113.5717878,22.9036526,0 
113.5717876,22.9036518,0 
113.5717875,22.9036511,0 
113.5717875,22.9036504,0 
113.5717874,22.9036498,0 
113.5717875,22.9036491,0 
113.5717875,22.9036486,0 
113.5717877,22.9036480,0 
113.5717878,22.9036475,0 
113.5717881,22.9036471,0 
113.5717883,22.9036467,0 
113.5717887,22.9036463,0 
</coordinates>
</LineString>
</Placemark>
</Folder>