<Folder>
<name>SV 30 319.656917 11.688141</name>
<visibility>1</visibility>
<Placemark>
<name>circle</name>
<visibility>1</visibility>
<Style>
<geomColor>FF969696</geomColor>
<geomScale>2</geomScale></Style>
<LineString>
<coordinates>
113.5718785,22.9041402,0 
113.5718782,22.9041399,0 
113.5718778,22.9041396,0 
113.5718776,22.9041392,0 
113.5718773,22.9041388,0 
113.5718771,22.9041383,0 
113.5718769,22.9041378,0 
113.5718767,22.9041373,0 
113.5718766,22.9041368,0 
113.5718765,22.9041362,0 
113.5718765,22.9041356,0 
113.5718764,22.9041349,0 
113.5718765,22.9041342,0 
113.5718765,22.9041335,0 
113.5718766,22.9041328,0 
113.5718767,22.9041320,0 
113.5718768,22.9041312,0 
113.5718770,22.9041303,0 
113.5718772,22.9041294,0 
113.5718775,22.9041285,0 
113.5718777,22.9041276,0 
113.5718780,22.9041266,0 
113.5718784,22.9041256,0 
113.5718788,22.9041246,0 
113.5718792,22.9041236,0 
113.5718796,22.9041225,0 
113.5718801,22.9041214,0 
113.5718806,22.9041202,0 
113.5718811,22.9041191,0 
113.5718817,22.9041179,0 
113.5718823,22.9041167,0 
113.5718829,22.9041154,0 
113.5718836,22.9041142,0 
113.5718843,22.9041129,0 
113.5718850,22.9041116,0 
113.5718857,22.9041103,0 
113.5718865,22.9041089,0 
113.5718873,22.9041075,0 
113.5718882,22.9041061,0 
113.5718890,22.9041047,0 
113.5718899,22.9041033,0 
113.5718908,22.9041018,0 
113.5718918,22.9041003,0 
113.5718928,22.9040988,0 
113.5718938,22.9040973,0 
113.5718948,22.9040958,0 
113.5718958,22.9040943,0 
113.5718969,22.9040927,0 
113.5718980,22.9040911,0 
113.5718992,22.9040896,0 
113.5719003,22.9040880,0 
113.5719015,22.9040863,0 
113.5719027,22.9040847,0 
113.5719039,22.9040831,0 
113.5719051,22.9040814,0 
113.5719064,22.9040798,0 
113.5719077,22.9040781,0 
113.5719090,22.9040765,0 
113.5719103,22.9040748,0 
113.5719116,22.9040731,0 
113.5719130,22.9040714,0 
113.5719143,22.9040697,0 
113.5719157,22.9040680,0 
113.5719171,22.9040663,0 
113.5719186,22.9040646,0 
113.5719200,22.9040629,0 
113.5719215,22.9040612,0 
113.5719229,22.9040595,0 
113.5719244,22.9040578,0 
113.5719259,22.9040560,0 
113.5719274,22.9040543,0 
113.5719289,22.9040526,0 
113.5719304,22.9040509,0 
113.5719320,22.9040492,0 
113.5719335,22.9040475,0 
113.5719350,22.9040458,0 
113.5719366,22.9040442,0 
113.5719382,22.9040425,0 
113.5719397,22.9040408,0 
113.5719413,22.9040392,0 
113.5719429,22.9040375,0 
113.5719445,22.9040359,0 
113.5719461,22.9040342,0 
113.5719477,22.9040326,0 
113.5719493,22.9040310,0 
113.5719509,22.9040294,0 
113.5719525,22.9040278,0 
113.5719541,22.9040263,0 
113.5719557,22.9040247,0 
113.5719573,22.9040232,0 
113.5719589,22.9040216,0 
113.5719604,22.9040201,0 
113.5719620,22.9040187,0 
113.5719636,22.9040172,0 
113.5719652,22.9040157,0 
113.5719668,22.9040143,0 
113.5719683,22.9040129,0 
113.5719699,22.9040115,0 
113.5719715,22.9040101,0 
113.5719730,22.9040088,0 
113.5719745,22.9040074,0 
113.5719761,22.9040061,0 
113.5719776,22.9040049,0 
113.5719791,22.9040036,0 
113.5719806,22.9040024,0 
113.5719821,22.9040012,0 
113.5719835,22.9040000,0 
113.5719850,22.9039988,0 
113.5719864,22.9039977,0 
113.5719879,22.9039966,0 
113.5719893,22.9039955,0 
113.5719907,22.9039945,0 
113.5719920,22.9039935,0 
113.5719934,22.9039925,0 
113.5719947,22.9039915,0 
113.5719961,22.9039906,0 
113.5719974,22.9039897,0 
113.5719987,22.9039888,0 
113.5719999,22.9039880,0 
113.5720012,22.9039872,0 
113.5720024,22.9039864,0 
113.5720036,22.9039857,0 
113.5720048,22.9039850,0 
113.5720059,22.9039843,0 
113.5720071,22.9039837,0 
113.5720082,22.9039831,0 
113.5720093,22.9039825,0 
113.5720103,22.9039819,0 
113.5720114,22.9039814,0 
113.5720124,22.9039810,0 
113.5720134,22.9039805,0 
113.5720143,22.9039801,0 
113.5720153,22.9039797,0 
113.5720162,22.9039794,0 
113.5720170,22.9039791,0 
113.5720179,22.9039789,0 
113.5720187,22.9039786,0 
113.5720195,22.9039784,0 
113.5720202,22.9039783,0 
113.5720210,22.9039782,0 
113.5720217,22.9039781,0 
113.5720223,22.9039780,0 
113.5720230,22.9039780,0 
113.5720236,22.9039780,0 
113.5720242,22.9039781,0 
113.5720247,22.9039782,0 
113.5720252,22.9039783,0 
113.5720257,22.9039785,0 
113.5720262,22.9039787,0 
113.5720266,22.9039789,0 
113.5720270,22.9039792,0 
113.5720273,22.9039795,0 
113.5720277,22.9039798,0 
113.5720279,22.9039802,0 
113.5720282,22.9039806,0 
113.5720284,22.9039811,0 
113.5720286,22.9039816,0 
113.5720288,22.9039821,0 
113.5720289,22.9039826,0 
113.5720290,22.9039832,0 
113.5720290,22.9039838,0 
113.5720291,22.9039845,0 
113.5720291,22.9039852,0 
113.5720290,22.9039859,0 
113.5720289,22.9039866,0 
113.5720288,22.9039874,0 
113.5720287,22.9039882,0 
113.5720285,22.9039891,0 
113.5720283,22.9039899,0 
113.5720280,22.9039908,0 
113.5720278,22.9039918,0 
113.5720275,22.9039928,0 
113.5720271,22.9039937,0 
113.5720267,22.9039948,0 
113.5720263,22.9039958,0 
113.5720259,22.9039969,0 
113.5720254,22.9039980,0 
113.5720249,22.9039991,0 
113.5720244,22.9040003,0 
113.5720238,22.9040015,0 
113.5720232,22.9040027,0 
113.5720226,22.9040039,0 
113.5720219,22.9040052,0 
113.5720212,22.9040065,0 
113.5720205,22.9040078,0 
113.5720198,22.9040091,0 
113.5720190,22.9040105,0 
113.5720182,22.9040119,0 
113.5720173,22.9040133,0 
113.5720165,22.9040147,0 
113.5720156,22.9040161,0 
113.5720147,22.9040176,0 
113.5720137,22.9040191,0 
113.5720127,22.9040205,0 
113.5720117,22.9040221,0 
113.5720107,22.9040236,0 
113.5720097,22.9040251,0 
113.5720086,22.9040267,0 
113.5720075,22.9040283,0 
113.5720063,22.9040298,0 
113.5720052,22.9040314,0 
113.5720040,22.9040331,0 
113.5720028,22.9040347,0 
113.5720016,22.9040363,0 
113.5720004,22.9040380,0 
113.5719991,22.9040396,0 
113.5719978,22.9040413,0 
113.5719965,22.9040429,0 
113.5719952,22.9040446,0 
113.5719939,22.9040463,0 
113.5719925,22.9040480,0 
113.5719912,22.9040497,0 
113.5719898,22.9040514,0 
113.5719884,22.9040531,0 
113.5719869,22.9040548,0 
113.5719855,22.9040565,0 
113.5719841,22.9040582,0 
113.5719826,22.9040599,0 
113.5719811,22.9040616,0 
113.5719796,22.9040633,0 
113.5719781,22.9040651,0 
113.5719766,22.9040668,0 
113.5719751,22.9040685,0 
113.5719735,22.9040702,0 
113.5719720,22.9040719,0 
113.5719705,22.9040735,0 
113.5719689,22.9040752,0 
113.5719673,22.9040769,0 
113.5719658,22.9040786,0 
113.5719642,22.9040802,0 
113.5719626,22.9040819,0 
113.5719610,22.9040835,0 
113.5719594,22.9040852,0 
113.5719578,22.9040868,0 
113.5719562,22.9040884,0 
113.5719546,22.9040900,0 
113.5719530,22.9040916,0 
113.5719514,22.9040931,0 
113.5719498,22.9040947,0 
113.5719482,22.9040962,0 
113.5719467,22.9040977,0 
113.5719451,22.9040993,0 
113.5719435,22.9041007,0 
113.5719419,22.9041022,0 
113.5719403,22.9041037,0 
113.5719387,22.9041051,0 
113.5719372,22.9041065,0 
113.5719356,22.9041079,0 
113.5719341,22.9041093,0 
113.5719325,22.9041106,0 
113.5719310,22.9041119,0 
113.5719294,22.9041132,0 
113.5719279,22.9041145,0 
113.5719264,22.9041158,0 
113.5719249,22.9041170,0 
113.5719234,22.9041182,0 
113.5719220,22.9041194,0 
113.5719205,22.9041206,0 
113.5719191,22.9041217,0 
113.5719177,22.9041228,0 
113.5719162,22.9041239,0 
113.5719148,22.9041249,0 
113.5719135,22.9041259,0 
113.5719121,22.9041269,0 
113.5719108,22.9041279,0 
113.5719094,22.9041288,0 
113.5719081,22.9041297,0 
113.5719068,22.9041306,0 
113.5719056,22.9041314,0 
113.5719043,22.9041322,0 
113.5719031,22.9041330,0 
113.5719019,22.9041337,0 
113.5719007,22.9041344,0 
113.5718996,22.9041351,0 
113.5718984,22.9041357,0 
113.5718973,22.9041363,0 
113.5718962,22.9041369,0 
113.5718952,22.9041375,0 
113.5718941,22.9041380,0 
113.5718931,22.9041384,0 
113.5718921,22.9041389,0 
113.5718912,22.9041393,0 
113.5718903,22.9041396,0 
113.5718893,22.9041400,0 
113.5718885,22.9041403,0 
113.5718876,22.9041405,0 
113.5718868,22.9041408,0 
113.5718860,22.9041410,0 
113.5718853,22.9041411,0 
113.5718845,22.9041412,0 
113.5718838,22.9041413,0 
113.5718832,22.9041414,0 
113.5718825,22.9041414,0 
113.5718819,22.9041414,0 
113.5718813,22.9041413,0 
113.5718808,22.9041412,0 
113.5718803,22.9041411,0 
113.5718798,22.9041409,0 
113.5718793,22.9041407,0 
113.5718789,22.9041405,0 
113.5718785,22.9041402,0 
</coordinates>
</LineString>
</Placemark>
</Folder>