<Folder>
<name>SV  5 283.967472 8.510954</name>
<visibility>1</visibility>
<Placemark>
<name>circle</name>
<visibility>1</visibility>
<Style>
<geomColor>FF006400</geomColor>
<geomScale>2</geomScale></Style>
<LineString>
<coordinates>
113.5716095,22.9040124,0 
113.5716094,22.9040119,0 
113.5716094,22.9040113,0 
113.5716094,22.9040108,0 
113.5716096,22.9040102,0 
113.5716098,22.9040096,0 
113.5716101,22.9040090,0 
113.5716104,22.9040084,0 
113.5716109,22.9040078,0 
113.5716114,22.9040072,0 
113.5716120,22.9040065,0 
113.5716127,22.9040058,0 
113.5716134,22.9040051,0 
113.5716142,22.9040044,0 
113.5716151,22.9040037,0 
113.5716161,22.9040030,0 
113.5716172,22.9040022,0 
113.5716183,22.9040015,0 
113.5716195,22.9040007,0 
113.5716208,22.9039999,0 
113.5716221,22.9039991,0 
113.5716235,22.9039983,0 
113.5716250,22.9039975,0 
113.5716266,22.9039966,0 
113.5716282,22.9039958,0 
113.5716299,22.9039949,0 
113.5716317,22.9039941,0 
113.5716335,22.9039932,0 
113.5716354,22.9039923,0 
113.5716374,22.9039914,0 
113.5716394,22.9039905,0 
113.5716415,22.9039896,0 
113.5716436,22.9039887,0 
113.5716459,22.9039878,0 
113.5716481,22.9039868,0 
113.5716505,22.9039859,0 
113.5716529,22.9039849,0 
113.5716554,22.9039840,0 
113.5716579,22.9039830,0 
113.5716604,22.9039821,0 
113.5716631,22.9039811,0 
113.5716658,22.9039801,0 
113.5716685,22.9039792,0 
113.5716713,22.9039782,0 
113.5716741,22.9039772,0 
113.5716770,22.9039762,0 
113.5716800,22.9039752,0 
113.5716829,22.9039743,0 
113.5716860,22.9039733,0 
113.5716890,22.9039723,0 
113.5716921,22.9039713,0 
113.5716953,22.9039703,0 
113.5716985,22.9039693,0 
113.5717017,22.9039684,0 
113.5717050,22.9039674,0 
113.5717083,22.9039664,0 
113.5717116,22.9039654,0 
113.5717150,22.9039644,0 
113.5717184,22.9039635,0 
113.5717219,22.9039625,0 
113.5717253,22.9039615,0 
113.5717288,22.9039606,0 
113.5717323,22.9039596,0 
113.5717359,22.9039587,0 
113.5717394,22.9039577,0 
113.5717430,22.9039568,0 
113.5717466,22.9039559,0 
113.5717502,22.9039549,0 
113.5717538,22.9039540,0 
113.5717575,22.9039531,0 
113.5717611,22.9039522,0 
113.5717648,22.9039513,0 
113.5717685,22.9039504,0 
113.5717722,22.9039496,0 
113.5717759,22.9039487,0 
113.5717796,22.9039479,0 
113.5717833,22.9039470,0 
113.5717870,22.9039462,0 
113.5717907,22.9039454,0 
113.5717944,22.9039446,0 
113.5717981,22.9039438,0 
113.5718018,22.9039430,0 
113.5718054,22.9039422,0 
113.5718091,22.9039414,0 
113.5718128,22.9039407,0 
113.5718164,22.9039400,0 
113.5718201,22.9039392,0 
113.5718237,22.9039385,0 
113.5718273,22.9039379,0 
113.5718309,22.9039372,0 
113.5718345,22.9039365,0 
113.5718380,22.9039359,0 
113.5718415,22.9039353,0 
113.5718450,22.9039346,0 
113.5718485,22.9039341,0 
113.5718520,22.9039335,0 
113.5718554,22.9039329,0 
113.5718588,22.9039324,0 
113.5718621,22.9039318,0 
113.5718654,22.9039313,0 
113.5718687,22.9039308,0 
113.5718720,22.9039304,0 
113.5718752,22.9039299,0 
113.5718784,22.9039295,0 
113.5718815,22.9039291,0 
113.5718846,22.9039287,0 
113.5718877,22.9039283,0 
113.5718907,22.9039279,0 
113.5718936,22.9039276,0 
113.5718965,22.9039273,0 
113.5718994,22.9039270,0 
113.5719022,22.9039267,0 
113.5719050,22.9039264,0 
113.5719077,22.9039262,0 
113.5719103,22.9039260,0 
113.5719129,22.9039258,0 
113.5719155,22.9039256,0 
113.5719180,22.9039254,0 
113.5719204,22.9039253,0 
113.5719228,22.9039251,0 
113.5719251,22.9039250,0 
113.5719274,22.9039250,0 
113.5719296,22.9039249,0 
113.5719317,22.9039249,0 
113.5719337,22.9039248,0 
113.5719357,22.9039249,0 
113.5719377,22.9039249,0 
113.5719395,22.9039249,0 
113.5719413,22.9039250,0 
113.5719431,22.9039251,0 
113.5719447,22.9039252,0 
113.5719463,22.9039253,0 
113.5719479,22.9039254,0 
113.5719493,22.9039256,0 
113.5719507,22.9039258,0 
113.5719520,22.9039260,0 
113.5719532,22.9039262,0 
113.5719544,22.9039265,0 
113.5719555,22.9039268,0 
113.5719565,22.9039270,0 
113.5719574,22.9039273,0 
113.5719583,22.9039277,0 
113.5719591,22.9039280,0 
113.5719598,22.9039284,0 
113.5719604,22.9039288,0 
113.5719610,22.9039292,0 
113.5719615,22.9039296,0 
113.5719619,22.9039300,0 
113.5719622,22.9039305,0 
113.5719625,22.9039310,0 
113.5719627,22.9039315,0 
113.5719628,22.9039320,0 
113.5719628,22.9039325,0 
113.5719627,22.9039331,0 
113.5719626,22.9039336,0 
113.5719624,22.9039342,0 
113.5719621,22.9039348,0 
113.5719617,22.9039354,0 
113.5719613,22.9039360,0 
113.5719607,22.9039367,0 
113.5719601,22.9039374,0 
113.5719595,22.9039380,0 
113.5719587,22.9039387,0 
113.5719579,22.9039394,0 
113.5719570,22.9039402,0 
113.5719560,22.9039409,0 
113.5719550,22.9039416,0 
113.5719538,22.9039424,0 
113.5719526,22.9039432,0 
113.5719514,22.9039440,0 
113.5719500,22.9039448,0 
113.5719486,22.9039456,0 
113.5719471,22.9039464,0 
113.5719456,22.9039472,0 
113.5719439,22.9039481,0 
113.5719422,22.9039489,0 
113.5719405,22.9039498,0 
113.5719386,22.9039507,0 
113.5719367,22.9039516,0 
113.5719348,22.9039524,0 
113.5719327,22.9039533,0 
113.5719307,22.9039543,0 
113.5719285,22.9039552,0 
113.5719263,22.9039561,0 
113.5719240,22.9039570,0 
113.5719216,22.9039580,0 
113.5719192,22.9039589,0 
113.5719168,22.9039599,0 
113.5719143,22.9039608,0 
113.5719117,22.9039618,0 
113.5719091,22.9039627,0 
113.5719064,22.9039637,0 
113.5719036,22.9039647,0 
113.5719008,22.9039657,0 
113.5718980,22.9039666,0 
113.5718951,22.9039676,0 
113.5718922,22.9039686,0 
113.5718892,22.9039696,0 
113.5718862,22.9039706,0 
113.5718831,22.9039716,0 
113.5718800,22.9039725,0 
113.5718768,22.9039735,0 
113.5718736,22.9039745,0 
113.5718704,22.9039755,0 
113.5718671,22.9039765,0 
113.5718638,22.9039775,0 
113.5718605,22.9039784,0 
113.5718571,22.9039794,0 
113.5718537,22.9039804,0 
113.5718503,22.9039814,0 
113.5718468,22.9039823,0 
113.5718433,22.9039833,0 
113.5718398,22.9039842,0 
113.5718363,22.9039852,0 
113.5718327,22.9039861,0 
113.5718291,22.9039871,0 
113.5718255,22.9039880,0 
113.5718219,22.9039889,0 
113.5718183,22.9039898,0 
113.5718146,22.9039907,0 
113.5718110,22.9039916,0 
113.5718073,22.9039925,0 
113.5718036,22.9039934,0 
113.5718000,22.9039943,0 
113.5717963,22.9039951,0 
113.5717926,22.9039960,0 
113.5717889,22.9039968,0 
113.5717852,22.9039977,0 
113.5717815,22.9039985,0 
113.5717778,22.9039993,0 
113.5717741,22.9040001,0 
113.5717704,22.9040009,0 
113.5717667,22.9040017,0 
113.5717630,22.9040024,0 
113.5717594,22.9040032,0 
113.5717557,22.9040039,0 
113.5717521,22.9040046,0 
113.5717484,22.9040053,0 
113.5717448,22.9040060,0 
113.5717413,22.9040067,0 
113.5717377,22.9040073,0 
113.5717341,22.9040080,0 
113.5717306,22.9040086,0 
113.5717271,22.9040092,0 
113.5717236,22.9040098,0 
113.5717202,22.9040104,0 
113.5717168,22.9040109,0 
113.5717134,22.9040115,0 
113.5717100,22.9040120,0 
113.5717067,22.9040125,0 
113.5717034,22.9040130,0 
113.5717002,22.9040135,0 
113.5716969,22.9040139,0 
113.5716938,22.9040144,0 
113.5716906,22.9040148,0 
113.5716875,22.9040152,0 
113.5716845,22.9040156,0 
113.5716815,22.9040159,0 
113.5716785,22.9040163,0 
113.5716756,22.9040166,0 
113.5716727,22.9040169,0 
113.5716699,22.9040172,0 
113.5716672,22.9040174,0 
113.5716645,22.9040177,0 
113.5716618,22.9040179,0 
113.5716592,22.9040181,0 
113.5716566,22.9040183,0 
113.5716542,22.9040184,0 
113.5716517,22.9040186,0 
113.5716493,22.9040187,0 
113.5716470,22.9040188,0 
113.5716448,22.9040189,0 
113.5716426,22.9040189,0 
113.5716405,22.9040190,0 
113.5716384,22.9040190,0 
113.5716364,22.9040190,0 
113.5716345,22.9040190,0 
113.5716326,22.9040189,0 
113.5716308,22.9040189,0 
113.5716291,22.9040188,0 
113.5716274,22.9040187,0 
113.5716258,22.9040186,0 
113.5716243,22.9040184,0 
113.5716228,22.9040182,0 
113.5716214,22.9040181,0 
113.5716201,22.9040178,0 
113.5716189,22.9040176,0 
113.5716177,22.9040174,0 
113.5716166,22.9040171,0 
113.5716156,22.9040168,0 
113.5716147,22.9040165,0 
113.5716138,22.9040162,0 
113.5716130,22.9040158,0 
113.5716123,22.9040155,0 
113.5716117,22.9040151,0 
113.5716111,22.9040147,0 
113.5716106,22.9040143,0 
113.5716102,22.9040138,0 
113.5716099,22.9040134,0 
113.5716097,22.9040129,0 
113.5716095,22.9040124,0 
</coordinates>
</LineString>
</Placemark>
</Folder>