<Folder>
<name>SV 25 258.226682 10.825782</name>
<visibility>1</visibility>
<Placemark>
<name>circle</name>
<visibility>1</visibility>
<Style>
<geomColor>FFFF007A</geomColor>
<geomScale>2</geomScale></Style>
<LineString>
<coordinates>
113.5717612,22.9038350,0 
113.5717613,22.9038346,0 
113.5717615,22.9038342,0 
113.5717617,22.9038338,0 
113.5717619,22.9038335,0 
113.5717622,22.9038331,0 
113.5717626,22.9038328,0 
113.5717630,22.9038325,0 
113.5717634,22.9038322,0 
113.5717639,22.9038318,0 
113.5717644,22.9038316,0 
113.5717650,22.9038313,0 
113.5717656,22.9038310,0 
113.5717663,22.9038307,0 
113.5717670,22.9038305,0 
113.5717678,22.9038302,0 
113.5717686,22.9038300,0 
113.5717694,22.9038298,0 
113.5717703,22.9038296,0 
113.5717712,22.9038294,0 
113.5717722,22.9038292,0 
113.5717732,22.9038290,0 
113.5717743,22.9038289,0 
113.5717754,22.9038287,0 
113.5717765,22.9038286,0 
113.5717777,22.9038284,0 
113.5717789,22.9038283,0 
113.5717801,22.9038282,0 
113.5717814,22.9038281,0 
113.5717828,22.9038281,0 
113.5717841,22.9038280,0 
113.5717856,22.9038279,0 
113.5717870,22.9038279,0 
113.5717885,22.9038279,0 
113.5717900,22.9038278,0 
113.5717915,22.9038278,0 
113.5717931,22.9038278,0 
113.5717947,22.9038279,0 
113.5717964,22.9038279,0 
113.5717981,22.9038279,0 
113.5717998,22.9038280,0 
113.5718015,22.9038281,0 
113.5718033,22.9038281,0 
113.5718051,22.9038282,0 
113.5718069,22.9038283,0 
113.5718088,22.9038284,0 
113.5718107,22.9038286,0 
113.5718126,22.9038287,0 
113.5718145,22.9038289,0 
113.5718164,22.9038290,0 
113.5718184,22.9038292,0 
113.5718204,22.9038294,0 
113.5718224,22.9038296,0 
113.5718245,22.9038298,0 
113.5718265,22.9038300,0 
113.5718286,22.9038302,0 
113.5718307,22.9038305,0 
113.5718328,22.9038307,0 
113.5718349,22.9038310,0 
113.5718371,22.9038313,0 
113.5718392,22.9038315,0 
113.5718414,22.9038318,0 
113.5718436,22.9038321,0 
113.5718458,22.9038325,0 
113.5718480,22.9038328,0 
113.5718502,22.9038331,0 
113.5718524,22.9038335,0 
113.5718546,22.9038338,0 
113.5718569,22.9038342,0 
113.5718591,22.9038346,0 
113.5718613,22.9038349,0 
113.5718636,22.9038353,0 
113.5718658,22.9038357,0 
113.5718681,22.9038361,0 
113.5718703,22.9038366,0 
113.5718726,22.9038370,0 
113.5718748,22.9038374,0 
113.5718770,22.9038379,0 
113.5718793,22.9038383,0 
113.5718815,22.9038388,0 
113.5718837,22.9038392,0 
113.5718860,22.9038397,0 
113.5718882,22.9038402,0 
113.5718904,22.9038407,0 
113.5718926,22.9038412,0 
113.5718947,22.9038417,0 
113.5718969,22.9038422,0 
113.5718991,22.9038427,0 
113.5719012,22.9038432,0 
113.5719034,22.9038437,0 
113.5719055,22.9038443,0 
113.5719076,22.9038448,0 
113.5719096,22.9038453,0 
113.5719117,22.9038459,0 
113.5719138,22.9038464,0 
113.5719158,22.9038470,0 
113.5719178,22.9038475,0 
113.5719198,22.9038481,0 
113.5719217,22.9038486,0 
113.5719237,22.9038492,0 
113.5719256,22.9038498,0 
113.5719275,22.9038503,0 
113.5719293,22.9038509,0 
113.5719312,22.9038515,0 
113.5719330,22.9038520,0 
113.5719347,22.9038526,0 
113.5719365,22.9038532,0 
113.5719382,22.9038538,0 
113.5719399,22.9038544,0 
113.5719416,22.9038549,0 
113.5719432,22.9038555,0 
113.5719448,22.9038561,0 
113.5719463,22.9038567,0 
113.5719479,22.9038573,0 
113.5719493,22.9038578,0 
113.5719508,22.9038584,0 
113.5719522,22.9038590,0 
113.5719536,22.9038596,0 
113.5719549,22.9038601,0 
113.5719563,22.9038607,0 
113.5719575,22.9038613,0 
113.5719587,22.9038618,0 
113.5719599,22.9038624,0 
113.5719611,22.9038630,0 
113.5719622,22.9038635,0 
113.5719633,22.9038641,0 
113.5719643,22.9038646,0 
113.5719653,22.9038652,0 
113.5719662,22.9038657,0 
113.5719671,22.9038662,0 
113.5719680,22.9038668,0 
113.5719688,22.9038673,0 
113.5719695,22.9038678,0 
113.5719703,22.9038683,0 
113.5719709,22.9038689,0 
113.5719716,22.9038694,0 
113.5719722,22.9038699,0 
113.5719727,22.9038704,0 
113.5719732,22.9038708,0 
113.5719736,22.9038713,0 
113.5719741,22.9038718,0 
113.5719744,22.9038723,0 
113.5719747,22.9038727,0 
113.5719750,22.9038732,0 
113.5719752,22.9038736,0 
113.5719754,22.9038741,0 
113.5719755,22.9038745,0 
113.5719756,22.9038749,0 
113.5719756,22.9038753,0 
113.5719756,22.9038757,0 
113.5719755,22.9038761,0 
113.5719754,22.9038765,0 
113.5719752,22.9038769,0 
113.5719750,22.9038772,0 
113.5719748,22.9038776,0 
113.5719745,22.9038779,0 
113.5719741,22.9038783,0 
113.5719738,22.9038786,0 
113.5719733,22.9038789,0 
113.5719728,22.9038792,0 
113.5719723,22.9038795,0 
113.5719717,22.9038798,0 
113.5719711,22.9038801,0 
113.5719704,22.9038803,0 
113.5719697,22.9038806,0 
113.5719690,22.9038808,0 
113.5719682,22.9038811,0 
113.5719673,22.9038813,0 
113.5719665,22.9038815,0 
113.5719655,22.9038817,0 
113.5719645,22.9038819,0 
113.5719635,22.9038820,0 
113.5719625,22.9038822,0 
113.5719614,22.9038823,0 
113.5719602,22.9038825,0 
113.5719591,22.9038826,0 
113.5719578,22.9038827,0 
113.5719566,22.9038828,0 
113.5719553,22.9038829,0 
113.5719540,22.9038830,0 
113.5719526,22.9038831,0 
113.5719512,22.9038831,0 
113.5719497,22.9038832,0 
113.5719483,22.9038832,0 
113.5719467,22.9038832,0 
113.5719452,22.9038832,0 
113.5719436,22.9038832,0 
113.5719420,22.9038832,0 
113.5719403,22.9038832,0 
113.5719387,22.9038831,0 
113.5719369,22.9038831,0 
113.5719352,22.9038830,0 
113.5719334,22.9038829,0 
113.5719316,22.9038828,0 
113.5719298,22.9038827,0 
113.5719280,22.9038826,0 
113.5719261,22.9038825,0 
113.5719242,22.9038824,0 
113.5719222,22.9038822,0 
113.5719203,22.9038820,0 
113.5719183,22.9038819,0 
113.5719163,22.9038817,0 
113.5719143,22.9038815,0 
113.5719123,22.9038813,0 
113.5719102,22.9038811,0 
113.5719081,22.9038808,0 
113.5719060,22.9038806,0 
113.5719039,22.9038803,0 
113.5719018,22.9038801,0 
113.5718996,22.9038798,0 
113.5718975,22.9038795,0 
113.5718953,22.9038792,0 
113.5718931,22.9038789,0 
113.5718910,22.9038786,0 
113.5718888,22.9038783,0 
113.5718865,22.9038779,0 
113.5718843,22.9038776,0 
113.5718821,22.9038772,0 
113.5718799,22.9038769,0 
113.5718776,22.9038765,0 
113.5718754,22.9038761,0 
113.5718732,22.9038757,0 
113.5718709,22.9038753,0 
113.5718687,22.9038749,0 
113.5718664,22.9038745,0 
113.5718642,22.9038741,0 
113.5718619,22.9038736,0 
113.5718597,22.9038732,0 
113.5718575,22.9038727,0 
113.5718552,22.9038723,0 
113.5718530,22.9038718,0 
113.5718508,22.9038713,0 
113.5718486,22.9038709,0 
113.5718464,22.9038704,0 
113.5718442,22.9038699,0 
113.5718420,22.9038694,0 
113.5718398,22.9038689,0 
113.5718377,22.9038684,0 
113.5718355,22.9038679,0 
113.5718334,22.9038673,0 
113.5718313,22.9038668,0 
113.5718292,22.9038663,0 
113.5718271,22.9038657,0 
113.5718250,22.9038652,0 
113.5718230,22.9038646,0 
113.5718210,22.9038641,0 
113.5718189,22.9038635,0 
113.5718170,22.9038630,0 
113.5718150,22.9038624,0 
113.5718131,22.9038619,0 
113.5718112,22.9038613,0 
113.5718093,22.9038607,0 
113.5718074,22.9038602,0 
113.5718056,22.9038596,0 
113.5718038,22.9038590,0 
113.5718020,22.9038584,0 
113.5718002,22.9038579,0 
113.5717985,22.9038573,0 
113.5717968,22.9038567,0 
113.5717952,22.9038561,0 
113.5717936,22.9038555,0 
113.5717920,22.9038550,0 
113.5717904,22.9038544,0 
113.5717889,22.9038538,0 
113.5717874,22.9038532,0 
113.5717859,22.9038526,0 
113.5717845,22.9038521,0 
113.5717831,22.9038515,0 
113.5717818,22.9038509,0 
113.5717805,22.9038504,0 
113.5717792,22.9038498,0 
113.5717780,22.9038492,0 
113.5717768,22.9038487,0 
113.5717756,22.9038481,0 
113.5717745,22.9038475,0 
113.5717735,22.9038470,0 
113.5717724,22.9038464,0 
113.5717715,22.9038459,0 
113.5717705,22.9038453,0 
113.5717696,22.9038448,0 
113.5717688,22.9038443,0 
113.5717680,22.9038437,0 
113.5717672,22.9038432,0 
113.5717665,22.9038427,0 
113.5717658,22.9038422,0 
113.5717652,22.9038417,0 
113.5717646,22.9038412,0 
113.5717640,22.9038407,0 
113.5717635,22.9038402,0 
113.5717631,22.9038397,0 
113.5717627,22.9038393,0 
113.5717623,22.9038388,0 
113.5717620,22.9038383,0 
113.5717618,22.9038379,0 
113.5717615,22.9038374,0 
113.5717614,22.9038370,0 
113.5717612,22.9038366,0 
113.5717612,22.9038362,0 
113.5717611,22.9038357,0 
113.5717612,22.9038353,0 
113.5717612,22.9038350,0 
</coordinates>
</LineString>
</Placemark>
</Folder>