<Folder>
<name>SV 16 208.569907 14.878229</name>
<visibility>1</visibility>
<Placemark>
<name>circle</name>
<visibility>1</visibility>
<Style>
<geomColor></geomColor>
<geomScale>2</geomScale></Style>
<LineString>
<coordinates>
113.5719815,22.9036995,0 
113.5719818,22.9036993,0 
113.5719822,22.9036992,0 
113.5719826,22.9036990,0 
113.5719831,22.9036990,0 
113.5719835,22.9036989,0 
113.5719839,22.9036989,0 
113.5719844,22.9036989,0 
113.5719849,22.9036989,0 
113.5719854,22.9036989,0 
113.5719859,22.9036990,0 
113.5719864,22.9036991,0 
113.5719870,22.9036993,0 
113.5719875,22.9036994,0 
113.5719881,22.9036996,0 
113.5719887,22.9036998,0 
113.5719893,22.9037001,0 
113.5719899,22.9037003,0 
113.5719905,22.9037006,0 
113.5719911,22.9037010,0 
113.5719918,22.9037013,0 
113.5719925,22.9037017,0 
113.5719931,22.9037021,0 
113.5719938,22.9037025,0 
113.5719945,22.9037030,0 
113.5719952,22.9037035,0 
113.5719959,22.9037040,0 
113.5719966,22.9037045,0 
113.5719974,22.9037051,0 
113.5719981,22.9037057,0 
113.5719988,22.9037063,0 
113.5719996,22.9037069,0 
113.5720004,22.9037076,0 
113.5720011,22.9037083,0 
113.5720019,22.9037090,0 
113.5720027,22.9037097,0 
113.5720035,22.9037105,0 
113.5720043,22.9037113,0 
113.5720051,22.9037121,0 
113.5720059,22.9037129,0 
113.5720068,22.9037137,0 
113.5720076,22.9037146,0 
113.5720084,22.9037155,0 
113.5720093,22.9037164,0 
113.5720101,22.9037173,0 
113.5720109,22.9037183,0 
113.5720118,22.9037192,0 
113.5720126,22.9037202,0 
113.5720135,22.9037212,0 
113.5720143,22.9037222,0 
113.5720152,22.9037233,0 
113.5720161,22.9037243,0 
113.5720169,22.9037254,0 
113.5720178,22.9037265,0 
113.5720186,22.9037276,0 
113.5720195,22.9037287,0 
113.5720204,22.9037299,0 
113.5720212,22.9037310,0 
113.5720221,22.9037322,0 
113.5720229,22.9037333,0 
113.5720238,22.9037345,0 
113.5720246,22.9037357,0 
113.5720255,22.9037369,0 
113.5720263,22.9037382,0 
113.5720272,22.9037394,0 
113.5720280,22.9037407,0 
113.5720289,22.9037419,0 
113.5720297,22.9037432,0 
113.5720305,22.9037444,0 
113.5720313,22.9037457,0 
113.5720321,22.9037470,0 
113.5720330,22.9037483,0 
113.5720338,22.9037496,0 
113.5720346,22.9037509,0 
113.5720353,22.9037522,0 
113.5720361,22.9037535,0 
113.5720369,22.9037548,0 
113.5720377,22.9037562,0 
113.5720384,22.9037575,0 
113.5720392,22.9037588,0 
113.5720399,22.9037601,0 
113.5720406,22.9037615,0 
113.5720414,22.9037628,0 
113.5720421,22.9037641,0 
113.5720428,22.9037655,0 
113.5720435,22.9037668,0 
113.5720441,22.9037681,0 
113.5720448,22.9037694,0 
113.5720455,22.9037708,0 
113.5720461,22.9037721,0 
113.5720467,22.9037734,0 
113.5720474,22.9037747,0 
113.5720480,22.9037760,0 
113.5720486,22.9037773,0 
113.5720492,22.9037786,0 
113.5720497,22.9037798,0 
113.5720503,22.9037811,0 
113.5720508,22.9037824,0 
113.5720513,22.9037836,0 
113.5720519,22.9037849,0 
113.5720524,22.9037861,0 
113.5720528,22.9037874,0 
113.5720533,22.9037886,0 
113.5720538,22.9037898,0 
113.5720542,22.9037910,0 
113.5720546,22.9037921,0 
113.5720550,22.9037933,0 
113.5720554,22.9037945,0 
113.5720558,22.9037956,0 
113.5720561,22.9037967,0 
113.5720565,22.9037978,0 
113.5720568,22.9037989,0 
113.5720571,22.9038000,0 
113.5720574,22.9038011,0 
113.5720577,22.9038021,0 
113.5720579,22.9038031,0 
113.5720582,22.9038041,0 
113.5720584,22.9038051,0 
113.5720586,22.9038061,0 
113.5720588,22.9038071,0 
113.5720590,22.9038080,0 
113.5720591,22.9038089,0 
113.5720592,22.9038098,0 
113.5720594,22.9038107,0 
113.5720595,22.9038115,0 
113.5720595,22.9038123,0 
113.5720596,22.9038132,0 
113.5720596,22.9038139,0 
113.5720597,22.9038147,0 
113.5720597,22.9038154,0 
113.5720597,22.9038162,0 
113.5720596,22.9038168,0 
113.5720596,22.9038175,0 
113.5720595,22.9038182,0 
113.5720595,22.9038188,0 
113.5720594,22.9038194,0 
113.5720592,22.9038199,0 
113.5720591,22.9038205,0 
113.5720589,22.9038210,0 
113.5720588,22.9038215,0 
113.5720586,22.9038220,0 
113.5720584,22.9038224,0 
113.5720582,22.9038228,0 
113.5720579,22.9038232,0 
113.5720577,22.9038236,0 
113.5720574,22.9038239,0 
113.5720571,22.9038242,0 
113.5720568,22.9038245,0 
113.5720565,22.9038247,0 
113.5720561,22.9038250,0 
113.5720558,22.9038252,0 
113.5720554,22.9038253,0 
113.5720550,22.9038255,0 
113.5720546,22.9038256,0 
113.5720542,22.9038257,0 
113.5720537,22.9038257,0 
113.5720533,22.9038258,0 
113.5720528,22.9038258,0 
113.5720523,22.9038257,0 
113.5720518,22.9038257,0 
113.5720513,22.9038256,0 
113.5720508,22.9038255,0 
113.5720502,22.9038254,0 
113.5720497,22.9038252,0 
113.5720491,22.9038250,0 
113.5720485,22.9038248,0 
113.5720479,22.9038246,0 
113.5720473,22.9038243,0 
113.5720467,22.9038240,0 
113.5720461,22.9038237,0 
113.5720454,22.9038233,0 
113.5720448,22.9038229,0 
113.5720441,22.9038225,0 
113.5720434,22.9038221,0 
113.5720427,22.9038216,0 
113.5720420,22.9038211,0 
113.5720413,22.9038206,0 
113.5720406,22.9038201,0 
113.5720399,22.9038195,0 
113.5720391,22.9038189,0 
113.5720384,22.9038183,0 
113.5720376,22.9038177,0 
113.5720368,22.9038170,0 
113.5720361,22.9038163,0 
113.5720353,22.9038156,0 
113.5720345,22.9038149,0 
113.5720337,22.9038141,0 
113.5720329,22.9038134,0 
113.5720321,22.9038126,0 
113.5720313,22.9038117,0 
113.5720304,22.9038109,0 
113.5720296,22.9038100,0 
113.5720288,22.9038091,0 
113.5720280,22.9038082,0 
113.5720271,22.9038073,0 
113.5720263,22.9038064,0 
113.5720254,22.9038054,0 
113.5720246,22.9038044,0 
113.5720237,22.9038034,0 
113.5720229,22.9038024,0 
113.5720220,22.9038013,0 
113.5720212,22.9038003,0 
113.5720203,22.9037992,0 
113.5720194,22.9037981,0 
113.5720186,22.9037970,0 
113.5720177,22.9037959,0 
113.5720169,22.9037948,0 
113.5720160,22.9037936,0 
113.5720151,22.9037925,0 
113.5720143,22.9037913,0 
113.5720134,22.9037901,0 
113.5720126,22.9037889,0 
113.5720117,22.9037877,0 
113.5720109,22.9037865,0 
113.5720100,22.9037852,0 
113.5720092,22.9037840,0 
113.5720084,22.9037827,0 
113.5720075,22.9037815,0 
113.5720067,22.9037802,0 
113.5720059,22.9037789,0 
113.5720051,22.9037776,0 
113.5720043,22.9037763,0 
113.5720035,22.9037750,0 
113.5720027,22.9037737,0 
113.5720019,22.9037724,0 
113.5720011,22.9037711,0 
113.5720003,22.9037698,0 
113.5719995,22.9037685,0 
113.5719988,22.9037671,0 
113.5719980,22.9037658,0 
113.5719973,22.9037645,0 
113.5719966,22.9037632,0 
113.5719959,22.9037618,0 
113.5719951,22.9037605,0 
113.5719944,22.9037592,0 
113.5719937,22.9037578,0 
113.5719931,22.9037565,0 
113.5719924,22.9037552,0 
113.5719917,22.9037539,0 
113.5719911,22.9037526,0 
113.5719905,22.9037513,0 
113.5719898,22.9037499,0 
113.5719892,22.9037486,0 
113.5719886,22.9037473,0 
113.5719881,22.9037461,0 
113.5719875,22.9037448,0 
113.5719869,22.9037435,0 
113.5719864,22.9037422,0 
113.5719859,22.9037410,0 
113.5719854,22.9037397,0 
113.5719849,22.9037385,0 
113.5719844,22.9037373,0 
113.5719839,22.9037361,0 
113.5719835,22.9037349,0 
113.5719830,22.9037337,0 
113.5719826,22.9037325,0 
113.5719822,22.9037313,0 
113.5719818,22.9037302,0 
113.5719814,22.9037290,0 
113.5719811,22.9037279,0 
113.5719807,22.9037268,0 
113.5719804,22.9037257,0 
113.5719801,22.9037246,0 
113.5719798,22.9037236,0 
113.5719795,22.9037225,0 
113.5719793,22.9037215,0 
113.5719790,22.9037205,0 
113.5719788,22.9037195,0 
113.5719786,22.9037185,0 
113.5719784,22.9037176,0 
113.5719783,22.9037166,0 
113.5719781,22.9037157,0 
113.5719780,22.9037148,0 
113.5719779,22.9037140,0 
113.5719778,22.9037131,0 
113.5719777,22.9037123,0 
113.5719776,22.9037115,0 
113.5719776,22.9037107,0 
113.5719775,22.9037099,0 
113.5719775,22.9037092,0 
113.5719775,22.9037085,0 
113.5719776,22.9037078,0 
113.5719776,22.9037071,0 
113.5719777,22.9037065,0 
113.5719778,22.9037059,0 
113.5719779,22.9037053,0 
113.5719780,22.9037047,0 
113.5719781,22.9037041,0 
113.5719783,22.9037036,0 
113.5719784,22.9037031,0 
113.5719786,22.9037027,0 
113.5719788,22.9037022,0 
113.5719791,22.9037018,0 
113.5719793,22.9037014,0 
113.5719796,22.9037011,0 
113.5719798,22.9037007,0 
113.5719801,22.9037004,0 
113.5719804,22.9037001,0 
113.5719808,22.9036999,0 
113.5719811,22.9036997,0 
113.5719815,22.9036995,0 
</coordinates>
</LineString>
</Placemark>
</Folder>