<Folder>
<name>SV 25 252.480055 8.712837</name>
<visibility>1</visibility>
<Placemark>
<name>circle</name>
<visibility>1</visibility>
<Style>
<geomColor>FFFF007A</geomColor>
<geomScale>2</geomScale></Style>
<LineString>
<coordinates>
113.5716660,22.9037738,0 
113.5716662,22.9037734,0 
113.5716664,22.9037730,0 
113.5716667,22.9037726,0 
113.5716671,22.9037722,0 
113.5716675,22.9037719,0 
113.5716680,22.9037716,0 
113.5716685,22.9037713,0 
113.5716692,22.9037710,0 
113.5716698,22.9037707,0 
113.5716706,22.9037705,0 
113.5716714,22.9037703,0 
113.5716723,22.9037701,0 
113.5716732,22.9037699,0 
113.5716742,22.9037697,0 
113.5716752,22.9037696,0 
113.5716763,22.9037695,0 
113.5716775,22.9037694,0 
113.5716787,22.9037693,0 
113.5716800,22.9037692,0 
113.5716813,22.9037692,0 
113.5716827,22.9037692,0 
113.5716842,22.9037692,0 
113.5716857,22.9037692,0 
113.5716873,22.9037693,0 
113.5716889,22.9037693,0 
113.5716906,22.9037694,0 
113.5716923,22.9037695,0 
113.5716941,22.9037696,0 
113.5716959,22.9037698,0 
113.5716978,22.9037699,0 
113.5716997,22.9037701,0 
113.5717017,22.9037703,0 
113.5717037,22.9037706,0 
113.5717058,22.9037708,0 
113.5717079,22.9037711,0 
113.5717101,22.9037714,0 
113.5717123,22.9037717,0 
113.5717145,22.9037720,0 
113.5717168,22.9037723,0 
113.5717191,22.9037727,0 
113.5717215,22.9037731,0 
113.5717239,22.9037735,0 
113.5717264,22.9037739,0 
113.5717289,22.9037743,0 
113.5717314,22.9037748,0 
113.5717340,22.9037753,0 
113.5717366,22.9037758,0 
113.5717392,22.9037763,0 
113.5717418,22.9037768,0 
113.5717445,22.9037774,0 
113.5717473,22.9037779,0 
113.5717500,22.9037785,0 
113.5717528,22.9037791,0 
113.5717556,22.9037797,0 
113.5717584,22.9037803,0 
113.5717612,22.9037810,0 
113.5717641,22.9037816,0 
113.5717670,22.9037823,0 
113.5717699,22.9037830,0 
113.5717728,22.9037837,0 
113.5717758,22.9037844,0 
113.5717787,22.9037851,0 
113.5717817,22.9037859,0 
113.5717847,22.9037866,0 
113.5717877,22.9037874,0 
113.5717907,22.9037882,0 
113.5717937,22.9037890,0 
113.5717967,22.9037898,0 
113.5717998,22.9037906,0 
113.5718028,22.9037914,0 
113.5718059,22.9037923,0 
113.5718089,22.9037931,0 
113.5718119,22.9037940,0 
113.5718150,22.9037949,0 
113.5718180,22.9037957,0 
113.5718211,22.9037966,0 
113.5718241,22.9037975,0 
113.5718271,22.9037984,0 
113.5718301,22.9037993,0 
113.5718331,22.9038003,0 
113.5718361,22.9038012,0 
113.5718391,22.9038021,0 
113.5718421,22.9038031,0 
113.5718451,22.9038040,0 
113.5718480,22.9038050,0 
113.5718510,22.9038059,0 
113.5718539,22.9038069,0 
113.5718568,22.9038078,0 
113.5718597,22.9038088,0 
113.5718625,22.9038098,0 
113.5718654,22.9038107,0 
113.5718682,22.9038117,0 
113.5718709,22.9038127,0 
113.5718737,22.9038137,0 
113.5718764,22.9038146,0 
113.5718791,22.9038156,0 
113.5718818,22.9038166,0 
113.5718845,22.9038176,0 
113.5718871,22.9038186,0 
113.5718896,22.9038195,0 
113.5718922,22.9038205,0 
113.5718947,22.9038215,0 
113.5718972,22.9038225,0 
113.5718996,22.9038234,0 
113.5719020,22.9038244,0 
113.5719043,22.9038254,0 
113.5719066,22.9038263,0 
113.5719089,22.9038273,0 
113.5719111,22.9038282,0 
113.5719133,22.9038292,0 
113.5719155,22.9038301,0 
113.5719176,22.9038310,0 
113.5719196,22.9038320,0 
113.5719216,22.9038329,0 
113.5719236,22.9038338,0 
113.5719255,22.9038347,0 
113.5719273,22.9038356,0 
113.5719291,22.9038365,0 
113.5719309,22.9038374,0 
113.5719325,22.9038382,0 
113.5719342,22.9038391,0 
113.5719358,22.9038399,0 
113.5719373,22.9038408,0 
113.5719388,22.9038416,0 
113.5719402,22.9038424,0 
113.5719416,22.9038432,0 
113.5719429,22.9038440,0 
113.5719441,22.9038448,0 
113.5719453,22.9038455,0 
113.5719465,22.9038463,0 
113.5719475,22.9038470,0 
113.5719485,22.9038478,0 
113.5719495,22.9038485,0 
113.5719504,22.9038492,0 
113.5719512,22.9038499,0 
113.5719520,22.9038505,0 
113.5719527,22.9038512,0 
113.5719533,22.9038518,0 
113.5719539,22.9038524,0 
113.5719545,22.9038530,0 
113.5719549,22.9038536,0 
113.5719553,22.9038542,0 
113.5719556,22.9038548,0 
113.5719559,22.9038553,0 
113.5719561,22.9038558,0 
113.5719563,22.9038563,0 
113.5719563,22.9038568,0 
113.5719563,22.9038573,0 
113.5719563,22.9038577,0 
113.5719562,22.9038582,0 
113.5719560,22.9038586,0 
113.5719558,22.9038590,0 
113.5719555,22.9038594,0 
113.5719551,22.9038597,0 
113.5719547,22.9038601,0 
113.5719542,22.9038604,0 
113.5719536,22.9038607,0 
113.5719530,22.9038610,0 
113.5719523,22.9038612,0 
113.5719516,22.9038615,0 
113.5719508,22.9038617,0 
113.5719499,22.9038619,0 
113.5719490,22.9038621,0 
113.5719480,22.9038622,0 
113.5719469,22.9038624,0 
113.5719458,22.9038625,0 
113.5719447,22.9038626,0 
113.5719434,22.9038627,0 
113.5719422,22.9038627,0 
113.5719408,22.9038628,0 
113.5719394,22.9038628,0 
113.5719380,22.9038628,0 
113.5719365,22.9038628,0 
113.5719349,22.9038627,0 
113.5719333,22.9038626,0 
113.5719316,22.9038626,0 
113.5719299,22.9038625,0 
113.5719281,22.9038623,0 
113.5719263,22.9038622,0 
113.5719244,22.9038620,0 
113.5719225,22.9038618,0 
113.5719205,22.9038616,0 
113.5719185,22.9038614,0 
113.5719164,22.9038612,0 
113.5719143,22.9038609,0 
113.5719121,22.9038606,0 
113.5719099,22.9038603,0 
113.5719076,22.9038600,0 
113.5719053,22.9038596,0 
113.5719030,22.9038593,0 
113.5719006,22.9038589,0 
113.5718982,22.9038585,0 
113.5718958,22.9038581,0 
113.5718933,22.9038576,0 
113.5718908,22.9038572,0 
113.5718882,22.9038567,0 
113.5718856,22.9038562,0 
113.5718830,22.9038557,0 
113.5718803,22.9038552,0 
113.5718776,22.9038546,0 
113.5718749,22.9038541,0 
113.5718722,22.9038535,0 
113.5718694,22.9038529,0 
113.5718666,22.9038523,0 
113.5718638,22.9038516,0 
113.5718609,22.9038510,0 
113.5718580,22.9038503,0 
113.5718552,22.9038497,0 
113.5718522,22.9038490,0 
113.5718493,22.9038483,0 
113.5718464,22.9038476,0 
113.5718434,22.9038468,0 
113.5718404,22.9038461,0 
113.5718375,22.9038453,0 
113.5718345,22.9038446,0 
113.5718315,22.9038438,0 
113.5718284,22.9038430,0 
113.5718254,22.9038422,0 
113.5718224,22.9038414,0 
113.5718193,22.9038405,0 
113.5718163,22.9038397,0 
113.5718133,22.9038388,0 
113.5718102,22.9038380,0 
113.5718072,22.9038371,0 
113.5718041,22.9038362,0 
113.5718011,22.9038353,0 
113.5717981,22.9038344,0 
113.5717950,22.9038335,0 
113.5717920,22.9038326,0 
113.5717890,22.9038317,0 
113.5717860,22.9038308,0 
113.5717830,22.9038298,0 
113.5717800,22.9038289,0 
113.5717771,22.9038280,0 
113.5717741,22.9038270,0 
113.5717712,22.9038261,0 
113.5717683,22.9038251,0 
113.5717654,22.9038241,0 
113.5717625,22.9038232,0 
113.5717596,22.9038222,0 
113.5717568,22.9038212,0 
113.5717540,22.9038203,0 
113.5717512,22.9038193,0 
113.5717485,22.9038183,0 
113.5717457,22.9038173,0 
113.5717430,22.9038163,0 
113.5717403,22.9038154,0 
113.5717377,22.9038144,0 
113.5717351,22.9038134,0 
113.5717325,22.9038124,0 
113.5717300,22.9038114,0 
113.5717275,22.9038105,0 
113.5717250,22.9038095,0 
113.5717226,22.9038085,0 
113.5717202,22.9038076,0 
113.5717178,22.9038066,0 
113.5717155,22.9038056,0 
113.5717132,22.9038047,0 
113.5717110,22.9038037,0 
113.5717088,22.9038028,0 
113.5717067,22.9038019,0 
113.5717046,22.9038009,0 
113.5717026,22.9038000,0 
113.5717006,22.9037991,0 
113.5716986,22.9037982,0 
113.5716967,22.9037973,0 
113.5716949,22.9037964,0 
113.5716931,22.9037955,0 
113.5716913,22.9037946,0 
113.5716896,22.9037937,0 
113.5716880,22.9037929,0 
113.5716864,22.9037920,0 
113.5716848,22.9037912,0 
113.5716834,22.9037904,0 
113.5716819,22.9037896,0 
113.5716806,22.9037888,0 
113.5716793,22.9037880,0 
113.5716780,22.9037872,0 
113.5716768,22.9037864,0 
113.5716757,22.9037857,0 
113.5716746,22.9037849,0 
113.5716736,22.9037842,0 
113.5716727,22.9037835,0 
113.5716718,22.9037828,0 
113.5716709,22.9037821,0 
113.5716702,22.9037814,0 
113.5716695,22.9037808,0 
113.5716688,22.9037801,0 
113.5716682,22.9037795,0 
113.5716677,22.9037789,0 
113.5716672,22.9037783,0 
113.5716669,22.9037778,0 
113.5716665,22.9037772,0 
113.5716662,22.9037767,0 
113.5716660,22.9037761,0 
113.5716659,22.9037756,0 
113.5716658,22.9037751,0 
113.5716658,22.9037747,0 
113.5716659,22.9037742,0 
113.5716660,22.9037738,0 
</coordinates>
</LineString>
</Placemark>
</Folder>