<Folder>
<name>SV 16 207.519112 9.289907</name>
<visibility>1</visibility>
<Placemark>
<name>circle</name>
<visibility>1</visibility>
<Style>
<geomColor></geomColor>
<geomScale>2</geomScale></Style>
<LineString>
<coordinates>
113.5718914,22.9035312,0 
113.5718919,22.9035310,0 
113.5718924,22.9035308,0 
113.5718930,22.9035308,0 
113.5718936,22.9035307,0 
113.5718942,22.9035307,0 
113.5718948,22.9035308,0 
113.5718955,22.9035310,0 
113.5718962,22.9035312,0 
113.5718969,22.9035314,0 
113.5718977,22.9035317,0 
113.5718985,22.9035321,0 
113.5718993,22.9035325,0 
113.5719002,22.9035330,0 
113.5719011,22.9035336,0 
113.5719020,22.9035341,0 
113.5719029,22.9035348,0 
113.5719039,22.9035355,0 
113.5719049,22.9035363,0 
113.5719059,22.9035371,0 
113.5719069,22.9035379,0 
113.5719080,22.9035389,0 
113.5719091,22.9035398,0 
113.5719102,22.9035409,0 
113.5719114,22.9035419,0 
113.5719125,22.9035431,0 
113.5719137,22.9035442,0 
113.5719149,22.9035455,0 
113.5719162,22.9035468,0 
113.5719174,22.9035481,0 
113.5719187,22.9035495,0 
113.5719200,22.9035509,0 
113.5719213,22.9035524,0 
113.5719226,22.9035539,0 
113.5719240,22.9035555,0 
113.5719254,22.9035571,0 
113.5719267,22.9035588,0 
113.5719281,22.9035605,0 
113.5719296,22.9035622,0 
113.5719310,22.9035640,0 
113.5719324,22.9035659,0 
113.5719339,22.9035678,0 
113.5719354,22.9035697,0 
113.5719369,22.9035716,0 
113.5719384,22.9035736,0 
113.5719399,22.9035757,0 
113.5719414,22.9035778,0 
113.5719429,22.9035799,0 
113.5719445,22.9035820,0 
113.5719460,22.9035842,0 
113.5719476,22.9035864,0 
113.5719492,22.9035887,0 
113.5719507,22.9035909,0 
113.5719523,22.9035933,0 
113.5719539,22.9035956,0 
113.5719555,22.9035980,0 
113.5719571,22.9036004,0 
113.5719587,22.9036028,0 
113.5719603,22.9036052,0 
113.5719619,22.9036077,0 
113.5719635,22.9036102,0 
113.5719651,22.9036127,0 
113.5719667,22.9036152,0 
113.5719683,22.9036178,0 
113.5719699,22.9036204,0 
113.5719715,22.9036230,0 
113.5719731,22.9036256,0 
113.5719747,22.9036282,0 
113.5719763,22.9036308,0 
113.5719779,22.9036335,0 
113.5719794,22.9036362,0 
113.5719810,22.9036388,0 
113.5719826,22.9036415,0 
113.5719841,22.9036442,0 
113.5719857,22.9036469,0 
113.5719872,22.9036496,0 
113.5719887,22.9036523,0 
113.5719903,22.9036551,0 
113.5719918,22.9036578,0 
113.5719932,22.9036605,0 
113.5719947,22.9036632,0 
113.5719962,22.9036659,0 
113.5719976,22.9036686,0 
113.5719991,22.9036713,0 
113.5720005,22.9036741,0 
113.5720019,22.9036768,0 
113.5720033,22.9036794,0 
113.5720047,22.9036821,0 
113.5720060,22.9036848,0 
113.5720074,22.9036875,0 
113.5720087,22.9036901,0 
113.5720100,22.9036928,0 
113.5720113,22.9036954,0 
113.5720125,22.9036980,0 
113.5720138,22.9037006,0 
113.5720150,22.9037032,0 
113.5720162,22.9037057,0 
113.5720174,22.9037083,0 
113.5720185,22.9037108,0 
113.5720196,22.9037133,0 
113.5720207,22.9037157,0 
113.5720218,22.9037182,0 
113.5720229,22.9037206,0 
113.5720239,22.9037230,0 
113.5720249,22.9037254,0 
113.5720259,22.9037277,0 
113.5720268,22.9037300,0 
113.5720277,22.9037323,0 
113.5720286,22.9037346,0 
113.5720295,22.9037368,0 
113.5720303,22.9037390,0 
113.5720311,22.9037411,0 
113.5720319,22.9037432,0 
113.5720327,22.9037453,0 
113.5720334,22.9037473,0 
113.5720341,22.9037493,0 
113.5720347,22.9037513,0 
113.5720353,22.9037532,0 
113.5720359,22.9037551,0 
113.5720365,22.9037569,0 
113.5720370,22.9037587,0 
113.5720375,22.9037605,0 
113.5720380,22.9037622,0 
113.5720384,22.9037639,0 
113.5720388,22.9037655,0 
113.5720392,22.9037671,0 
113.5720396,22.9037686,0 
113.5720399,22.9037701,0 
113.5720401,22.9037715,0 
113.5720404,22.9037729,0 
113.5720406,22.9037742,0 
113.5720408,22.9037755,0 
113.5720409,22.9037767,0 
113.5720410,22.9037779,0 
113.5720411,22.9037791,0 
113.5720411,22.9037801,0 
113.5720411,22.9037812,0 
113.5720411,22.9037821,0 
113.5720410,22.9037831,0 
113.5720409,22.9037839,0 
113.5720408,22.9037847,0 
113.5720406,22.9037855,0 
113.5720404,22.9037862,0 
113.5720402,22.9037868,0 
113.5720400,22.9037874,0 
113.5720397,22.9037880,0 
113.5720393,22.9037885,0 
113.5720390,22.9037889,0 
113.5720386,22.9037893,0 
113.5720381,22.9037896,0 
113.5720377,22.9037898,0 
113.5720372,22.9037900,0 
113.5720367,22.9037902,0 
113.5720361,22.9037903,0 
113.5720355,22.9037903,0 
113.5720349,22.9037903,0 
113.5720343,22.9037902,0 
113.5720336,22.9037900,0 
113.5720329,22.9037898,0 
113.5720321,22.9037896,0 
113.5720314,22.9037893,0 
113.5720306,22.9037889,0 
113.5720298,22.9037885,0 
113.5720289,22.9037880,0 
113.5720280,22.9037874,0 
113.5720271,22.9037869,0 
113.5720262,22.9037862,0 
113.5720252,22.9037855,0 
113.5720242,22.9037847,0 
113.5720232,22.9037839,0 
113.5720221,22.9037831,0 
113.5720211,22.9037821,0 
113.5720200,22.9037812,0 
113.5720189,22.9037801,0 
113.5720177,22.9037791,0 
113.5720166,22.9037779,0 
113.5720154,22.9037768,0 
113.5720142,22.9037755,0 
113.5720129,22.9037742,0 
113.5720117,22.9037729,0 
113.5720104,22.9037715,0 
113.5720091,22.9037701,0 
113.5720078,22.9037686,0 
113.5720065,22.9037671,0 
113.5720051,22.9037655,0 
113.5720037,22.9037639,0 
113.5720023,22.9037622,0 
113.5720009,22.9037605,0 
113.5719995,22.9037588,0 
113.5719981,22.9037570,0 
113.5719966,22.9037551,0 
113.5719952,22.9037532,0 
113.5719937,22.9037513,0 
113.5719922,22.9037494,0 
113.5719907,22.9037474,0 
113.5719892,22.9037453,0 
113.5719877,22.9037432,0 
113.5719861,22.9037411,0 
113.5719846,22.9037390,0 
113.5719830,22.9037368,0 
113.5719815,22.9037346,0 
113.5719799,22.9037323,0 
113.5719783,22.9037301,0 
113.5719768,22.9037277,0 
113.5719752,22.9037254,0 
113.5719736,22.9037230,0 
113.5719720,22.9037206,0 
113.5719704,22.9037182,0 
113.5719688,22.9037158,0 
113.5719672,22.9037133,0 
113.5719656,22.9037108,0 
113.5719640,22.9037083,0 
113.5719624,22.9037058,0 
113.5719608,22.9037032,0 
113.5719592,22.9037006,0 
113.5719576,22.9036980,0 
113.5719560,22.9036954,0 
113.5719544,22.9036928,0 
113.5719528,22.9036902,0 
113.5719512,22.9036875,0 
113.5719497,22.9036848,0 
113.5719481,22.9036822,0 
113.5719465,22.9036795,0 
113.5719450,22.9036768,0 
113.5719434,22.9036741,0 
113.5719419,22.9036714,0 
113.5719404,22.9036687,0 
113.5719388,22.9036660,0 
113.5719373,22.9036632,0 
113.5719358,22.9036605,0 
113.5719344,22.9036578,0 
113.5719329,22.9036551,0 
113.5719314,22.9036524,0 
113.5719300,22.9036497,0 
113.5719286,22.9036470,0 
113.5719272,22.9036443,0 
113.5719258,22.9036416,0 
113.5719244,22.9036389,0 
113.5719230,22.9036362,0 
113.5719217,22.9036335,0 
113.5719204,22.9036309,0 
113.5719191,22.9036282,0 
113.5719178,22.9036256,0 
113.5719165,22.9036230,0 
113.5719153,22.9036204,0 
113.5719141,22.9036178,0 
113.5719129,22.9036153,0 
113.5719117,22.9036127,0 
113.5719106,22.9036102,0 
113.5719094,22.9036077,0 
113.5719083,22.9036053,0 
113.5719073,22.9036028,0 
113.5719062,22.9036004,0 
113.5719052,22.9035980,0 
113.5719042,22.9035956,0 
113.5719032,22.9035933,0 
113.5719023,22.9035910,0 
113.5719014,22.9035887,0 
113.5719005,22.9035864,0 
113.5718996,22.9035842,0 
113.5718988,22.9035821,0 
113.5718980,22.9035799,0 
113.5718972,22.9035778,0 
113.5718964,22.9035757,0 
113.5718957,22.9035737,0 
113.5718950,22.9035717,0 
113.5718944,22.9035697,0 
113.5718937,22.9035678,0 
113.5718931,22.9035659,0 
113.5718926,22.9035641,0 
113.5718920,22.9035623,0 
113.5718915,22.9035605,0 
113.5718911,22.9035588,0 
113.5718906,22.9035571,0 
113.5718902,22.9035555,0 
113.5718899,22.9035539,0 
113.5718895,22.9035524,0 
113.5718892,22.9035509,0 
113.5718890,22.9035495,0 
113.5718887,22.9035481,0 
113.5718885,22.9035468,0 
113.5718883,22.9035455,0 
113.5718882,22.9035443,0 
113.5718881,22.9035431,0 
113.5718880,22.9035419,0 
113.5718880,22.9035409,0 
113.5718880,22.9035398,0 
113.5718880,22.9035389,0 
113.5718881,22.9035379,0 
113.5718882,22.9035371,0 
113.5718883,22.9035363,0 
113.5718885,22.9035355,0 
113.5718886,22.9035348,0 
113.5718889,22.9035342,0 
113.5718891,22.9035336,0 
113.5718894,22.9035330,0 
113.5718898,22.9035325,0 
113.5718901,22.9035321,0 
113.5718905,22.9035317,0 
113.5718909,22.9035314,0 
113.5718914,22.9035312,0 
</coordinates>
</LineString>
</Placemark>
</Folder>