<Folder>
<name>SV  5 273.302167 5.181985</name>
<visibility>1</visibility>
<Placemark>
<name>circle</name>
<visibility>1</visibility>
<Style>
<geomColor>FF006400</geomColor>
<geomScale>2</geomScale></Style>
<LineString>
<coordinates>
113.5711074,22.9039528,0 
113.5711074,22.9039521,0 
113.5711077,22.9039513,0 
113.5711080,22.9039506,0 
113.5711086,22.9039499,0 
113.5711094,22.9039492,0 
113.5711103,22.9039484,0 
113.5711114,22.9039477,0 
113.5711126,22.9039469,0 
113.5711141,22.9039462,0 
113.5711157,22.9039454,0 
113.5711174,22.9039446,0 
113.5711194,22.9039439,0 
113.5711215,22.9039431,0 
113.5711238,22.9039423,0 
113.5711262,22.9039415,0 
113.5711289,22.9039407,0 
113.5711316,22.9039399,0 
113.5711346,22.9039391,0 
113.5711377,22.9039383,0 
113.5711410,22.9039375,0 
113.5711444,22.9039366,0 
113.5711480,22.9039358,0 
113.5711517,22.9039350,0 
113.5711556,22.9039342,0 
113.5711597,22.9039334,0 
113.5711639,22.9039325,0 
113.5711682,22.9039317,0 
113.5711728,22.9039309,0 
113.5711774,22.9039301,0 
113.5711822,22.9039292,0 
113.5711871,22.9039284,0 
113.5711922,22.9039276,0 
113.5711974,22.9039268,0 
113.5712028,22.9039260,0 
113.5712082,22.9039252,0 
113.5712139,22.9039243,0 
113.5712196,22.9039235,0 
113.5712255,22.9039227,0 
113.5712314,22.9039219,0 
113.5712376,22.9039211,0 
113.5712438,22.9039204,0 
113.5712501,22.9039196,0 
113.5712566,22.9039188,0 
113.5712631,22.9039180,0 
113.5712698,22.9039172,0 
113.5712766,22.9039165,0 
113.5712834,22.9039157,0 
113.5712904,22.9039150,0 
113.5712975,22.9039142,0 
113.5713046,22.9039135,0 
113.5713119,22.9039128,0 
113.5713192,22.9039121,0 
113.5713266,22.9039113,0 
113.5713341,22.9039106,0 
113.5713416,22.9039099,0 
113.5713493,22.9039093,0 
113.5713570,22.9039086,0 
113.5713647,22.9039079,0 
113.5713726,22.9039073,0 
113.5713805,22.9039066,0 
113.5713884,22.9039060,0 
113.5713964,22.9039054,0 
113.5714044,22.9039048,0 
113.5714125,22.9039042,0 
113.5714207,22.9039036,0 
113.5714288,22.9039030,0 
113.5714370,22.9039025,0 
113.5714452,22.9039019,0 
113.5714535,22.9039014,0 
113.5714618,22.9039009,0 
113.5714701,22.9039004,0 
113.5714784,22.9038999,0 
113.5714867,22.9038994,0 
113.5714950,22.9038989,0 
113.5715034,22.9038985,0 
113.5715117,22.9038980,0 
113.5715200,22.9038976,0 
113.5715284,22.9038972,0 
113.5715367,22.9038968,0 
113.5715450,22.9038965,0 
113.5715533,22.9038961,0 
113.5715615,22.9038957,0 
113.5715698,22.9038954,0 
113.5715780,22.9038951,0 
113.5715862,22.9038948,0 
113.5715943,22.9038945,0 
113.5716024,22.9038943,0 
113.5716105,22.9038940,0 
113.5716185,22.9038938,0 
113.5716265,22.9038936,0 
113.5716344,22.9038934,0 
113.5716422,22.9038932,0 
113.5716500,22.9038930,0 
113.5716578,22.9038929,0 
113.5716654,22.9038927,0 
113.5716730,22.9038926,0 
113.5716806,22.9038925,0 
113.5716880,22.9038924,0 
113.5716954,22.9038924,0 
113.5717027,22.9038923,0 
113.5717099,22.9038923,0 
113.5717170,22.9038923,0 
113.5717240,22.9038923,0 
113.5717309,22.9038923,0 
113.5717377,22.9038924,0 
113.5717444,22.9038924,0 
113.5717511,22.9038925,0 
113.5717576,22.9038926,0 
113.5717640,22.9038927,0 
113.5717702,22.9038928,0 
113.5717764,22.9038930,0 
113.5717825,22.9038931,0 
113.5717884,22.9038933,0 
113.5717942,22.9038935,0 
113.5717999,22.9038937,0 
113.5718054,22.9038939,0 
113.5718108,22.9038942,0 
113.5718161,22.9038944,0 
113.5718212,22.9038947,0 
113.5718262,22.9038950,0 
113.5718311,22.9038953,0 
113.5718358,22.9038957,0 
113.5718404,22.9038960,0 
113.5718448,22.9038963,0 
113.5718491,22.9038967,0 
113.5718533,22.9038971,0 
113.5718572,22.9038975,0 
113.5718611,22.9038979,0 
113.5718647,22.9038984,0 
113.5718682,22.9038988,0 
113.5718716,22.9038993,0 
113.5718748,22.9038997,0 
113.5718778,22.9039002,0 
113.5718807,22.9039007,0 
113.5718834,22.9039012,0 
113.5718859,22.9039018,0 
113.5718883,22.9039023,0 
113.5718905,22.9039029,0 
113.5718925,22.9039034,0 
113.5718944,22.9039040,0 
113.5718960,22.9039046,0 
113.5718976,22.9039052,0 
113.5718989,22.9039058,0 
113.5719001,22.9039065,0 
113.5719011,22.9039071,0 
113.5719019,22.9039077,0 
113.5719026,22.9039084,0 
113.5719031,22.9039091,0 
113.5719034,22.9039098,0 
113.5719035,22.9039104,0 
113.5719034,22.9039111,0 
113.5719032,22.9039118,0 
113.5719028,22.9039126,0 
113.5719023,22.9039133,0 
113.5719015,22.9039140,0 
113.5719006,22.9039148,0 
113.5718995,22.9039155,0 
113.5718983,22.9039163,0 
113.5718968,22.9039170,0 
113.5718952,22.9039178,0 
113.5718934,22.9039186,0 
113.5718915,22.9039193,0 
113.5718894,22.9039201,0 
113.5718871,22.9039209,0 
113.5718846,22.9039217,0 
113.5718820,22.9039225,0 
113.5718792,22.9039233,0 
113.5718763,22.9039241,0 
113.5718732,22.9039249,0 
113.5718699,22.9039257,0 
113.5718665,22.9039266,0 
113.5718629,22.9039274,0 
113.5718592,22.9039282,0 
113.5718553,22.9039290,0 
113.5718512,22.9039298,0 
113.5718470,22.9039307,0 
113.5718426,22.9039315,0 
113.5718381,22.9039323,0 
113.5718335,22.9039331,0 
113.5718287,22.9039340,0 
113.5718238,22.9039348,0 
113.5718187,22.9039356,0 
113.5718135,22.9039364,0 
113.5718081,22.9039372,0 
113.5718026,22.9039380,0 
113.5717970,22.9039388,0 
113.5717913,22.9039397,0 
113.5717854,22.9039405,0 
113.5717794,22.9039413,0 
113.5717733,22.9039421,0 
113.5717671,22.9039428,0 
113.5717608,22.9039436,0 
113.5717543,22.9039444,0 
113.5717478,22.9039452,0 
113.5717411,22.9039460,0 
113.5717343,22.9039467,0 
113.5717274,22.9039475,0 
113.5717205,22.9039482,0 
113.5717134,22.9039490,0 
113.5717063,22.9039497,0 
113.5716990,22.9039504,0 
113.5716917,22.9039511,0 
113.5716843,22.9039519,0 
113.5716768,22.9039526,0 
113.5716692,22.9039532,0 
113.5716616,22.9039539,0 
113.5716539,22.9039546,0 
113.5716461,22.9039553,0 
113.5716383,22.9039559,0 
113.5716304,22.9039566,0 
113.5716225,22.9039572,0 
113.5716145,22.9039578,0 
113.5716064,22.9039584,0 
113.5715984,22.9039590,0 
113.5715902,22.9039596,0 
113.5715821,22.9039602,0 
113.5715739,22.9039607,0 
113.5715656,22.9039613,0 
113.5715574,22.9039618,0 
113.5715491,22.9039623,0 
113.5715408,22.9039628,0 
113.5715325,22.9039633,0 
113.5715242,22.9039638,0 
113.5715159,22.9039643,0 
113.5715075,22.9039647,0 
113.5714992,22.9039652,0 
113.5714908,22.9039656,0 
113.5714825,22.9039660,0 
113.5714742,22.9039664,0 
113.5714659,22.9039667,0 
113.5714576,22.9039671,0 
113.5714493,22.9039675,0 
113.5714411,22.9039678,0 
113.5714329,22.9039681,0 
113.5714247,22.9039684,0 
113.5714166,22.9039687,0 
113.5714085,22.9039689,0 
113.5714004,22.9039692,0 
113.5713924,22.9039694,0 
113.5713844,22.9039696,0 
113.5713765,22.9039698,0 
113.5713686,22.9039700,0 
113.5713608,22.9039702,0 
113.5713531,22.9039703,0 
113.5713454,22.9039705,0 
113.5713378,22.9039706,0 
113.5713303,22.9039707,0 
113.5713229,22.9039707,0 
113.5713155,22.9039708,0 
113.5713082,22.9039709,0 
113.5713010,22.9039709,0 
113.5712939,22.9039709,0 
113.5712869,22.9039709,0 
113.5712800,22.9039709,0 
113.5712732,22.9039708,0 
113.5712664,22.9039708,0 
113.5712598,22.9039707,0 
113.5712533,22.9039706,0 
113.5712469,22.9039705,0 
113.5712406,22.9039704,0 
113.5712345,22.9039702,0 
113.5712284,22.9039701,0 
113.5712225,22.9039699,0 
113.5712167,22.9039697,0 
113.5712110,22.9039695,0 
113.5712055,22.9039693,0 
113.5712001,22.9039690,0 
113.5711948,22.9039687,0 
113.5711896,22.9039685,0 
113.5711846,22.9039682,0 
113.5711798,22.9039679,0 
113.5711750,22.9039675,0 
113.5711705,22.9039672,0 
113.5711660,22.9039668,0 
113.5711618,22.9039665,0 
113.5711576,22.9039661,0 
113.5711537,22.9039657,0 
113.5711498,22.9039653,0 
113.5711462,22.9039648,0 
113.5711427,22.9039644,0 
113.5711393,22.9039639,0 
113.5711361,22.9039635,0 
113.5711331,22.9039630,0 
113.5711302,22.9039625,0 
113.5711275,22.9039620,0 
113.5711250,22.9039614,0 
113.5711226,22.9039609,0 
113.5711204,22.9039603,0 
113.5711184,22.9039598,0 
113.5711165,22.9039592,0 
113.5711148,22.9039586,0 
113.5711133,22.9039580,0 
113.5711120,22.9039574,0 
113.5711108,22.9039567,0 
113.5711098,22.9039561,0 
113.5711090,22.9039554,0 
113.5711083,22.9039548,0 
113.5711078,22.9039541,0 
113.5711075,22.9039534,0 
113.5711074,22.9039528,0 
</coordinates>
</LineString>
</Placemark>
</Folder>