<Folder>
<name>SV  5 273.302167 5.181985</name>
<visibility>1</visibility>
<Placemark>
<name>circle</name>
<visibility>1</visibility>
<Style>
<geomColor>FF006400</geomColor>
<geomScale>2</geomScale></Style>
<LineString>
<coordinates>
113.5711175,22.9039522,0 
113.5711175,22.9039515,0 
113.5711177,22.9039508,0 
113.5711181,22.9039501,0 
113.5711187,22.9039494,0 
113.5711194,22.9039487,0 
113.5711203,22.9039480,0 
113.5711214,22.9039472,0 
113.5711226,22.9039465,0 
113.5711240,22.9039457,0 
113.5711256,22.9039450,0 
113.5711273,22.9039442,0 
113.5711293,22.9039435,0 
113.5711313,22.9039427,0 
113.5711336,22.9039419,0 
113.5711360,22.9039411,0 
113.5711386,22.9039403,0 
113.5711413,22.9039395,0 
113.5711442,22.9039387,0 
113.5711473,22.9039379,0 
113.5711505,22.9039371,0 
113.5711539,22.9039363,0 
113.5711574,22.9039355,0 
113.5711611,22.9039347,0 
113.5711650,22.9039339,0 
113.5711690,22.9039331,0 
113.5711731,22.9039323,0 
113.5711774,22.9039315,0 
113.5711818,22.9039307,0 
113.5711864,22.9039299,0 
113.5711911,22.9039291,0 
113.5711960,22.9039283,0 
113.5712010,22.9039274,0 
113.5712061,22.9039266,0 
113.5712114,22.9039258,0 
113.5712168,22.9039250,0 
113.5712223,22.9039242,0 
113.5712280,22.9039234,0 
113.5712338,22.9039227,0 
113.5712397,22.9039219,0 
113.5712457,22.9039211,0 
113.5712518,22.9039203,0 
113.5712580,22.9039195,0 
113.5712644,22.9039188,0 
113.5712709,22.9039180,0 
113.5712774,22.9039172,0 
113.5712841,22.9039165,0 
113.5712909,22.9039157,0 
113.5712977,22.9039150,0 
113.5713047,22.9039143,0 
113.5713117,22.9039135,0 
113.5713189,22.9039128,0 
113.5713261,22.9039121,0 
113.5713334,22.9039114,0 
113.5713408,22.9039107,0 
113.5713482,22.9039101,0 
113.5713557,22.9039094,0 
113.5713633,22.9039087,0 
113.5713710,22.9039081,0 
113.5713787,22.9039074,0 
113.5713865,22.9039068,0 
113.5713943,22.9039062,0 
113.5714022,22.9039056,0 
113.5714101,22.9039050,0 
113.5714180,22.9039044,0 
113.5714260,22.9039038,0 
113.5714341,22.9039032,0 
113.5714422,22.9039027,0 
113.5714503,22.9039021,0 
113.5714584,22.9039016,0 
113.5714665,22.9039011,0 
113.5714747,22.9039006,0 
113.5714829,22.9039001,0 
113.5714911,22.9038997,0 
113.5714993,22.9038992,0 
113.5715075,22.9038988,0 
113.5715157,22.9038983,0 
113.5715239,22.9038979,0 
113.5715322,22.9038975,0 
113.5715403,22.9038971,0 
113.5715485,22.9038968,0 
113.5715567,22.9038964,0 
113.5715648,22.9038961,0 
113.5715729,22.9038957,0 
113.5715810,22.9038954,0 
113.5715891,22.9038951,0 
113.5715971,22.9038949,0 
113.5716051,22.9038946,0 
113.5716130,22.9038944,0 
113.5716209,22.9038941,0 
113.5716288,22.9038939,0 
113.5716366,22.9038937,0 
113.5716443,22.9038935,0 
113.5716520,22.9038934,0 
113.5716596,22.9038932,0 
113.5716672,22.9038931,0 
113.5716747,22.9038930,0 
113.5716821,22.9038929,0 
113.5716894,22.9038928,0 
113.5716967,22.9038928,0 
113.5717039,22.9038927,0 
113.5717109,22.9038927,0 
113.5717180,22.9038927,0 
113.5717249,22.9038927,0 
113.5717317,22.9038927,0 
113.5717384,22.9038927,0 
113.5717450,22.9038928,0 
113.5717515,22.9038929,0 
113.5717579,22.9038930,0 
113.5717642,22.9038931,0 
113.5717704,22.9038932,0 
113.5717765,22.9038933,0 
113.5717825,22.9038935,0 
113.5717883,22.9038937,0 
113.5717940,22.9038939,0 
113.5717996,22.9038941,0 
113.5718051,22.9038943,0 
113.5718104,22.9038945,0 
113.5718156,22.9038948,0 
113.5718207,22.9038951,0 
113.5718256,22.9038953,0 
113.5718304,22.9038956,0 
113.5718350,22.9038960,0 
113.5718396,22.9038963,0 
113.5718439,22.9038967,0 
113.5718481,22.9038970,0 
113.5718522,22.9038974,0 
113.5718561,22.9038978,0 
113.5718599,22.9038982,0 
113.5718635,22.9038986,0 
113.5718670,22.9038991,0 
113.5718703,22.9038995,0 
113.5718734,22.9039000,0 
113.5718764,22.9039005,0 
113.5718792,22.9039010,0 
113.5718819,22.9039015,0 
113.5718844,22.9039020,0 
113.5718867,22.9039025,0 
113.5718889,22.9039031,0 
113.5718909,22.9039036,0 
113.5718927,22.9039042,0 
113.5718944,22.9039048,0 
113.5718959,22.9039054,0 
113.5718972,22.9039060,0 
113.5718983,22.9039066,0 
113.5718993,22.9039072,0 
113.5719001,22.9039079,0 
113.5719008,22.9039085,0 
113.5719013,22.9039092,0 
113.5719016,22.9039099,0 
113.5719017,22.9039105,0 
113.5719016,22.9039112,0 
113.5719014,22.9039119,0 
113.5719010,22.9039126,0 
113.5719005,22.9039133,0 
113.5718998,22.9039141,0 
113.5718989,22.9039148,0 
113.5718978,22.9039155,0 
113.5718965,22.9039163,0 
113.5718951,22.9039170,0 
113.5718935,22.9039178,0 
113.5718918,22.9039185,0 
113.5718899,22.9039193,0 
113.5718878,22.9039201,0 
113.5718855,22.9039209,0 
113.5718831,22.9039216,0 
113.5718805,22.9039224,0 
113.5718778,22.9039232,0 
113.5718749,22.9039240,0 
113.5718718,22.9039248,0 
113.5718686,22.9039256,0 
113.5718652,22.9039264,0 
113.5718617,22.9039272,0 
113.5718580,22.9039280,0 
113.5718542,22.9039288,0 
113.5718502,22.9039296,0 
113.5718460,22.9039305,0 
113.5718417,22.9039313,0 
113.5718373,22.9039321,0 
113.5718327,22.9039329,0 
113.5718280,22.9039337,0 
113.5718231,22.9039345,0 
113.5718181,22.9039353,0 
113.5718130,22.9039361,0 
113.5718077,22.9039369,0 
113.5718023,22.9039377,0 
113.5717968,22.9039385,0 
113.5717912,22.9039393,0 
113.5717854,22.9039401,0 
113.5717795,22.9039409,0 
113.5717735,22.9039417,0 
113.5717673,22.9039425,0 
113.5717611,22.9039432,0 
113.5717547,22.9039440,0 
113.5717483,22.9039448,0 
113.5717417,22.9039455,0 
113.5717350,22.9039463,0 
113.5717283,22.9039470,0 
113.5717214,22.9039478,0 
113.5717144,22.9039485,0 
113.5717074,22.9039492,0 
113.5717003,22.9039499,0 
113.5716930,22.9039506,0 
113.5716857,22.9039513,0 
113.5716784,22.9039520,0 
113.5716709,22.9039527,0 
113.5716634,22.9039534,0 
113.5716558,22.9039540,0 
113.5716482,22.9039547,0 
113.5716405,22.9039553,0 
113.5716327,22.9039560,0 
113.5716249,22.9039566,0 
113.5716170,22.9039572,0 
113.5716091,22.9039578,0 
113.5716011,22.9039584,0 
113.5715931,22.9039590,0 
113.5715851,22.9039595,0 
113.5715770,22.9039601,0 
113.5715689,22.9039606,0 
113.5715607,22.9039611,0 
113.5715526,22.9039616,0 
113.5715444,22.9039621,0 
113.5715362,22.9039626,0 
113.5715280,22.9039631,0 
113.5715198,22.9039636,0 
113.5715116,22.9039640,0 
113.5715034,22.9039644,0 
113.5714952,22.9039648,0 
113.5714870,22.9039652,0 
113.5714788,22.9039656,0 
113.5714706,22.9039660,0 
113.5714625,22.9039664,0 
113.5714543,22.9039667,0 
113.5714462,22.9039670,0 
113.5714381,22.9039673,0 
113.5714300,22.9039676,0 
113.5714220,22.9039679,0 
113.5714140,22.9039682,0 
113.5714061,22.9039684,0 
113.5713982,22.9039686,0 
113.5713903,22.9039688,0 
113.5713825,22.9039690,0 
113.5713748,22.9039692,0 
113.5713671,22.9039694,0 
113.5713595,22.9039695,0 
113.5713519,22.9039697,0 
113.5713445,22.9039698,0 
113.5713370,22.9039699,0 
113.5713297,22.9039699,0 
113.5713225,22.9039700,0 
113.5713153,22.9039701,0 
113.5713082,22.9039701,0 
113.5713012,22.9039701,0 
113.5712943,22.9039701,0 
113.5712875,22.9039701,0 
113.5712807,22.9039700,0 
113.5712741,22.9039700,0 
113.5712676,22.9039699,0 
113.5712612,22.9039698,0 
113.5712549,22.9039697,0 
113.5712487,22.9039696,0 
113.5712426,22.9039694,0 
113.5712367,22.9039693,0 
113.5712308,22.9039691,0 
113.5712251,22.9039689,0 
113.5712195,22.9039687,0 
113.5712141,22.9039685,0 
113.5712087,22.9039682,0 
113.5712035,22.9039680,0 
113.5711985,22.9039677,0 
113.5711935,22.9039674,0 
113.5711887,22.9039671,0 
113.5711841,22.9039668,0 
113.5711796,22.9039665,0 
113.5711752,22.9039661,0 
113.5711710,22.9039657,0 
113.5711669,22.9039654,0 
113.5711630,22.9039650,0 
113.5711593,22.9039646,0 
113.5711556,22.9039641,0 
113.5711522,22.9039637,0 
113.5711489,22.9039632,0 
113.5711457,22.9039628,0 
113.5711428,22.9039623,0 
113.5711399,22.9039618,0 
113.5711373,22.9039613,0 
113.5711348,22.9039608,0 
113.5711324,22.9039602,0 
113.5711303,22.9039597,0 
113.5711283,22.9039591,0 
113.5711264,22.9039585,0 
113.5711248,22.9039580,0 
113.5711233,22.9039574,0 
113.5711220,22.9039568,0 
113.5711208,22.9039561,0 
113.5711198,22.9039555,0 
113.5711190,22.9039549,0 
113.5711184,22.9039542,0 
113.5711179,22.9039536,0 
113.5711176,22.9039529,0 
113.5711175,22.9039522,0 
</coordinates>
</LineString>
</Placemark>
</Folder>