<Folder>
<name>SV 30 319.885700 14.707193</name>
<visibility>1</visibility>
<Placemark>
<name>circle</name>
<visibility>1</visibility>
<Style>
<geomColor>FF969696</geomColor>
<geomScale>2</geomScale></Style>
<LineString>
<coordinates>
113.5719352,22.9040801,0 
113.5719349,22.9040799,0 
113.5719346,22.9040796,0 
113.5719344,22.9040793,0 
113.5719341,22.9040789,0 
113.5719339,22.9040785,0 
113.5719337,22.9040782,0 
113.5719335,22.9040777,0 
113.5719333,22.9040773,0 
113.5719332,22.9040768,0 
113.5719331,22.9040763,0 
113.5719330,22.9040758,0 
113.5719330,22.9040753,0 
113.5719329,22.9040747,0 
113.5719329,22.9040742,0 
113.5719329,22.9040736,0 
113.5719330,22.9040729,0 
113.5719330,22.9040723,0 
113.5719331,22.9040716,0 
113.5719332,22.9040709,0 
113.5719334,22.9040702,0 
113.5719335,22.9040695,0 
113.5719337,22.9040687,0 
113.5719339,22.9040680,0 
113.5719341,22.9040672,0 
113.5719344,22.9040664,0 
113.5719346,22.9040655,0 
113.5719349,22.9040647,0 
113.5719353,22.9040638,0 
113.5719356,22.9040629,0 
113.5719360,22.9040620,0 
113.5719364,22.9040611,0 
113.5719368,22.9040602,0 
113.5719372,22.9040592,0 
113.5719377,22.9040583,0 
113.5719381,22.9040573,0 
113.5719386,22.9040563,0 
113.5719391,22.9040553,0 
113.5719397,22.9040542,0 
113.5719403,22.9040532,0 
113.5719408,22.9040521,0 
113.5719414,22.9040511,0 
113.5719421,22.9040500,0 
113.5719427,22.9040489,0 
113.5719434,22.9040478,0 
113.5719441,22.9040467,0 
113.5719448,22.9040456,0 
113.5719455,22.9040444,0 
113.5719462,22.9040433,0 
113.5719470,22.9040421,0 
113.5719477,22.9040410,0 
113.5719485,22.9040398,0 
113.5719493,22.9040386,0 
113.5719502,22.9040374,0 
113.5719510,22.9040362,0 
113.5719519,22.9040350,0 
113.5719527,22.9040338,0 
113.5719536,22.9040326,0 
113.5719545,22.9040314,0 
113.5719555,22.9040302,0 
113.5719564,22.9040290,0 
113.5719573,22.9040278,0 
113.5719583,22.9040266,0 
113.5719593,22.9040253,0 
113.5719603,22.9040241,0 
113.5719612,22.9040229,0 
113.5719623,22.9040217,0 
113.5719633,22.9040204,0 
113.5719643,22.9040192,0 
113.5719653,22.9040180,0 
113.5719664,22.9040168,0 
113.5719675,22.9040156,0 
113.5719685,22.9040144,0 
113.5719696,22.9040131,0 
113.5719707,22.9040119,0 
113.5719718,22.9040107,0 
113.5719729,22.9040095,0 
113.5719740,22.9040084,0 
113.5719751,22.9040072,0 
113.5719762,22.9040060,0 
113.5719773,22.9040048,0 
113.5719785,22.9040037,0 
113.5719796,22.9040025,0 
113.5719807,22.9040014,0 
113.5719819,22.9040002,0 
113.5719830,22.9039991,0 
113.5719841,22.9039980,0 
113.5719853,22.9039969,0 
113.5719864,22.9039958,0 
113.5719876,22.9039947,0 
113.5719887,22.9039937,0 
113.5719898,22.9039926,0 
113.5719910,22.9039916,0 
113.5719921,22.9039905,0 
113.5719933,22.9039895,0 
113.5719944,22.9039885,0 
113.5719955,22.9039876,0 
113.5719967,22.9039866,0 
113.5719978,22.9039856,0 
113.5719989,22.9039847,0 
113.5720000,22.9039838,0 
113.5720011,22.9039829,0 
113.5720022,22.9039820,0 
113.5720033,22.9039811,0 
113.5720044,22.9039803,0 
113.5720055,22.9039795,0 
113.5720066,22.9039787,0 
113.5720077,22.9039779,0 
113.5720087,22.9039771,0 
113.5720098,22.9039764,0 
113.5720108,22.9039756,0 
113.5720118,22.9039749,0 
113.5720129,22.9039742,0 
113.5720139,22.9039736,0 
113.5720149,22.9039729,0 
113.5720158,22.9039723,0 
113.5720168,22.9039717,0 
113.5720178,22.9039711,0 
113.5720187,22.9039706,0 
113.5720197,22.9039700,0 
113.5720206,22.9039695,0 
113.5720215,22.9039690,0 
113.5720224,22.9039686,0 
113.5720232,22.9039681,0 
113.5720241,22.9039677,0 
113.5720249,22.9039673,0 
113.5720258,22.9039670,0 
113.5720266,22.9039666,0 
113.5720274,22.9039663,0 
113.5720281,22.9039660,0 
113.5720289,22.9039658,0 
113.5720296,22.9039655,0 
113.5720304,22.9039653,0 
113.5720311,22.9039651,0 
113.5720317,22.9039650,0 
113.5720324,22.9039648,0 
113.5720330,22.9039647,0 
113.5720337,22.9039646,0 
113.5720343,22.9039645,0 
113.5720348,22.9039645,0 
113.5720354,22.9039645,0 
113.5720359,22.9039645,0 
113.5720365,22.9039646,0 
113.5720370,22.9039646,0 
113.5720374,22.9039647,0 
113.5720379,22.9039648,0 
113.5720383,22.9039650,0 
113.5720387,22.9039651,0 
113.5720391,22.9039653,0 
113.5720395,22.9039656,0 
113.5720398,22.9039658,0 
113.5720401,22.9039661,0 
113.5720404,22.9039664,0 
113.5720407,22.9039667,0 
113.5720410,22.9039670,0 
113.5720412,22.9039674,0 
113.5720414,22.9039678,0 
113.5720416,22.9039682,0 
113.5720417,22.9039686,0 
113.5720419,22.9039691,0 
113.5720420,22.9039696,0 
113.5720420,22.9039701,0 
113.5720421,22.9039706,0 
113.5720421,22.9039712,0 
113.5720421,22.9039718,0 
113.5720421,22.9039724,0 
113.5720421,22.9039730,0 
113.5720420,22.9039736,0 
113.5720420,22.9039743,0 
113.5720418,22.9039750,0 
113.5720417,22.9039757,0 
113.5720416,22.9039764,0 
113.5720414,22.9039772,0 
113.5720412,22.9039780,0 
113.5720409,22.9039788,0 
113.5720407,22.9039796,0 
113.5720404,22.9039804,0 
113.5720401,22.9039812,0 
113.5720398,22.9039821,0 
113.5720395,22.9039830,0 
113.5720391,22.9039839,0 
113.5720387,22.9039848,0 
113.5720383,22.9039858,0 
113.5720379,22.9039867,0 
113.5720374,22.9039877,0 
113.5720369,22.9039887,0 
113.5720364,22.9039897,0 
113.5720359,22.9039907,0 
113.5720354,22.9039917,0 
113.5720348,22.9039927,0 
113.5720342,22.9039938,0 
113.5720336,22.9039949,0 
113.5720330,22.9039959,0 
113.5720324,22.9039970,0 
113.5720317,22.9039981,0 
113.5720310,22.9039993,0 
113.5720303,22.9040004,0 
113.5720296,22.9040015,0 
113.5720289,22.9040027,0 
113.5720281,22.9040038,0 
113.5720273,22.9040050,0 
113.5720265,22.9040061,0 
113.5720257,22.9040073,0 
113.5720249,22.9040085,0 
113.5720241,22.9040097,0 
113.5720232,22.9040109,0 
113.5720223,22.9040121,0 
113.5720214,22.9040133,0 
113.5720205,22.9040145,0 
113.5720196,22.9040157,0 
113.5720187,22.9040169,0 
113.5720177,22.9040181,0 
113.5720168,22.9040194,0 
113.5720158,22.9040206,0 
113.5720148,22.9040218,0 
113.5720138,22.9040230,0 
113.5720128,22.9040243,0 
113.5720118,22.9040255,0 
113.5720108,22.9040267,0 
113.5720097,22.9040279,0 
113.5720087,22.9040292,0 
113.5720076,22.9040304,0 
113.5720065,22.9040316,0 
113.5720055,22.9040328,0 
113.5720044,22.9040340,0 
113.5720033,22.9040352,0 
113.5720022,22.9040364,0 
113.5720011,22.9040376,0 
113.5720000,22.9040388,0 
113.5719989,22.9040399,0 
113.5719977,22.9040411,0 
113.5719966,22.9040423,0 
113.5719955,22.9040434,0 
113.5719943,22.9040446,0 
113.5719932,22.9040457,0 
113.5719921,22.9040468,0 
113.5719909,22.9040479,0 
113.5719898,22.9040490,0 
113.5719886,22.9040501,0 
113.5719875,22.9040512,0 
113.5719864,22.9040523,0 
113.5719852,22.9040533,0 
113.5719841,22.9040544,0 
113.5719829,22.9040554,0 
113.5719818,22.9040564,0 
113.5719807,22.9040574,0 
113.5719795,22.9040584,0 
113.5719784,22.9040593,0 
113.5719773,22.9040603,0 
113.5719762,22.9040612,0 
113.5719750,22.9040621,0 
113.5719739,22.9040630,0 
113.5719728,22.9040639,0 
113.5719717,22.9040648,0 
113.5719706,22.9040656,0 
113.5719695,22.9040665,0 
113.5719685,22.9040673,0 
113.5719674,22.9040681,0 
113.5719663,22.9040688,0 
113.5719653,22.9040696,0 
113.5719643,22.9040703,0 
113.5719632,22.9040710,0 
113.5719622,22.9040717,0 
113.5719612,22.9040724,0 
113.5719602,22.9040730,0 
113.5719592,22.9040736,0 
113.5719582,22.9040742,0 
113.5719573,22.9040748,0 
113.5719563,22.9040754,0 
113.5719554,22.9040759,0 
113.5719545,22.9040764,0 
113.5719536,22.9040769,0 
113.5719527,22.9040774,0 
113.5719518,22.9040778,0 
113.5719510,22.9040782,0 
113.5719501,22.9040786,0 
113.5719493,22.9040790,0 
113.5719485,22.9040793,0 
113.5719477,22.9040796,0 
113.5719469,22.9040799,0 
113.5719462,22.9040802,0 
113.5719454,22.9040804,0 
113.5719447,22.9040806,0 
113.5719440,22.9040808,0 
113.5719433,22.9040810,0 
113.5719427,22.9040811,0 
113.5719420,22.9040812,0 
113.5719414,22.9040813,0 
113.5719408,22.9040814,0 
113.5719402,22.9040814,0 
113.5719397,22.9040814,0 
113.5719391,22.9040814,0 
113.5719386,22.9040814,0 
113.5719381,22.9040813,0 
113.5719376,22.9040812,0 
113.5719372,22.9040811,0 
113.5719367,22.9040810,0 
113.5719363,22.9040808,0 
113.5719359,22.9040806,0 
113.5719356,22.9040804,0 
113.5719352,22.9040801,0 
</coordinates>
</LineString>
</Placemark>
</Folder>