<Folder>
<name>SV  5 283.967472 8.510954</name>
<visibility>1</visibility>
<Placemark>
<name>circle</name>
<visibility>1</visibility>
<Style>
<geomColor>FF006400</geomColor>
<geomScale>2</geomScale></Style>
<LineString>
<coordinates>
113.5716054,22.9040133,0 
113.5716053,22.9040128,0 
113.5716053,22.9040123,0 
113.5716053,22.9040117,0 
113.5716055,22.9040111,0 
113.5716057,22.9040105,0 
113.5716060,22.9040099,0 
113.5716063,22.9040093,0 
113.5716068,22.9040087,0 
113.5716073,22.9040080,0 
113.5716079,22.9040073,0 
113.5716086,22.9040067,0 
113.5716094,22.9040060,0 
113.5716102,22.9040052,0 
113.5716111,22.9040045,0 
113.5716121,22.9040038,0 
113.5716132,22.9040030,0 
113.5716143,22.9040022,0 
113.5716155,22.9040015,0 
113.5716168,22.9040007,0 
113.5716182,22.9039998,0 
113.5716196,22.9039990,0 
113.5716211,22.9039982,0 
113.5716227,22.9039973,0 
113.5716244,22.9039965,0 
113.5716261,22.9039956,0 
113.5716279,22.9039947,0 
113.5716297,22.9039938,0 
113.5716317,22.9039930,0 
113.5716337,22.9039920,0 
113.5716357,22.9039911,0 
113.5716378,22.9039902,0 
113.5716400,22.9039893,0 
113.5716423,22.9039883,0 
113.5716446,22.9039874,0 
113.5716470,22.9039864,0 
113.5716494,22.9039855,0 
113.5716519,22.9039845,0 
113.5716545,22.9039835,0 
113.5716571,22.9039826,0 
113.5716598,22.9039816,0 
113.5716625,22.9039806,0 
113.5716653,22.9039796,0 
113.5716681,22.9039786,0 
113.5716710,22.9039776,0 
113.5716739,22.9039766,0 
113.5716769,22.9039757,0 
113.5716799,22.9039747,0 
113.5716830,22.9039737,0 
113.5716861,22.9039727,0 
113.5716892,22.9039717,0 
113.5716924,22.9039707,0 
113.5716957,22.9039697,0 
113.5716990,22.9039687,0 
113.5717023,22.9039677,0 
113.5717056,22.9039667,0 
113.5717090,22.9039657,0 
113.5717124,22.9039647,0 
113.5717159,22.9039637,0 
113.5717194,22.9039627,0 
113.5717229,22.9039617,0 
113.5717264,22.9039608,0 
113.5717300,22.9039598,0 
113.5717336,22.9039588,0 
113.5717372,22.9039579,0 
113.5717408,22.9039569,0 
113.5717445,22.9039560,0 
113.5717481,22.9039550,0 
113.5717518,22.9039541,0 
113.5717555,22.9039532,0 
113.5717592,22.9039523,0 
113.5717630,22.9039514,0 
113.5717667,22.9039505,0 
113.5717704,22.9039496,0 
113.5717742,22.9039487,0 
113.5717779,22.9039479,0 
113.5717817,22.9039470,0 
113.5717854,22.9039462,0 
113.5717892,22.9039453,0 
113.5717929,22.9039445,0 
113.5717967,22.9039437,0 
113.5718004,22.9039429,0 
113.5718042,22.9039421,0 
113.5718079,22.9039414,0 
113.5718116,22.9039406,0 
113.5718153,22.9039399,0 
113.5718190,22.9039391,0 
113.5718227,22.9039384,0 
113.5718263,22.9039377,0 
113.5718300,22.9039370,0 
113.5718336,22.9039364,0 
113.5718372,22.9039357,0 
113.5718408,22.9039351,0 
113.5718443,22.9039345,0 
113.5718479,22.9039339,0 
113.5718514,22.9039333,0 
113.5718548,22.9039327,0 
113.5718583,22.9039322,0 
113.5718617,22.9039316,0 
113.5718650,22.9039311,0 
113.5718684,22.9039306,0 
113.5718717,22.9039301,0 
113.5718749,22.9039297,0 
113.5718782,22.9039292,0 
113.5718813,22.9039288,0 
113.5718845,22.9039284,0 
113.5718876,22.9039280,0 
113.5718906,22.9039276,0 
113.5718936,22.9039273,0 
113.5718966,22.9039270,0 
113.5718995,22.9039267,0 
113.5719023,22.9039264,0 
113.5719051,22.9039261,0 
113.5719079,22.9039259,0 
113.5719106,22.9039256,0 
113.5719132,22.9039254,0 
113.5719158,22.9039253,0 
113.5719183,22.9039251,0 
113.5719208,22.9039249,0 
113.5719232,22.9039248,0 
113.5719256,22.9039247,0 
113.5719279,22.9039246,0 
113.5719301,22.9039246,0 
113.5719322,22.9039245,0 
113.5719343,22.9039245,0 
113.5719364,22.9039245,0 
113.5719383,22.9039245,0 
113.5719402,22.9039246,0 
113.5719420,22.9039247,0 
113.5719438,22.9039247,0 
113.5719455,22.9039249,0 
113.5719471,22.9039250,0 
113.5719487,22.9039251,0 
113.5719501,22.9039253,0 
113.5719515,22.9039255,0 
113.5719529,22.9039257,0 
113.5719541,22.9039259,0 
113.5719553,22.9039262,0 
113.5719564,22.9039265,0 
113.5719574,22.9039267,0 
113.5719584,22.9039271,0 
113.5719593,22.9039274,0 
113.5719601,22.9039277,0 
113.5719608,22.9039281,0 
113.5719614,22.9039285,0 
113.5719620,22.9039289,0 
113.5719625,22.9039293,0 
113.5719629,22.9039298,0 
113.5719632,22.9039303,0 
113.5719635,22.9039307,0 
113.5719637,22.9039312,0 
113.5719638,22.9039318,0 
113.5719638,22.9039323,0 
113.5719637,22.9039329,0 
113.5719636,22.9039334,0 
113.5719634,22.9039340,0 
113.5719631,22.9039346,0 
113.5719627,22.9039352,0 
113.5719623,22.9039359,0 
113.5719617,22.9039365,0 
113.5719611,22.9039372,0 
113.5719604,22.9039379,0 
113.5719597,22.9039386,0 
113.5719588,22.9039393,0 
113.5719579,22.9039400,0 
113.5719569,22.9039408,0 
113.5719559,22.9039416,0 
113.5719547,22.9039423,0 
113.5719535,22.9039431,0 
113.5719522,22.9039439,0 
113.5719509,22.9039447,0 
113.5719494,22.9039455,0 
113.5719479,22.9039464,0 
113.5719463,22.9039472,0 
113.5719447,22.9039481,0 
113.5719430,22.9039489,0 
113.5719412,22.9039498,0 
113.5719393,22.9039507,0 
113.5719374,22.9039516,0 
113.5719354,22.9039525,0 
113.5719333,22.9039534,0 
113.5719312,22.9039544,0 
113.5719290,22.9039553,0 
113.5719268,22.9039562,0 
113.5719244,22.9039572,0 
113.5719221,22.9039581,0 
113.5719196,22.9039591,0 
113.5719171,22.9039600,0 
113.5719146,22.9039610,0 
113.5719120,22.9039620,0 
113.5719093,22.9039630,0 
113.5719066,22.9039639,0 
113.5719038,22.9039649,0 
113.5719010,22.9039659,0 
113.5718981,22.9039669,0 
113.5718952,22.9039679,0 
113.5718922,22.9039689,0 
113.5718891,22.9039699,0 
113.5718861,22.9039709,0 
113.5718830,22.9039719,0 
113.5718798,22.9039729,0 
113.5718766,22.9039739,0 
113.5718734,22.9039749,0 
113.5718701,22.9039759,0 
113.5718668,22.9039769,0 
113.5718634,22.9039779,0 
113.5718600,22.9039789,0 
113.5718566,22.9039799,0 
113.5718531,22.9039809,0 
113.5718497,22.9039818,0 
113.5718461,22.9039828,0 
113.5718426,22.9039838,0 
113.5718390,22.9039848,0 
113.5718355,22.9039857,0 
113.5718318,22.9039867,0 
113.5718282,22.9039876,0 
113.5718246,22.9039886,0 
113.5718209,22.9039895,0 
113.5718172,22.9039904,0 
113.5718135,22.9039914,0 
113.5718098,22.9039923,0 
113.5718061,22.9039932,0 
113.5718023,22.9039941,0 
113.5717986,22.9039950,0 
113.5717949,22.9039958,0 
113.5717911,22.9039967,0 
113.5717874,22.9039976,0 
113.5717836,22.9039984,0 
113.5717799,22.9039992,0 
113.5717761,22.9040001,0 
113.5717724,22.9040009,0 
113.5717686,22.9040017,0 
113.5717649,22.9040024,0 
113.5717611,22.9040032,0 
113.5717574,22.9040040,0 
113.5717537,22.9040047,0 
113.5717500,22.9040054,0 
113.5717464,22.9040061,0 
113.5717427,22.9040068,0 
113.5717391,22.9040075,0 
113.5717354,22.9040082,0 
113.5717318,22.9040088,0 
113.5717283,22.9040095,0 
113.5717247,22.9040101,0 
113.5717212,22.9040107,0 
113.5717177,22.9040113,0 
113.5717142,22.9040119,0 
113.5717108,22.9040124,0 
113.5717074,22.9040129,0 
113.5717040,22.9040135,0 
113.5717007,22.9040140,0 
113.5716974,22.9040144,0 
113.5716941,22.9040149,0 
113.5716909,22.9040153,0 
113.5716877,22.9040158,0 
113.5716846,22.9040162,0 
113.5716815,22.9040165,0 
113.5716784,22.9040169,0 
113.5716754,22.9040173,0 
113.5716725,22.9040176,0 
113.5716696,22.9040179,0 
113.5716667,22.9040182,0 
113.5716639,22.9040184,0 
113.5716611,22.9040187,0 
113.5716584,22.9040189,0 
113.5716558,22.9040191,0 
113.5716532,22.9040193,0 
113.5716507,22.9040195,0 
113.5716482,22.9040196,0 
113.5716458,22.9040197,0 
113.5716435,22.9040198,0 
113.5716412,22.9040199,0 
113.5716390,22.9040200,0 
113.5716368,22.9040200,0 
113.5716347,22.9040200,0 
113.5716327,22.9040200,0 
113.5716307,22.9040200,0 
113.5716288,22.9040200,0 
113.5716270,22.9040199,0 
113.5716252,22.9040198,0 
113.5716236,22.9040197,0 
113.5716219,22.9040196,0 
113.5716204,22.9040194,0 
113.5716189,22.9040193,0 
113.5716175,22.9040191,0 
113.5716162,22.9040189,0 
113.5716149,22.9040186,0 
113.5716138,22.9040184,0 
113.5716126,22.9040181,0 
113.5716116,22.9040178,0 
113.5716107,22.9040175,0 
113.5716098,22.9040172,0 
113.5716090,22.9040168,0 
113.5716083,22.9040165,0 
113.5716076,22.9040161,0 
113.5716071,22.9040157,0 
113.5716066,22.9040152,0 
113.5716061,22.9040148,0 
113.5716058,22.9040143,0 
113.5716056,22.9040138,0 
113.5716054,22.9040133,0 
</coordinates>
</LineString>
</Placemark>
</Folder>