<Folder>
<name>SV 31 228.114046 13.185452</name>
<visibility>1</visibility>
<Placemark>
<name>circle</name>
<visibility>1</visibility>
<Style>
<geomColor>FFFF00FF</geomColor>
<geomScale>2</geomScale></Style>
<LineString>
<coordinates>
113.5718825,22.9037204,0 
113.5718829,22.9037201,0 
113.5718832,22.9037198,0 
113.5718836,22.9037196,0 
113.5718840,22.9037193,0 
113.5718844,22.9037192,0 
113.5718848,22.9037190,0 
113.5718853,22.9037189,0 
113.5718859,22.9037187,0 
113.5718864,22.9037187,0 
113.5718870,22.9037186,0 
113.5718876,22.9037186,0 
113.5718882,22.9037185,0 
113.5718889,22.9037186,0 
113.5718895,22.9037186,0 
113.5718903,22.9037187,0 
113.5718910,22.9037188,0 
113.5718918,22.9037189,0 
113.5718926,22.9037190,0 
113.5718934,22.9037192,0 
113.5718942,22.9037194,0 
113.5718951,22.9037196,0 
113.5718960,22.9037199,0 
113.5718969,22.9037201,0 
113.5718978,22.9037204,0 
113.5718988,22.9037207,0 
113.5718998,22.9037211,0 
113.5719008,22.9037215,0 
113.5719018,22.9037219,0 
113.5719029,22.9037223,0 
113.5719039,22.9037227,0 
113.5719050,22.9037232,0 
113.5719062,22.9037237,0 
113.5719073,22.9037242,0 
113.5719084,22.9037247,0 
113.5719096,22.9037253,0 
113.5719108,22.9037259,0 
113.5719120,22.9037265,0 
113.5719132,22.9037271,0 
113.5719145,22.9037277,0 
113.5719157,22.9037284,0 
113.5719170,22.9037291,0 
113.5719183,22.9037298,0 
113.5719196,22.9037306,0 
113.5719209,22.9037313,0 
113.5719223,22.9037321,0 
113.5719236,22.9037329,0 
113.5719250,22.9037337,0 
113.5719263,22.9037345,0 
113.5719277,22.9037354,0 
113.5719291,22.9037362,0 
113.5719305,22.9037371,0 
113.5719319,22.9037380,0 
113.5719333,22.9037390,0 
113.5719348,22.9037399,0 
113.5719362,22.9037409,0 
113.5719376,22.9037418,0 
113.5719391,22.9037428,0 
113.5719405,22.9037438,0 
113.5719420,22.9037448,0 
113.5719434,22.9037459,0 
113.5719449,22.9037469,0 
113.5719464,22.9037480,0 
113.5719478,22.9037490,0 
113.5719493,22.9037501,0 
113.5719508,22.9037512,0 
113.5719522,22.9037523,0 
113.5719537,22.9037534,0 
113.5719552,22.9037546,0 
113.5719566,22.9037557,0 
113.5719581,22.9037569,0 
113.5719596,22.9037580,0 
113.5719610,22.9037592,0 
113.5719625,22.9037603,0 
113.5719639,22.9037615,0 
113.5719654,22.9037627,0 
113.5719668,22.9037639,0 
113.5719682,22.9037651,0 
113.5719697,22.9037663,0 
113.5719711,22.9037675,0 
113.5719725,22.9037687,0 
113.5719739,22.9037699,0 
113.5719753,22.9037712,0 
113.5719766,22.9037724,0 
113.5719780,22.9037736,0 
113.5719794,22.9037748,0 
113.5719807,22.9037761,0 
113.5719820,22.9037773,0 
113.5719833,22.9037785,0 
113.5719846,22.9037798,0 
113.5719859,22.9037810,0 
113.5719872,22.9037822,0 
113.5719885,22.9037834,0 
113.5719897,22.9037846,0 
113.5719909,22.9037859,0 
113.5719921,22.9037871,0 
113.5719933,22.9037883,0 
113.5719945,22.9037895,0 
113.5719956,22.9037907,0 
113.5719968,22.9037919,0 
113.5719979,22.9037931,0 
113.5719990,22.9037942,0 
113.5720000,22.9037954,0 
113.5720011,22.9037966,0 
113.5720021,22.9037977,0 
113.5720031,22.9037989,0 
113.5720041,22.9038000,0 
113.5720050,22.9038011,0 
113.5720060,22.9038022,0 
113.5720069,22.9038033,0 
113.5720078,22.9038044,0 
113.5720086,22.9038055,0 
113.5720095,22.9038066,0 
113.5720103,22.9038076,0 
113.5720111,22.9038087,0 
113.5720118,22.9038097,0 
113.5720126,22.9038107,0 
113.5720133,22.9038117,0 
113.5720139,22.9038127,0 
113.5720146,22.9038137,0 
113.5720152,22.9038146,0 
113.5720158,22.9038156,0 
113.5720164,22.9038165,0 
113.5720169,22.9038174,0 
113.5720174,22.9038183,0 
113.5720179,22.9038191,0 
113.5720183,22.9038200,0 
113.5720188,22.9038208,0 
113.5720192,22.9038216,0 
113.5720195,22.9038224,0 
113.5720198,22.9038232,0 
113.5720201,22.9038239,0 
113.5720204,22.9038247,0 
113.5720207,22.9038254,0 
113.5720209,22.9038261,0 
113.5720211,22.9038267,0 
113.5720212,22.9038274,0 
113.5720213,22.9038280,0 
113.5720214,22.9038286,0 
113.5720215,22.9038292,0 
113.5720215,22.9038297,0 
113.5720215,22.9038303,0 
113.5720215,22.9038308,0 
113.5720214,22.9038312,0 
113.5720213,22.9038317,0 
113.5720212,22.9038321,0 
113.5720210,22.9038326,0 
113.5720208,22.9038329,0 
113.5720206,22.9038333,0 
113.5720203,22.9038337,0 
113.5720201,22.9038340,0 
113.5720198,22.9038343,0 
113.5720194,22.9038345,0 
113.5720191,22.9038348,0 
113.5720187,22.9038350,0 
113.5720182,22.9038352,0 
113.5720178,22.9038353,0 
113.5720173,22.9038355,0 
113.5720168,22.9038356,0 
113.5720162,22.9038357,0 
113.5720156,22.9038357,0 
113.5720150,22.9038358,0 
113.5720144,22.9038358,0 
113.5720138,22.9038358,0 
113.5720131,22.9038357,0 
113.5720124,22.9038357,0 
113.5720116,22.9038356,0 
113.5720109,22.9038354,0 
113.5720101,22.9038353,0 
113.5720092,22.9038351,0 
113.5720084,22.9038349,0 
113.5720075,22.9038347,0 
113.5720066,22.9038345,0 
113.5720057,22.9038342,0 
113.5720048,22.9038339,0 
113.5720038,22.9038336,0 
113.5720028,22.9038332,0 
113.5720018,22.9038329,0 
113.5720008,22.9038325,0 
113.5719997,22.9038321,0 
113.5719987,22.9038316,0 
113.5719976,22.9038311,0 
113.5719965,22.9038307,0 
113.5719953,22.9038301,0 
113.5719942,22.9038296,0 
113.5719930,22.9038290,0 
113.5719918,22.9038285,0 
113.5719906,22.9038279,0 
113.5719894,22.9038272,0 
113.5719881,22.9038266,0 
113.5719869,22.9038259,0 
113.5719856,22.9038252,0 
113.5719843,22.9038245,0 
113.5719830,22.9038238,0 
113.5719817,22.9038230,0 
113.5719803,22.9038222,0 
113.5719790,22.9038214,0 
113.5719776,22.9038206,0 
113.5719763,22.9038198,0 
113.5719749,22.9038189,0 
113.5719735,22.9038181,0 
113.5719721,22.9038172,0 
113.5719707,22.9038163,0 
113.5719693,22.9038154,0 
113.5719679,22.9038144,0 
113.5719664,22.9038135,0 
113.5719650,22.9038125,0 
113.5719635,22.9038115,0 
113.5719621,22.9038105,0 
113.5719606,22.9038095,0 
113.5719592,22.9038085,0 
113.5719577,22.9038074,0 
113.5719562,22.9038064,0 
113.5719548,22.9038053,0 
113.5719533,22.9038042,0 
113.5719518,22.9038031,0 
113.5719504,22.9038020,0 
113.5719489,22.9038009,0 
113.5719474,22.9037998,0 
113.5719460,22.9037986,0 
113.5719445,22.9037975,0 
113.5719430,22.9037963,0 
113.5719416,22.9037952,0 
113.5719401,22.9037940,0 
113.5719387,22.9037928,0 
113.5719372,22.9037916,0 
113.5719358,22.9037904,0 
113.5719344,22.9037892,0 
113.5719329,22.9037880,0 
113.5719315,22.9037868,0 
113.5719301,22.9037856,0 
113.5719287,22.9037844,0 
113.5719273,22.9037832,0 
113.5719260,22.9037819,0 
113.5719246,22.9037807,0 
113.5719233,22.9037795,0 
113.5719219,22.9037783,0 
113.5719206,22.9037770,0 
113.5719193,22.9037758,0 
113.5719180,22.9037746,0 
113.5719167,22.9037734,0 
113.5719154,22.9037721,0 
113.5719142,22.9037709,0 
113.5719129,22.9037697,0 
113.5719117,22.9037685,0 
113.5719105,22.9037673,0 
113.5719093,22.9037661,0 
113.5719081,22.9037648,0 
113.5719070,22.9037637,0 
113.5719059,22.9037625,0 
113.5719047,22.9037613,0 
113.5719037,22.9037601,0 
113.5719026,22.9037589,0 
113.5719015,22.9037578,0 
113.5719005,22.9037566,0 
113.5718995,22.9037555,0 
113.5718985,22.9037543,0 
113.5718976,22.9037532,0 
113.5718966,22.9037521,0 
113.5718957,22.9037510,0 
113.5718948,22.9037499,0 
113.5718940,22.9037488,0 
113.5718931,22.9037477,0 
113.5718923,22.9037467,0 
113.5718916,22.9037456,0 
113.5718908,22.9037446,0 
113.5718901,22.9037436,0 
113.5718894,22.9037426,0 
113.5718887,22.9037416,0 
113.5718880,22.9037407,0 
113.5718874,22.9037397,0 
113.5718868,22.9037388,0 
113.5718862,22.9037378,0 
113.5718857,22.9037369,0 
113.5718852,22.9037361,0 
113.5718847,22.9037352,0 
113.5718843,22.9037343,0 
113.5718839,22.9037335,0 
113.5718835,22.9037327,0 
113.5718831,22.9037319,0 
113.5718828,22.9037311,0 
113.5718825,22.9037304,0 
113.5718822,22.9037297,0 
113.5718820,22.9037290,0 
113.5718817,22.9037283,0 
113.5718816,22.9037276,0 
113.5718814,22.9037270,0 
113.5718813,22.9037263,0 
113.5718812,22.9037257,0 
113.5718811,22.9037252,0 
113.5718811,22.9037246,0 
113.5718811,22.9037241,0 
113.5718812,22.9037236,0 
113.5718812,22.9037231,0 
113.5718813,22.9037226,0 
113.5718814,22.9037222,0 
113.5718816,22.9037218,0 
113.5718818,22.9037214,0 
113.5718820,22.9037210,0 
113.5718823,22.9037207,0 
113.5718825,22.9037204,0 
</coordinates>
</LineString>
</Placemark>
</Folder>