<Folder>
<name>SV  5 273.302167 5.181985</name>
<visibility>1</visibility>
<Placemark>
<name>circle</name>
<visibility>1</visibility>
<Style>
<geomColor>FF006400</geomColor>
<geomScale>2</geomScale></Style>
<LineString>
<coordinates>
113.5711152,22.9039523,0 
113.5711153,22.9039517,0 
113.5711155,22.9039510,0 
113.5711159,22.9039503,0 
113.5711164,22.9039496,0 
113.5711171,22.9039489,0 
113.5711180,22.9039482,0 
113.5711191,22.9039474,0 
113.5711203,22.9039467,0 
113.5711217,22.9039460,0 
113.5711232,22.9039452,0 
113.5711249,22.9039445,0 
113.5711268,22.9039437,0 
113.5711289,22.9039430,0 
113.5711311,22.9039422,0 
113.5711335,22.9039414,0 
113.5711360,22.9039406,0 
113.5711387,22.9039399,0 
113.5711416,22.9039391,0 
113.5711446,22.9039383,0 
113.5711477,22.9039375,0 
113.5711511,22.9039367,0 
113.5711545,22.9039359,0 
113.5711582,22.9039351,0 
113.5711620,22.9039343,0 
113.5711659,22.9039335,0 
113.5711700,22.9039328,0 
113.5711742,22.9039320,0 
113.5711785,22.9039312,0 
113.5711830,22.9039304,0 
113.5711877,22.9039296,0 
113.5711925,22.9039288,0 
113.5711974,22.9039280,0 
113.5712024,22.9039272,0 
113.5712076,22.9039264,0 
113.5712129,22.9039256,0 
113.5712184,22.9039248,0 
113.5712239,22.9039240,0 
113.5712296,22.9039233,0 
113.5712354,22.9039225,0 
113.5712413,22.9039217,0 
113.5712474,22.9039209,0 
113.5712535,22.9039202,0 
113.5712598,22.9039194,0 
113.5712661,22.9039187,0 
113.5712726,22.9039179,0 
113.5712791,22.9039172,0 
113.5712858,22.9039165,0 
113.5712925,22.9039157,0 
113.5712994,22.9039150,0 
113.5713063,22.9039143,0 
113.5713133,22.9039136,0 
113.5713204,22.9039129,0 
113.5713276,22.9039122,0 
113.5713349,22.9039115,0 
113.5713422,22.9039109,0 
113.5713496,22.9039102,0 
113.5713570,22.9039096,0 
113.5713646,22.9039089,0 
113.5713722,22.9039083,0 
113.5713798,22.9039077,0 
113.5713875,22.9039070,0 
113.5713952,22.9039064,0 
113.5714030,22.9039059,0 
113.5714109,22.9039053,0 
113.5714187,22.9039047,0 
113.5714267,22.9039042,0 
113.5714346,22.9039036,0 
113.5714426,22.9039031,0 
113.5714506,22.9039026,0 
113.5714586,22.9039021,0 
113.5714666,22.9039016,0 
113.5714747,22.9039011,0 
113.5714827,22.9039006,0 
113.5714908,22.9039002,0 
113.5714989,22.9038998,0 
113.5715070,22.9038993,0 
113.5715150,22.9038989,0 
113.5715231,22.9038985,0 
113.5715312,22.9038982,0 
113.5715392,22.9038978,0 
113.5715472,22.9038974,0 
113.5715552,22.9038971,0 
113.5715632,22.9038968,0 
113.5715712,22.9038965,0 
113.5715791,22.9038962,0 
113.5715870,22.9038959,0 
113.5715949,22.9038957,0 
113.5716027,22.9038954,0 
113.5716104,22.9038952,0 
113.5716182,22.9038950,0 
113.5716258,22.9038948,0 
113.5716334,22.9038946,0 
113.5716410,22.9038945,0 
113.5716485,22.9038943,0 
113.5716559,22.9038942,0 
113.5716633,22.9038941,0 
113.5716706,22.9038940,0 
113.5716778,22.9038939,0 
113.5716849,22.9038938,0 
113.5716920,22.9038938,0 
113.5716990,22.9038938,0 
113.5717059,22.9038938,0 
113.5717126,22.9038938,0 
113.5717194,22.9038938,0 
113.5717260,22.9038938,0 
113.5717325,22.9038939,0 
113.5717389,22.9038940,0 
113.5717452,22.9038941,0 
113.5717514,22.9038942,0 
113.5717575,22.9038943,0 
113.5717634,22.9038944,0 
113.5717693,22.9038946,0 
113.5717750,22.9038947,0 
113.5717807,22.9038949,0 
113.5717862,22.9038951,0 
113.5717915,22.9038954,0 
113.5717968,22.9038956,0 
113.5718019,22.9038958,0 
113.5718069,22.9038961,0 
113.5718117,22.9038964,0 
113.5718164,22.9038967,0 
113.5718210,22.9038970,0 
113.5718255,22.9038973,0 
113.5718297,22.9038977,0 
113.5718339,22.9038980,0 
113.5718379,22.9038984,0 
113.5718417,22.9038988,0 
113.5718455,22.9038992,0 
113.5718490,22.9038996,0 
113.5718524,22.9039001,0 
113.5718557,22.9039005,0 
113.5718587,22.9039010,0 
113.5718617,22.9039014,0 
113.5718645,22.9039019,0 
113.5718671,22.9039024,0 
113.5718695,22.9039029,0 
113.5718718,22.9039035,0 
113.5718740,22.9039040,0 
113.5718759,22.9039046,0 
113.5718777,22.9039051,0 
113.5718794,22.9039057,0 
113.5718808,22.9039063,0 
113.5718821,22.9039069,0 
113.5718833,22.9039075,0 
113.5718842,22.9039081,0 
113.5718850,22.9039087,0 
113.5718857,22.9039094,0 
113.5718861,22.9039100,0 
113.5718864,22.9039107,0 
113.5718866,22.9039113,0 
113.5718865,22.9039120,0 
113.5718863,22.9039127,0 
113.5718859,22.9039134,0 
113.5718854,22.9039141,0 
113.5718847,22.9039148,0 
113.5718838,22.9039155,0 
113.5718827,22.9039163,0 
113.5718815,22.9039170,0 
113.5718801,22.9039177,0 
113.5718786,22.9039185,0 
113.5718768,22.9039192,0 
113.5718750,22.9039200,0 
113.5718729,22.9039207,0 
113.5718707,22.9039215,0 
113.5718683,22.9039223,0 
113.5718658,22.9039230,0 
113.5718631,22.9039238,0 
113.5718602,22.9039246,0 
113.5718572,22.9039254,0 
113.5718540,22.9039262,0 
113.5718507,22.9039270,0 
113.5718472,22.9039277,0 
113.5718436,22.9039285,0 
113.5718398,22.9039293,0 
113.5718359,22.9039301,0 
113.5718318,22.9039309,0 
113.5718276,22.9039317,0 
113.5718232,22.9039325,0 
113.5718187,22.9039333,0 
113.5718141,22.9039341,0 
113.5718093,22.9039349,0 
113.5718044,22.9039357,0 
113.5717993,22.9039365,0 
113.5717942,22.9039373,0 
113.5717888,22.9039381,0 
113.5717834,22.9039389,0 
113.5717779,22.9039396,0 
113.5717722,22.9039404,0 
113.5717664,22.9039412,0 
113.5717605,22.9039420,0 
113.5717544,22.9039427,0 
113.5717483,22.9039435,0 
113.5717420,22.9039443,0 
113.5717357,22.9039450,0 
113.5717292,22.9039458,0 
113.5717227,22.9039465,0 
113.5717160,22.9039472,0 
113.5717092,22.9039480,0 
113.5717024,22.9039487,0 
113.5716955,22.9039494,0 
113.5716885,22.9039501,0 
113.5716814,22.9039508,0 
113.5716742,22.9039515,0 
113.5716669,22.9039521,0 
113.5716596,22.9039528,0 
113.5716522,22.9039535,0 
113.5716447,22.9039541,0 
113.5716372,22.9039548,0 
113.5716296,22.9039554,0 
113.5716220,22.9039560,0 
113.5716143,22.9039566,0 
113.5716065,22.9039572,0 
113.5715988,22.9039578,0 
113.5715909,22.9039584,0 
113.5715830,22.9039590,0 
113.5715751,22.9039595,0 
113.5715672,22.9039601,0 
113.5715592,22.9039606,0 
113.5715512,22.9039611,0 
113.5715432,22.9039616,0 
113.5715352,22.9039621,0 
113.5715271,22.9039626,0 
113.5715191,22.9039630,0 
113.5715110,22.9039635,0 
113.5715029,22.9039639,0 
113.5714948,22.9039644,0 
113.5714868,22.9039648,0 
113.5714787,22.9039652,0 
113.5714706,22.9039655,0 
113.5714626,22.9039659,0 
113.5714545,22.9039662,0 
113.5714465,22.9039666,0 
113.5714386,22.9039669,0 
113.5714306,22.9039672,0 
113.5714227,22.9039675,0 
113.5714148,22.9039678,0 
113.5714069,22.9039680,0 
113.5713991,22.9039683,0 
113.5713913,22.9039685,0 
113.5713836,22.9039687,0 
113.5713760,22.9039689,0 
113.5713683,22.9039691,0 
113.5713608,22.9039692,0 
113.5713533,22.9039694,0 
113.5713459,22.9039695,0 
113.5713385,22.9039696,0 
113.5713312,22.9039697,0 
113.5713240,22.9039698,0 
113.5713169,22.9039698,0 
113.5713098,22.9039699,0 
113.5713028,22.9039699,0 
113.5712959,22.9039699,0 
113.5712891,22.9039699,0 
113.5712824,22.9039699,0 
113.5712758,22.9039698,0 
113.5712693,22.9039698,0 
113.5712629,22.9039697,0 
113.5712566,22.9039696,0 
113.5712504,22.9039695,0 
113.5712443,22.9039694,0 
113.5712383,22.9039693,0 
113.5712325,22.9039691,0 
113.5712267,22.9039689,0 
113.5712211,22.9039687,0 
113.5712156,22.9039685,0 
113.5712103,22.9039683,0 
113.5712050,22.9039681,0 
113.5711999,22.9039678,0 
113.5711949,22.9039676,0 
113.5711901,22.9039673,0 
113.5711853,22.9039670,0 
113.5711808,22.9039667,0 
113.5711763,22.9039663,0 
113.5711720,22.9039660,0 
113.5711679,22.9039656,0 
113.5711639,22.9039653,0 
113.5711600,22.9039649,0 
113.5711563,22.9039645,0 
113.5711528,22.9039640,0 
113.5711494,22.9039636,0 
113.5711461,22.9039632,0 
113.5711430,22.9039627,0 
113.5711401,22.9039622,0 
113.5711373,22.9039617,0 
113.5711347,22.9039612,0 
113.5711323,22.9039607,0 
113.5711300,22.9039602,0 
113.5711278,22.9039597,0 
113.5711259,22.9039591,0 
113.5711241,22.9039586,0 
113.5711224,22.9039580,0 
113.5711210,22.9039574,0 
113.5711196,22.9039568,0 
113.5711185,22.9039562,0 
113.5711175,22.9039556,0 
113.5711167,22.9039549,0 
113.5711161,22.9039543,0 
113.5711156,22.9039537,0 
113.5711153,22.9039530,0 
113.5711152,22.9039523,0 
</coordinates>
</LineString>
</Placemark>
</Folder>