<Folder>
<name>SV 31 229.858509 14.933497</name>
<visibility>1</visibility>
<Placemark>
<name>circle</name>
<visibility>1</visibility>
<Style>
<geomColor>FFFF00FF</geomColor>
<geomScale>2</geomScale></Style>
<LineString>
<coordinates>
113.5719089,22.9037516,0 
113.5719092,22.9037513,0 
113.5719095,22.9037510,0 
113.5719098,22.9037508,0 
113.5719102,22.9037506,0 
113.5719106,22.9037504,0 
113.5719110,22.9037502,0 
113.5719114,22.9037500,0 
113.5719119,22.9037499,0 
113.5719123,22.9037498,0 
113.5719128,22.9037497,0 
113.5719134,22.9037496,0 
113.5719139,22.9037495,0 
113.5719145,22.9037495,0 
113.5719151,22.9037495,0 
113.5719157,22.9037495,0 
113.5719164,22.9037495,0 
113.5719170,22.9037496,0 
113.5719177,22.9037496,0 
113.5719184,22.9037497,0 
113.5719192,22.9037498,0 
113.5719199,22.9037500,0 
113.5719207,22.9037501,0 
113.5719215,22.9037503,0 
113.5719223,22.9037505,0 
113.5719231,22.9037507,0 
113.5719240,22.9037509,0 
113.5719249,22.9037512,0 
113.5719258,22.9037515,0 
113.5719267,22.9037518,0 
113.5719276,22.9037521,0 
113.5719285,22.9037524,0 
113.5719295,22.9037528,0 
113.5719305,22.9037531,0 
113.5719315,22.9037535,0 
113.5719325,22.9037539,0 
113.5719335,22.9037544,0 
113.5719346,22.9037548,0 
113.5719356,22.9037553,0 
113.5719367,22.9037558,0 
113.5719378,22.9037563,0 
113.5719389,22.9037568,0 
113.5719400,22.9037574,0 
113.5719411,22.9037579,0 
113.5719422,22.9037585,0 
113.5719434,22.9037591,0 
113.5719445,22.9037597,0 
113.5719457,22.9037603,0 
113.5719469,22.9037609,0 
113.5719481,22.9037616,0 
113.5719493,22.9037623,0 
113.5719505,22.9037630,0 
113.5719517,22.9037637,0 
113.5719529,22.9037644,0 
113.5719541,22.9037651,0 
113.5719553,22.9037659,0 
113.5719566,22.9037666,0 
113.5719578,22.9037674,0 
113.5719590,22.9037682,0 
113.5719603,22.9037690,0 
113.5719615,22.9037698,0 
113.5719628,22.9037706,0 
113.5719640,22.9037714,0 
113.5719653,22.9037723,0 
113.5719665,22.9037731,0 
113.5719678,22.9037740,0 
113.5719691,22.9037749,0 
113.5719703,22.9037758,0 
113.5719716,22.9037767,0 
113.5719728,22.9037776,0 
113.5719741,22.9037785,0 
113.5719753,22.9037794,0 
113.5719766,22.9037803,0 
113.5719778,22.9037813,0 
113.5719790,22.9037822,0 
113.5719803,22.9037832,0 
113.5719815,22.9037841,0 
113.5719827,22.9037851,0 
113.5719839,22.9037861,0 
113.5719851,22.9037870,0 
113.5719863,22.9037880,0 
113.5719875,22.9037890,0 
113.5719887,22.9037900,0 
113.5719899,22.9037910,0 
113.5719910,22.9037920,0 
113.5719922,22.9037929,0 
113.5719933,22.9037939,0 
113.5719944,22.9037949,0 
113.5719956,22.9037959,0 
113.5719967,22.9037969,0 
113.5719978,22.9037979,0 
113.5719988,22.9037989,0 
113.5719999,22.9037999,0 
113.5720009,22.9038009,0 
113.5720020,22.9038019,0 
113.5720030,22.9038029,0 
113.5720040,22.9038039,0 
113.5720050,22.9038049,0 
113.5720060,22.9038059,0 
113.5720069,22.9038068,0 
113.5720079,22.9038078,0 
113.5720088,22.9038088,0 
113.5720097,22.9038097,0 
113.5720106,22.9038107,0 
113.5720114,22.9038117,0 
113.5720123,22.9038126,0 
113.5720131,22.9038135,0 
113.5720139,22.9038145,0 
113.5720147,22.9038154,0 
113.5720155,22.9038163,0 
113.5720162,22.9038172,0 
113.5720169,22.9038181,0 
113.5720176,22.9038190,0 
113.5720183,22.9038199,0 
113.5720190,22.9038208,0 
113.5720196,22.9038216,0 
113.5720202,22.9038225,0 
113.5720208,22.9038233,0 
113.5720214,22.9038241,0 
113.5720219,22.9038249,0 
113.5720224,22.9038257,0 
113.5720229,22.9038265,0 
113.5720234,22.9038273,0 
113.5720238,22.9038281,0 
113.5720243,22.9038288,0 
113.5720247,22.9038296,0 
113.5720250,22.9038303,0 
113.5720254,22.9038310,0 
113.5720257,22.9038317,0 
113.5720260,22.9038324,0 
113.5720263,22.9038330,0 
113.5720265,22.9038337,0 
113.5720267,22.9038343,0 
113.5720269,22.9038349,0 
113.5720271,22.9038355,0 
113.5720272,22.9038361,0 
113.5720273,22.9038367,0 
113.5720274,22.9038372,0 
113.5720275,22.9038377,0 
113.5720275,22.9038382,0 
113.5720275,22.9038387,0 
113.5720275,22.9038392,0 
113.5720274,22.9038397,0 
113.5720274,22.9038401,0 
113.5720273,22.9038405,0 
113.5720271,22.9038409,0 
113.5720270,22.9038413,0 
113.5720268,22.9038417,0 
113.5720266,22.9038420,0 
113.5720264,22.9038423,0 
113.5720261,22.9038426,0 
113.5720259,22.9038429,0 
113.5720256,22.9038432,0 
113.5720252,22.9038434,0 
113.5720249,22.9038436,0 
113.5720245,22.9038438,0 
113.5720241,22.9038440,0 
113.5720236,22.9038442,0 
113.5720232,22.9038443,0 
113.5720227,22.9038444,0 
113.5720222,22.9038445,0 
113.5720217,22.9038446,0 
113.5720211,22.9038447,0 
113.5720206,22.9038447,0 
113.5720200,22.9038447,0 
113.5720193,22.9038447,0 
113.5720187,22.9038447,0 
113.5720180,22.9038446,0 
113.5720173,22.9038445,0 
113.5720166,22.9038445,0 
113.5720159,22.9038443,0 
113.5720151,22.9038442,0 
113.5720144,22.9038441,0 
113.5720136,22.9038439,0 
113.5720128,22.9038437,0 
113.5720119,22.9038435,0 
113.5720111,22.9038432,0 
113.5720102,22.9038430,0 
113.5720093,22.9038427,0 
113.5720084,22.9038424,0 
113.5720075,22.9038421,0 
113.5720065,22.9038418,0 
113.5720055,22.9038414,0 
113.5720046,22.9038410,0 
113.5720036,22.9038406,0 
113.5720026,22.9038402,0 
113.5720015,22.9038398,0 
113.5720005,22.9038394,0 
113.5719994,22.9038389,0 
113.5719984,22.9038384,0 
113.5719973,22.9038379,0 
113.5719962,22.9038374,0 
113.5719951,22.9038368,0 
113.5719940,22.9038363,0 
113.5719928,22.9038357,0 
113.5719917,22.9038351,0 
113.5719905,22.9038345,0 
113.5719894,22.9038339,0 
113.5719882,22.9038332,0 
113.5719870,22.9038326,0 
113.5719858,22.9038319,0 
113.5719846,22.9038312,0 
113.5719834,22.9038305,0 
113.5719822,22.9038298,0 
113.5719810,22.9038291,0 
113.5719797,22.9038283,0 
113.5719785,22.9038276,0 
113.5719773,22.9038268,0 
113.5719760,22.9038260,0 
113.5719748,22.9038252,0 
113.5719735,22.9038244,0 
113.5719723,22.9038236,0 
113.5719710,22.9038227,0 
113.5719698,22.9038219,0 
113.5719685,22.9038210,0 
113.5719673,22.9038202,0 
113.5719660,22.9038193,0 
113.5719647,22.9038184,0 
113.5719635,22.9038175,0 
113.5719622,22.9038166,0 
113.5719610,22.9038157,0 
113.5719597,22.9038148,0 
113.5719585,22.9038138,0 
113.5719573,22.9038129,0 
113.5719560,22.9038120,0 
113.5719548,22.9038110,0 
113.5719536,22.9038100,0 
113.5719523,22.9038091,0 
113.5719511,22.9038081,0 
113.5719499,22.9038071,0 
113.5719487,22.9038062,0 
113.5719475,22.9038052,0 
113.5719464,22.9038042,0 
113.5719452,22.9038032,0 
113.5719440,22.9038022,0 
113.5719429,22.9038012,0 
113.5719417,22.9038002,0 
113.5719406,22.9037992,0 
113.5719395,22.9037982,0 
113.5719384,22.9037973,0 
113.5719373,22.9037963,0 
113.5719362,22.9037953,0 
113.5719352,22.9037943,0 
113.5719341,22.9037933,0 
113.5719331,22.9037923,0 
113.5719321,22.9037913,0 
113.5719310,22.9037903,0 
113.5719301,22.9037893,0 
113.5719291,22.9037883,0 
113.5719281,22.9037873,0 
113.5719272,22.9037864,0 
113.5719263,22.9037854,0 
113.5719254,22.9037844,0 
113.5719245,22.9037835,0 
113.5719236,22.9037825,0 
113.5719228,22.9037816,0 
113.5719219,22.9037806,0 
113.5719211,22.9037797,0 
113.5719204,22.9037788,0 
113.5719196,22.9037779,0 
113.5719188,22.9037770,0 
113.5719181,22.9037761,0 
113.5719174,22.9037752,0 
113.5719167,22.9037743,0 
113.5719161,22.9037734,0 
113.5719154,22.9037726,0 
113.5719148,22.9037717,0 
113.5719142,22.9037709,0 
113.5719137,22.9037701,0 
113.5719131,22.9037692,0 
113.5719126,22.9037684,0 
113.5719121,22.9037676,0 
113.5719117,22.9037669,0 
113.5719112,22.9037661,0 
113.5719108,22.9037654,0 
113.5719104,22.9037646,0 
113.5719100,22.9037639,0 
113.5719097,22.9037632,0 
113.5719094,22.9037625,0 
113.5719091,22.9037618,0 
113.5719088,22.9037612,0 
113.5719086,22.9037605,0 
113.5719083,22.9037599,0 
113.5719082,22.9037593,0 
113.5719080,22.9037587,0 
113.5719079,22.9037581,0 
113.5719077,22.9037575,0 
113.5719077,22.9037570,0 
113.5719076,22.9037565,0 
113.5719076,22.9037559,0 
113.5719076,22.9037554,0 
113.5719076,22.9037550,0 
113.5719076,22.9037545,0 
113.5719077,22.9037541,0 
113.5719078,22.9037537,0 
113.5719079,22.9037533,0 
113.5719081,22.9037529,0 
113.5719082,22.9037525,0 
113.5719084,22.9037522,0 
113.5719087,22.9037519,0 
113.5719089,22.9037516,0 
</coordinates>
</LineString>
</Placemark>
</Folder>