<Folder>
<name>SV  5 283.967472 8.510954</name>
<visibility>1</visibility>
<Placemark>
<name>circle</name>
<visibility>1</visibility>
<Style>
<geomColor>FF006400</geomColor>
<geomScale>2</geomScale></Style>
<LineString>
<coordinates>
113.5716050,22.9040134,0 
113.5716049,22.9040129,0 
113.5716049,22.9040124,0 
113.5716049,22.9040118,0 
113.5716050,22.9040113,0 
113.5716053,22.9040107,0 
113.5716055,22.9040101,0 
113.5716059,22.9040095,0 
113.5716063,22.9040089,0 
113.5716069,22.9040083,0 
113.5716074,22.9040076,0 
113.5716081,22.9040069,0 
113.5716088,22.9040063,0 
113.5716097,22.9040056,0 
113.5716106,22.9040049,0 
113.5716115,22.9040041,0 
113.5716125,22.9040034,0 
113.5716137,22.9040026,0 
113.5716148,22.9040019,0 
113.5716161,22.9040011,0 
113.5716174,22.9040003,0 
113.5716188,22.9039995,0 
113.5716203,22.9039987,0 
113.5716218,22.9039979,0 
113.5716234,22.9039971,0 
113.5716251,22.9039962,0 
113.5716268,22.9039954,0 
113.5716286,22.9039945,0 
113.5716305,22.9039936,0 
113.5716325,22.9039927,0 
113.5716345,22.9039918,0 
113.5716365,22.9039910,0 
113.5716386,22.9039900,0 
113.5716408,22.9039891,0 
113.5716431,22.9039882,0 
113.5716454,22.9039873,0 
113.5716478,22.9039864,0 
113.5716502,22.9039854,0 
113.5716527,22.9039845,0 
113.5716552,22.9039835,0 
113.5716578,22.9039826,0 
113.5716605,22.9039816,0 
113.5716632,22.9039807,0 
113.5716659,22.9039797,0 
113.5716687,22.9039787,0 
113.5716716,22.9039778,0 
113.5716744,22.9039768,0 
113.5716774,22.9039758,0 
113.5716804,22.9039749,0 
113.5716834,22.9039739,0 
113.5716865,22.9039729,0 
113.5716896,22.9039719,0 
113.5716927,22.9039710,0 
113.5716959,22.9039700,0 
113.5716991,22.9039690,0 
113.5717024,22.9039681,0 
113.5717057,22.9039671,0 
113.5717090,22.9039661,0 
113.5717124,22.9039652,0 
113.5717158,22.9039642,0 
113.5717192,22.9039633,0 
113.5717226,22.9039623,0 
113.5717261,22.9039614,0 
113.5717296,22.9039605,0 
113.5717331,22.9039595,0 
113.5717366,22.9039586,0 
113.5717401,22.9039577,0 
113.5717437,22.9039568,0 
113.5717473,22.9039559,0 
113.5717509,22.9039550,0 
113.5717545,22.9039541,0 
113.5717581,22.9039532,0 
113.5717617,22.9039524,0 
113.5717654,22.9039515,0 
113.5717690,22.9039506,0 
113.5717727,22.9039498,0 
113.5717763,22.9039490,0 
113.5717799,22.9039481,0 
113.5717836,22.9039473,0 
113.5717872,22.9039465,0 
113.5717909,22.9039458,0 
113.5717945,22.9039450,0 
113.5717982,22.9039442,0 
113.5718018,22.9039435,0 
113.5718054,22.9039427,0 
113.5718090,22.9039420,0 
113.5718126,22.9039413,0 
113.5718161,22.9039406,0 
113.5718197,22.9039399,0 
113.5718232,22.9039393,0 
113.5718268,22.9039386,0 
113.5718303,22.9039380,0 
113.5718337,22.9039374,0 
113.5718372,22.9039368,0 
113.5718406,22.9039362,0 
113.5718440,22.9039356,0 
113.5718474,22.9039351,0 
113.5718507,22.9039345,0 
113.5718540,22.9039340,0 
113.5718573,22.9039335,0 
113.5718606,22.9039330,0 
113.5718638,22.9039326,0 
113.5718669,22.9039321,0 
113.5718701,22.9039317,0 
113.5718732,22.9039313,0 
113.5718762,22.9039309,0 
113.5718792,22.9039305,0 
113.5718822,22.9039302,0 
113.5718851,22.9039298,0 
113.5718880,22.9039295,0 
113.5718908,22.9039292,0 
113.5718936,22.9039289,0 
113.5718963,22.9039287,0 
113.5718990,22.9039284,0 
113.5719016,22.9039282,0 
113.5719041,22.9039280,0 
113.5719067,22.9039278,0 
113.5719091,22.9039277,0 
113.5719115,22.9039275,0 
113.5719139,22.9039274,0 
113.5719161,22.9039273,0 
113.5719184,22.9039272,0 
113.5719205,22.9039272,0 
113.5719226,22.9039271,0 
113.5719246,22.9039271,0 
113.5719266,22.9039271,0 
113.5719285,22.9039271,0 
113.5719304,22.9039272,0 
113.5719321,22.9039273,0 
113.5719338,22.9039273,0 
113.5719355,22.9039274,0 
113.5719371,22.9039276,0 
113.5719386,22.9039277,0 
113.5719400,22.9039279,0 
113.5719414,22.9039281,0 
113.5719426,22.9039283,0 
113.5719439,22.9039285,0 
113.5719450,22.9039287,0 
113.5719461,22.9039290,0 
113.5719471,22.9039293,0 
113.5719480,22.9039296,0 
113.5719489,22.9039299,0 
113.5719496,22.9039302,0 
113.5719503,22.9039306,0 
113.5719510,22.9039310,0 
113.5719515,22.9039314,0 
113.5719520,22.9039318,0 
113.5719524,22.9039322,0 
113.5719527,22.9039327,0 
113.5719530,22.9039332,0 
113.5719531,22.9039336,0 
113.5719532,22.9039342,0 
113.5719533,22.9039347,0 
113.5719532,22.9039352,0 
113.5719531,22.9039358,0 
113.5719529,22.9039363,0 
113.5719526,22.9039369,0 
113.5719522,22.9039375,0 
113.5719518,22.9039382,0 
113.5719513,22.9039388,0 
113.5719507,22.9039395,0 
113.5719500,22.9039401,0 
113.5719493,22.9039408,0 
113.5719485,22.9039415,0 
113.5719476,22.9039422,0 
113.5719466,22.9039429,0 
113.5719456,22.9039437,0 
113.5719445,22.9039444,0 
113.5719433,22.9039452,0 
113.5719420,22.9039460,0 
113.5719407,22.9039467,0 
113.5719393,22.9039475,0 
113.5719378,22.9039484,0 
113.5719363,22.9039492,0 
113.5719347,22.9039500,0 
113.5719330,22.9039509,0 
113.5719313,22.9039517,0 
113.5719295,22.9039526,0 
113.5719276,22.9039534,0 
113.5719257,22.9039543,0 
113.5719237,22.9039552,0 
113.5719216,22.9039561,0 
113.5719195,22.9039570,0 
113.5719173,22.9039579,0 
113.5719150,22.9039588,0 
113.5719127,22.9039598,0 
113.5719103,22.9039607,0 
113.5719079,22.9039616,0 
113.5719054,22.9039626,0 
113.5719029,22.9039635,0 
113.5719003,22.9039645,0 
113.5718977,22.9039654,0 
113.5718950,22.9039664,0 
113.5718922,22.9039674,0 
113.5718894,22.9039683,0 
113.5718866,22.9039693,0 
113.5718837,22.9039703,0 
113.5718807,22.9039712,0 
113.5718778,22.9039722,0 
113.5718747,22.9039732,0 
113.5718717,22.9039741,0 
113.5718685,22.9039751,0 
113.5718654,22.9039761,0 
113.5718622,22.9039771,0 
113.5718590,22.9039780,0 
113.5718557,22.9039790,0 
113.5718524,22.9039800,0 
113.5718491,22.9039809,0 
113.5718457,22.9039819,0 
113.5718424,22.9039828,0 
113.5718390,22.9039838,0 
113.5718355,22.9039847,0 
113.5718320,22.9039857,0 
113.5718286,22.9039866,0 
113.5718251,22.9039875,0 
113.5718215,22.9039885,0 
113.5718180,22.9039894,0 
113.5718144,22.9039903,0 
113.5718108,22.9039912,0 
113.5718072,22.9039921,0 
113.5718036,22.9039930,0 
113.5718000,22.9039938,0 
113.5717964,22.9039947,0 
113.5717928,22.9039956,0 
113.5717891,22.9039964,0 
113.5717855,22.9039973,0 
113.5717818,22.9039981,0 
113.5717782,22.9039989,0 
113.5717745,22.9039997,0 
113.5717709,22.9040005,0 
113.5717672,22.9040013,0 
113.5717636,22.9040021,0 
113.5717600,22.9040028,0 
113.5717563,22.9040036,0 
113.5717527,22.9040043,0 
113.5717491,22.9040050,0 
113.5717455,22.9040057,0 
113.5717420,22.9040064,0 
113.5717384,22.9040071,0 
113.5717349,22.9040078,0 
113.5717314,22.9040084,0 
113.5717279,22.9040091,0 
113.5717244,22.9040097,0 
113.5717209,22.9040103,0 
113.5717175,22.9040109,0 
113.5717141,22.9040114,0 
113.5717107,22.9040120,0 
113.5717074,22.9040125,0 
113.5717041,22.9040130,0 
113.5717008,22.9040135,0 
113.5716976,22.9040140,0 
113.5716944,22.9040145,0 
113.5716912,22.9040149,0 
113.5716881,22.9040154,0 
113.5716850,22.9040158,0 
113.5716819,22.9040162,0 
113.5716789,22.9040166,0 
113.5716759,22.9040169,0 
113.5716730,22.9040172,0 
113.5716702,22.9040176,0 
113.5716673,22.9040179,0 
113.5716646,22.9040181,0 
113.5716618,22.9040184,0 
113.5716592,22.9040186,0 
113.5716565,22.9040189,0 
113.5716540,22.9040191,0 
113.5716515,22.9040192,0 
113.5716490,22.9040194,0 
113.5716466,22.9040195,0 
113.5716443,22.9040197,0 
113.5716420,22.9040197,0 
113.5716398,22.9040198,0 
113.5716376,22.9040199,0 
113.5716355,22.9040199,0 
113.5716335,22.9040199,0 
113.5716315,22.9040199,0 
113.5716296,22.9040199,0 
113.5716278,22.9040199,0 
113.5716260,22.9040198,0 
113.5716243,22.9040197,0 
113.5716226,22.9040196,0 
113.5716211,22.9040195,0 
113.5716196,22.9040194,0 
113.5716181,22.9040192,0 
113.5716168,22.9040190,0 
113.5716155,22.9040188,0 
113.5716143,22.9040186,0 
113.5716131,22.9040183,0 
113.5716120,22.9040181,0 
113.5716110,22.9040178,0 
113.5716101,22.9040175,0 
113.5716093,22.9040172,0 
113.5716085,22.9040168,0 
113.5716078,22.9040165,0 
113.5716071,22.9040161,0 
113.5716066,22.9040157,0 
113.5716061,22.9040153,0 
113.5716057,22.9040148,0 
113.5716054,22.9040144,0 
113.5716051,22.9040139,0 
113.5716050,22.9040134,0 
</coordinates>
</LineString>
</Placemark>
</Folder>