<Folder>
<name>SV 36 228.504234 9.754768</name>
<visibility>1</visibility>
<Placemark>
<name>circle</name>
<visibility>1</visibility>
<Style>
<geomColor></geomColor>
<geomScale>2</geomScale></Style>
<LineString>
<coordinates>
113.5717741,22.9036345,0 
113.5717745,22.9036341,0 
113.5717749,22.9036338,0 
113.5717754,22.9036336,0 
113.5717759,22.9036334,0 
113.5717765,22.9036332,0 
113.5717771,22.9036330,0 
113.5717777,22.9036329,0 
113.5717784,22.9036329,0 
113.5717792,22.9036328,0 
113.5717800,22.9036329,0 
113.5717808,22.9036329,0 
113.5717817,22.9036330,0 
113.5717827,22.9036332,0 
113.5717836,22.9036333,0 
113.5717847,22.9036336,0 
113.5717857,22.9036338,0 
113.5717868,22.9036341,0 
113.5717880,22.9036345,0 
113.5717892,22.9036348,0 
113.5717904,22.9036352,0 
113.5717917,22.9036357,0 
113.5717930,22.9036362,0 
113.5717944,22.9036367,0 
113.5717957,22.9036373,0 
113.5717972,22.9036379,0 
113.5717987,22.9036386,0 
113.5718002,22.9036392,0 
113.5718017,22.9036400,0 
113.5718033,22.9036407,0 
113.5718049,22.9036415,0 
113.5718066,22.9036424,0 
113.5718083,22.9036432,0 
113.5718100,22.9036441,0 
113.5718117,22.9036451,0 
113.5718135,22.9036460,0 
113.5718153,22.9036471,0 
113.5718172,22.9036481,0 
113.5718191,22.9036492,0 
113.5718210,22.9036503,0 
113.5718229,22.9036514,0 
113.5718249,22.9036526,0 
113.5718269,22.9036538,0 
113.5718289,22.9036550,0 
113.5718309,22.9036563,0 
113.5718330,22.9036576,0 
113.5718351,22.9036589,0 
113.5718372,22.9036603,0 
113.5718393,22.9036617,0 
113.5718414,22.9036631,0 
113.5718436,22.9036645,0 
113.5718458,22.9036660,0 
113.5718480,22.9036675,0 
113.5718502,22.9036690,0 
113.5718524,22.9036705,0 
113.5718547,22.9036721,0 
113.5718569,22.9036736,0 
113.5718592,22.9036753,0 
113.5718615,22.9036769,0 
113.5718638,22.9036785,0 
113.5718661,22.9036802,0 
113.5718684,22.9036819,0 
113.5718707,22.9036836,0 
113.5718730,22.9036853,0 
113.5718753,22.9036871,0 
113.5718777,22.9036888,0 
113.5718800,22.9036906,0 
113.5718823,22.9036924,0 
113.5718847,22.9036942,0 
113.5718870,22.9036960,0 
113.5718893,22.9036978,0 
113.5718917,22.9036997,0 
113.5718940,22.9037015,0 
113.5718963,22.9037034,0 
113.5718986,22.9037052,0 
113.5719009,22.9037071,0 
113.5719032,22.9037090,0 
113.5719055,22.9037109,0 
113.5719078,22.9037128,0 
113.5719101,22.9037147,0 
113.5719124,22.9037166,0 
113.5719146,22.9037185,0 
113.5719169,22.9037204,0 
113.5719191,22.9037223,0 
113.5719213,22.9037243,0 
113.5719235,22.9037262,0 
113.5719257,22.9037281,0 
113.5719278,22.9037300,0 
113.5719300,22.9037319,0 
113.5719321,22.9037338,0 
113.5719342,22.9037357,0 
113.5719363,22.9037376,0 
113.5719383,22.9037395,0 
113.5719404,22.9037414,0 
113.5719424,22.9037433,0 
113.5719444,22.9037452,0 
113.5719463,22.9037470,0 
113.5719482,22.9037489,0 
113.5719501,22.9037507,0 
113.5719520,22.9037525,0 
113.5719539,22.9037544,0 
113.5719557,22.9037562,0 
113.5719575,22.9037579,0 
113.5719592,22.9037597,0 
113.5719609,22.9037615,0 
113.5719626,22.9037632,0 
113.5719642,22.9037649,0 
113.5719659,22.9037667,0 
113.5719674,22.9037683,0 
113.5719690,22.9037700,0 
113.5719705,22.9037717,0 
113.5719719,22.9037733,0 
113.5719734,22.9037749,0 
113.5719748,22.9037765,0 
113.5719761,22.9037780,0 
113.5719774,22.9037796,0 
113.5719787,22.9037811,0 
113.5719799,22.9037826,0 
113.5719811,22.9037841,0 
113.5719822,22.9037855,0 
113.5719833,22.9037869,0 
113.5719844,22.9037883,0 
113.5719854,22.9037896,0 
113.5719864,22.9037910,0 
113.5719873,22.9037923,0 
113.5719882,22.9037935,0 
113.5719890,22.9037948,0 
113.5719898,22.9037960,0 
113.5719905,22.9037972,0 
113.5719912,22.9037983,0 
113.5719919,22.9037994,0 
113.5719925,22.9038005,0 
113.5719930,22.9038015,0 
113.5719935,22.9038025,0 
113.5719940,22.9038035,0 
113.5719944,22.9038045,0 
113.5719948,22.9038054,0 
113.5719951,22.9038062,0 
113.5719953,22.9038071,0 
113.5719955,22.9038079,0 
113.5719957,22.9038086,0 
113.5719958,22.9038094,0 
113.5719959,22.9038101,0 
113.5719959,22.9038107,0 
113.5719959,22.9038113,0 
113.5719958,22.9038119,0 
113.5719957,22.9038124,0 
113.5719955,22.9038129,0 
113.5719953,22.9038134,0 
113.5719950,22.9038138,0 
113.5719947,22.9038142,0 
113.5719943,22.9038145,0 
113.5719939,22.9038148,0 
113.5719934,22.9038151,0 
113.5719929,22.9038153,0 
113.5719924,22.9038155,0 
113.5719917,22.9038156,0 
113.5719911,22.9038157,0 
113.5719904,22.9038158,0 
113.5719896,22.9038158,0 
113.5719888,22.9038158,0 
113.5719880,22.9038157,0 
113.5719871,22.9038156,0 
113.5719862,22.9038155,0 
113.5719852,22.9038153,0 
113.5719842,22.9038151,0 
113.5719831,22.9038148,0 
113.5719820,22.9038145,0 
113.5719809,22.9038142,0 
113.5719797,22.9038138,0 
113.5719784,22.9038134,0 
113.5719772,22.9038130,0 
113.5719758,22.9038125,0 
113.5719745,22.9038119,0 
113.5719731,22.9038114,0 
113.5719716,22.9038108,0 
113.5719702,22.9038101,0 
113.5719687,22.9038094,0 
113.5719671,22.9038087,0 
113.5719655,22.9038079,0 
113.5719639,22.9038071,0 
113.5719623,22.9038063,0 
113.5719606,22.9038054,0 
113.5719588,22.9038045,0 
113.5719571,22.9038036,0 
113.5719553,22.9038026,0 
113.5719535,22.9038016,0 
113.5719516,22.9038006,0 
113.5719498,22.9037995,0 
113.5719479,22.9037984,0 
113.5719459,22.9037972,0 
113.5719440,22.9037961,0 
113.5719420,22.9037949,0 
113.5719400,22.9037936,0 
113.5719379,22.9037924,0 
113.5719359,22.9037911,0 
113.5719338,22.9037897,0 
113.5719317,22.9037884,0 
113.5719295,22.9037870,0 
113.5719274,22.9037856,0 
113.5719252,22.9037842,0 
113.5719231,22.9037827,0 
113.5719209,22.9037812,0 
113.5719186,22.9037797,0 
113.5719164,22.9037782,0 
113.5719142,22.9037766,0 
113.5719119,22.9037750,0 
113.5719096,22.9037734,0 
113.5719074,22.9037718,0 
113.5719051,22.9037701,0 
113.5719028,22.9037685,0 
113.5719005,22.9037668,0 
113.5718982,22.9037651,0 
113.5718958,22.9037633,0 
113.5718935,22.9037616,0 
113.5718912,22.9037598,0 
113.5718888,22.9037581,0 
113.5718865,22.9037563,0 
113.5718842,22.9037545,0 
113.5718818,22.9037527,0 
113.5718795,22.9037508,0 
113.5718772,22.9037490,0 
113.5718748,22.9037471,0 
113.5718725,22.9037453,0 
113.5718702,22.9037434,0 
113.5718679,22.9037415,0 
113.5718656,22.9037397,0 
113.5718633,22.9037378,0 
113.5718610,22.9037359,0 
113.5718587,22.9037340,0 
113.5718565,22.9037321,0 
113.5718542,22.9037301,0 
113.5718520,22.9037282,0 
113.5718497,22.9037263,0 
113.5718475,22.9037244,0 
113.5718453,22.9037225,0 
113.5718431,22.9037206,0 
113.5718410,22.9037187,0 
113.5718388,22.9037167,0 
113.5718367,22.9037148,0 
113.5718346,22.9037129,0 
113.5718325,22.9037110,0 
113.5718305,22.9037091,0 
113.5718285,22.9037073,0 
113.5718265,22.9037054,0 
113.5718245,22.9037035,0 
113.5718225,22.9037016,0 
113.5718206,22.9036998,0 
113.5718187,22.9036980,0 
113.5718168,22.9036961,0 
113.5718150,22.9036943,0 
113.5718132,22.9036925,0 
113.5718114,22.9036907,0 
113.5718096,22.9036889,0 
113.5718079,22.9036872,0 
113.5718062,22.9036854,0 
113.5718046,22.9036837,0 
113.5718030,22.9036820,0 
113.5718014,22.9036803,0 
113.5717999,22.9036786,0 
113.5717984,22.9036770,0 
113.5717969,22.9036754,0 
113.5717955,22.9036738,0 
113.5717941,22.9036722,0 
113.5717927,22.9036706,0 
113.5717914,22.9036691,0 
113.5717901,22.9036676,0 
113.5717889,22.9036661,0 
113.5717877,22.9036646,0 
113.5717866,22.9036632,0 
113.5717855,22.9036618,0 
113.5717844,22.9036604,0 
113.5717834,22.9036590,0 
113.5717825,22.9036577,0 
113.5717815,22.9036564,0 
113.5717807,22.9036551,0 
113.5717798,22.9036539,0 
113.5717790,22.9036527,0 
113.5717783,22.9036515,0 
113.5717776,22.9036504,0 
113.5717770,22.9036492,0 
113.5717764,22.9036482,0 
113.5717758,22.9036471,0 
113.5717753,22.9036461,0 
113.5717748,22.9036451,0 
113.5717744,22.9036442,0 
113.5717741,22.9036433,0 
113.5717738,22.9036424,0 
113.5717735,22.9036416,0 
113.5717733,22.9036408,0 
113.5717731,22.9036400,0 
113.5717730,22.9036393,0 
113.5717729,22.9036386,0 
113.5717729,22.9036380,0 
113.5717729,22.9036373,0 
113.5717730,22.9036368,0 
113.5717732,22.9036362,0 
113.5717733,22.9036357,0 
113.5717736,22.9036353,0 
113.5717738,22.9036349,0 
113.5717741,22.9036345,0 
</coordinates>
</LineString>
</Placemark>
</Folder>