<Folder>
<name>SV 36 225.994374 7.194540</name>
<visibility>1</visibility>
<Placemark>
<name>circle</name>
<visibility>1</visibility>
<Style>
<geomColor></geomColor>
<geomScale>2</geomScale></Style>
<LineString>
<coordinates>
113.5716357,22.9034869,0 
113.5716362,22.9034865,0 
113.5716367,22.9034862,0 
113.5716373,22.9034860,0 
113.5716380,22.9034858,0 
113.5716388,22.9034857,0 
113.5716396,22.9034857,0 
113.5716405,22.9034857,0 
113.5716415,22.9034858,0 
113.5716425,22.9034859,0 
113.5716437,22.9034862,0 
113.5716448,22.9034864,0 
113.5716461,22.9034868,0 
113.5716474,22.9034872,0 
113.5716488,22.9034877,0 
113.5716503,22.9034882,0 
113.5716518,22.9034889,0 
113.5716534,22.9034895,0 
113.5716551,22.9034903,0 
113.5716568,22.9034911,0 
113.5716586,22.9034920,0 
113.5716605,22.9034929,0 
113.5716624,22.9034939,0 
113.5716644,22.9034950,0 
113.5716664,22.9034961,0 
113.5716685,22.9034973,0 
113.5716707,22.9034985,0 
113.5716729,22.9034999,0 
113.5716752,22.9035012,0 
113.5716776,22.9035027,0 
113.5716800,22.9035042,0 
113.5716824,22.9035057,0 
113.5716849,22.9035073,0 
113.5716875,22.9035090,0 
113.5716901,22.9035107,0 
113.5716927,22.9035125,0 
113.5716954,22.9035143,0 
113.5716982,22.9035162,0 
113.5717010,22.9035181,0 
113.5717038,22.9035201,0 
113.5717067,22.9035221,0 
113.5717097,22.9035242,0 
113.5717126,22.9035264,0 
113.5717157,22.9035285,0 
113.5717187,22.9035308,0 
113.5717218,22.9035331,0 
113.5717249,22.9035354,0 
113.5717281,22.9035378,0 
113.5717313,22.9035402,0 
113.5717345,22.9035426,0 
113.5717378,22.9035451,0 
113.5717411,22.9035477,0 
113.5717444,22.9035503,0 
113.5717477,22.9035529,0 
113.5717511,22.9035555,0 
113.5717545,22.9035582,0 
113.5717579,22.9035609,0 
113.5717613,22.9035637,0 
113.5717648,22.9035665,0 
113.5717683,22.9035693,0 
113.5717717,22.9035722,0 
113.5717752,22.9035750,0 
113.5717788,22.9035779,0 
113.5717823,22.9035809,0 
113.5717858,22.9035838,0 
113.5717894,22.9035868,0 
113.5717929,22.9035898,0 
113.5717965,22.9035928,0 
113.5718000,22.9035959,0 
113.5718036,22.9035989,0 
113.5718071,22.9036020,0 
113.5718107,22.9036051,0 
113.5718143,22.9036082,0 
113.5718178,22.9036113,0 
113.5718214,22.9036145,0 
113.5718249,22.9036176,0 
113.5718284,22.9036208,0 
113.5718319,22.9036239,0 
113.5718355,22.9036271,0 
113.5718389,22.9036302,0 
113.5718424,22.9036334,0 
113.5718459,22.9036366,0 
113.5718493,22.9036397,0 
113.5718528,22.9036429,0 
113.5718562,22.9036461,0 
113.5718595,22.9036492,0 
113.5718629,22.9036524,0 
113.5718662,22.9036556,0 
113.5718695,22.9036587,0 
113.5718728,22.9036618,0 
113.5718761,22.9036650,0 
113.5718793,22.9036681,0 
113.5718824,22.9036712,0 
113.5718856,22.9036742,0 
113.5718887,22.9036773,0 
113.5718918,22.9036804,0 
113.5718948,22.9036834,0 
113.5718978,22.9036864,0 
113.5719008,22.9036894,0 
113.5719037,22.9036923,0 
113.5719065,22.9036953,0 
113.5719094,22.9036982,0 
113.5719121,22.9037011,0 
113.5719149,22.9037039,0 
113.5719176,22.9037068,0 
113.5719202,22.9037096,0 
113.5719228,22.9037123,0 
113.5719253,22.9037151,0 
113.5719278,22.9037178,0 
113.5719302,22.9037204,0 
113.5719326,22.9037231,0 
113.5719349,22.9037257,0 
113.5719371,22.9037282,0 
113.5719393,22.9037307,0 
113.5719415,22.9037332,0 
113.5719436,22.9037356,0 
113.5719456,22.9037380,0 
113.5719475,22.9037404,0 
113.5719494,22.9037427,0 
113.5719513,22.9037449,0 
113.5719530,22.9037471,0 
113.5719547,22.9037493,0 
113.5719563,22.9037514,0 
113.5719579,22.9037534,0 
113.5719594,22.9037554,0 
113.5719608,22.9037574,0 
113.5719622,22.9037593,0 
113.5719635,22.9037611,0 
113.5719647,22.9037629,0 
113.5719659,22.9037646,0 
113.5719670,22.9037663,0 
113.5719680,22.9037679,0 
113.5719689,22.9037695,0 
113.5719698,22.9037710,0 
113.5719706,22.9037725,0 
113.5719713,22.9037739,0 
113.5719719,22.9037752,0 
113.5719725,22.9037765,0 
113.5719730,22.9037777,0 
113.5719734,22.9037788,0 
113.5719738,22.9037799,0 
113.5719741,22.9037809,0 
113.5719743,22.9037819,0 
113.5719744,22.9037828,0 
113.5719745,22.9037836,0 
113.5719745,22.9037844,0 
113.5719744,22.9037851,0 
113.5719742,22.9037857,0 
113.5719740,22.9037863,0 
113.5719736,22.9037868,0 
113.5719732,22.9037872,0 
113.5719728,22.9037876,0 
113.5719722,22.9037879,0 
113.5719716,22.9037882,0 
113.5719709,22.9037883,0 
113.5719702,22.9037884,0 
113.5719694,22.9037885,0 
113.5719685,22.9037885,0 
113.5719675,22.9037884,0 
113.5719664,22.9037882,0 
113.5719653,22.9037880,0 
113.5719641,22.9037877,0 
113.5719629,22.9037873,0 
113.5719615,22.9037869,0 
113.5719601,22.9037864,0 
113.5719587,22.9037859,0 
113.5719571,22.9037853,0 
113.5719555,22.9037846,0 
113.5719539,22.9037838,0 
113.5719521,22.9037830,0 
113.5719504,22.9037822,0 
113.5719485,22.9037812,0 
113.5719466,22.9037802,0 
113.5719446,22.9037792,0 
113.5719425,22.9037780,0 
113.5719404,22.9037768,0 
113.5719383,22.9037756,0 
113.5719360,22.9037743,0 
113.5719338,22.9037729,0 
113.5719314,22.9037715,0 
113.5719290,22.9037700,0 
113.5719266,22.9037684,0 
113.5719241,22.9037668,0 
113.5719215,22.9037652,0 
113.5719189,22.9037635,0 
113.5719162,22.9037617,0 
113.5719135,22.9037599,0 
113.5719108,22.9037580,0 
113.5719080,22.9037560,0 
113.5719051,22.9037541,0 
113.5719022,22.9037520,0 
113.5718993,22.9037499,0 
113.5718963,22.9037478,0 
113.5718933,22.9037456,0 
113.5718903,22.9037434,0 
113.5718872,22.9037411,0 
113.5718840,22.9037388,0 
113.5718809,22.9037364,0 
113.5718777,22.9037340,0 
113.5718744,22.9037315,0 
113.5718712,22.9037290,0 
113.5718679,22.9037265,0 
113.5718646,22.9037239,0 
113.5718612,22.9037213,0 
113.5718579,22.9037186,0 
113.5718545,22.9037159,0 
113.5718511,22.9037132,0 
113.5718476,22.9037104,0 
113.5718442,22.9037077,0 
113.5718407,22.9037048,0 
113.5718372,22.9037020,0 
113.5718337,22.9036991,0 
113.5718302,22.9036962,0 
113.5718267,22.9036933,0 
113.5718231,22.9036903,0 
113.5718196,22.9036873,0 
113.5718161,22.9036843,0 
113.5718125,22.9036813,0 
113.5718089,22.9036783,0 
113.5718054,22.9036752,0 
113.5718018,22.9036721,0 
113.5717983,22.9036690,0 
113.5717947,22.9036659,0 
113.5717912,22.9036628,0 
113.5717876,22.9036597,0 
113.5717841,22.9036565,0 
113.5717805,22.9036534,0 
113.5717770,22.9036502,0 
113.5717735,22.9036471,0 
113.5717700,22.9036439,0 
113.5717665,22.9036407,0 
113.5717631,22.9036376,0 
113.5717596,22.9036344,0 
113.5717562,22.9036312,0 
113.5717528,22.9036281,0 
113.5717494,22.9036249,0 
113.5717461,22.9036217,0 
113.5717427,22.9036186,0 
113.5717394,22.9036154,0 
113.5717362,22.9036123,0 
113.5717329,22.9036092,0 
113.5717297,22.9036061,0 
113.5717265,22.9036030,0 
113.5717234,22.9035999,0 
113.5717203,22.9035968,0 
113.5717172,22.9035938,0 
113.5717142,22.9035908,0 
113.5717112,22.9035877,0 
113.5717082,22.9035848,0 
113.5717053,22.9035818,0 
113.5717024,22.9035789,0 
113.5716996,22.9035759,0 
113.5716968,22.9035731,0 
113.5716941,22.9035702,0 
113.5716914,22.9035674,0 
113.5716888,22.9035646,0 
113.5716862,22.9035618,0 
113.5716837,22.9035591,0 
113.5716812,22.9035564,0 
113.5716788,22.9035537,0 
113.5716764,22.9035511,0 
113.5716741,22.9035485,0 
113.5716718,22.9035459,0 
113.5716696,22.9035434,0 
113.5716675,22.9035409,0 
113.5716654,22.9035385,0 
113.5716634,22.9035361,0 
113.5716614,22.9035338,0 
113.5716595,22.9035315,0 
113.5716577,22.9035292,0 
113.5716560,22.9035270,0 
113.5716543,22.9035249,0 
113.5716526,22.9035228,0 
113.5716511,22.9035207,0 
113.5716496,22.9035187,0 
113.5716481,22.9035168,0 
113.5716468,22.9035149,0 
113.5716455,22.9035130,0 
113.5716442,22.9035112,0 
113.5716431,22.9035095,0 
113.5716420,22.9035078,0 
113.5716410,22.9035062,0 
113.5716401,22.9035046,0 
113.5716392,22.9035031,0 
113.5716384,22.9035017,0 
113.5716377,22.9035003,0 
113.5716370,22.9034990,0 
113.5716364,22.9034977,0 
113.5716359,22.9034965,0 
113.5716355,22.9034953,0 
113.5716352,22.9034942,0 
113.5716349,22.9034932,0 
113.5716347,22.9034923,0 
113.5716346,22.9034914,0 
113.5716345,22.9034905,0 
113.5716345,22.9034898,0 
113.5716346,22.9034891,0 
113.5716348,22.9034884,0 
113.5716350,22.9034879,0 
113.5716353,22.9034874,0 
113.5716357,22.9034869,0 
</coordinates>
</LineString>
</Placemark>
</Folder>