<Folder>
<name>SV 25 249.279119 7.452230</name>
<visibility>1</visibility>
<Placemark>
<name>circle</name>
<visibility>1</visibility>
<Style>
<geomColor>FFFF007A</geomColor>
<geomScale>2</geomScale></Style>
<LineString>
<coordinates>
113.5715118,22.9036950,0 
113.5715121,22.9036945,0 
113.5715124,22.9036940,0 
113.5715129,22.9036936,0 
113.5715134,22.9036932,0 
113.5715141,22.9036928,0 
113.5715148,22.9036924,0 
113.5715156,22.9036921,0 
113.5715165,22.9036918,0 
113.5715175,22.9036916,0 
113.5715186,22.9036913,0 
113.5715198,22.9036912,0 
113.5715211,22.9036910,0 
113.5715225,22.9036909,0 
113.5715239,22.9036908,0 
113.5715255,22.9036908,0 
113.5715271,22.9036908,0 
113.5715288,22.9036908,0 
113.5715306,22.9036909,0 
113.5715325,22.9036910,0 
113.5715345,22.9036911,0 
113.5715366,22.9036912,0 
113.5715387,22.9036914,0 
113.5715410,22.9036917,0 
113.5715433,22.9036919,0 
113.5715456,22.9036922,0 
113.5715481,22.9036926,0 
113.5715507,22.9036929,0 
113.5715533,22.9036933,0 
113.5715560,22.9036938,0 
113.5715587,22.9036942,0 
113.5715616,22.9036947,0 
113.5715645,22.9036953,0 
113.5715675,22.9036958,0 
113.5715706,22.9036964,0 
113.5715737,22.9036971,0 
113.5715769,22.9036977,0 
113.5715801,22.9036984,0 
113.5715834,22.9036992,0 
113.5715868,22.9036999,0 
113.5715903,22.9037007,0 
113.5715938,22.9037015,0 
113.5715973,22.9037024,0 
113.5716009,22.9037032,0 
113.5716046,22.9037041,0 
113.5716083,22.9037051,0 
113.5716121,22.9037060,0 
113.5716159,22.9037070,0 
113.5716198,22.9037080,0 
113.5716237,22.9037091,0 
113.5716277,22.9037101,0 
113.5716317,22.9037112,0 
113.5716357,22.9037124,0 
113.5716398,22.9037135,0 
113.5716439,22.9037147,0 
113.5716481,22.9037159,0 
113.5716523,22.9037171,0 
113.5716565,22.9037183,0 
113.5716608,22.9037196,0 
113.5716651,22.9037209,0 
113.5716694,22.9037222,0 
113.5716737,22.9037235,0 
113.5716781,22.9037249,0 
113.5716824,22.9037262,0 
113.5716868,22.9037276,0 
113.5716913,22.9037290,0 
113.5716957,22.9037305,0 
113.5717001,22.9037319,0 
113.5717046,22.9037333,0 
113.5717090,22.9037348,0 
113.5717135,22.9037363,0 
113.5717180,22.9037378,0 
113.5717225,22.9037393,0 
113.5717269,22.9037409,0 
113.5717314,22.9037424,0 
113.5717359,22.9037439,0 
113.5717404,22.9037455,0 
113.5717448,22.9037471,0 
113.5717493,22.9037487,0 
113.5717537,22.9037503,0 
113.5717582,22.9037519,0 
113.5717626,22.9037535,0 
113.5717670,22.9037551,0 
113.5717714,22.9037567,0 
113.5717757,22.9037584,0 
113.5717801,22.9037600,0 
113.5717844,22.9037616,0 
113.5717887,22.9037633,0 
113.5717930,22.9037649,0 
113.5717972,22.9037666,0 
113.5718014,22.9037682,0 
113.5718056,22.9037699,0 
113.5718097,22.9037715,0 
113.5718138,22.9037731,0 
113.5718179,22.9037748,0 
113.5718219,22.9037764,0 
113.5718259,22.9037781,0 
113.5718298,22.9037797,0 
113.5718337,22.9037813,0 
113.5718375,22.9037830,0 
113.5718413,22.9037846,0 
113.5718451,22.9037862,0 
113.5718487,22.9037878,0 
113.5718524,22.9037894,0 
113.5718560,22.9037910,0 
113.5718595,22.9037926,0 
113.5718629,22.9037942,0 
113.5718663,22.9037957,0 
113.5718697,22.9037973,0 
113.5718729,22.9037988,0 
113.5718762,22.9038003,0 
113.5718793,22.9038018,0 
113.5718824,22.9038033,0 
113.5718854,22.9038048,0 
113.5718883,22.9038063,0 
113.5718912,22.9038077,0 
113.5718940,22.9038091,0 
113.5718967,22.9038106,0 
113.5718994,22.9038120,0 
113.5719019,22.9038133,0 
113.5719044,22.9038147,0 
113.5719068,22.9038160,0 
113.5719092,22.9038174,0 
113.5719114,22.9038187,0 
113.5719136,22.9038199,0 
113.5719157,22.9038212,0 
113.5719177,22.9038224,0 
113.5719196,22.9038236,0 
113.5719214,22.9038248,0 
113.5719232,22.9038260,0 
113.5719248,22.9038271,0 
113.5719264,22.9038282,0 
113.5719279,22.9038293,0 
113.5719293,22.9038304,0 
113.5719306,22.9038314,0 
113.5719318,22.9038324,0 
113.5719330,22.9038334,0 
113.5719340,22.9038343,0 
113.5719349,22.9038352,0 
113.5719358,22.9038361,0 
113.5719366,22.9038370,0 
113.5719372,22.9038378,0 
113.5719378,22.9038386,0 
113.5719383,22.9038394,0 
113.5719387,22.9038401,0 
113.5719390,22.9038408,0 
113.5719392,22.9038415,0 
113.5719393,22.9038422,0 
113.5719393,22.9038428,0 
113.5719392,22.9038434,0 
113.5719391,22.9038439,0 
113.5719388,22.9038444,0 
113.5719384,22.9038449,0 
113.5719380,22.9038454,0 
113.5719374,22.9038458,0 
113.5719368,22.9038462,0 
113.5719361,22.9038465,0 
113.5719352,22.9038468,0 
113.5719343,22.9038471,0 
113.5719333,22.9038474,0 
113.5719322,22.9038476,0 
113.5719310,22.9038478,0 
113.5719297,22.9038479,0 
113.5719284,22.9038480,0 
113.5719269,22.9038481,0 
113.5719254,22.9038482,0 
113.5719237,22.9038482,0 
113.5719220,22.9038481,0 
113.5719202,22.9038481,0 
113.5719183,22.9038480,0 
113.5719163,22.9038479,0 
113.5719143,22.9038477,0 
113.5719121,22.9038475,0 
113.5719099,22.9038473,0 
113.5719076,22.9038470,0 
113.5719052,22.9038467,0 
113.5719027,22.9038464,0 
113.5719002,22.9038460,0 
113.5718976,22.9038456,0 
113.5718949,22.9038452,0 
113.5718921,22.9038447,0 
113.5718892,22.9038442,0 
113.5718863,22.9038437,0 
113.5718833,22.9038431,0 
113.5718803,22.9038425,0 
113.5718772,22.9038419,0 
113.5718740,22.9038412,0 
113.5718707,22.9038405,0 
113.5718674,22.9038398,0 
113.5718640,22.9038390,0 
113.5718606,22.9038383,0 
113.5718571,22.9038374,0 
113.5718535,22.9038366,0 
113.5718499,22.9038357,0 
113.5718462,22.9038348,0 
113.5718425,22.9038339,0 
113.5718387,22.9038329,0 
113.5718349,22.9038319,0 
113.5718310,22.9038309,0 
113.5718271,22.9038299,0 
113.5718232,22.9038288,0 
113.5718192,22.9038277,0 
113.5718151,22.9038266,0 
113.5718110,22.9038254,0 
113.5718069,22.9038243,0 
113.5718027,22.9038231,0 
113.5717985,22.9038219,0 
113.5717943,22.9038206,0 
113.5717901,22.9038193,0 
113.5717858,22.9038181,0 
113.5717815,22.9038168,0 
113.5717771,22.9038154,0 
113.5717728,22.9038141,0 
113.5717684,22.9038127,0 
113.5717640,22.9038113,0 
113.5717596,22.9038099,0 
113.5717552,22.9038085,0 
113.5717507,22.9038071,0 
113.5717463,22.9038056,0 
113.5717418,22.9038041,0 
113.5717373,22.9038026,0 
113.5717329,22.9038011,0 
113.5717284,22.9037996,0 
113.5717239,22.9037981,0 
113.5717194,22.9037966,0 
113.5717149,22.9037950,0 
113.5717105,22.9037934,0 
113.5717060,22.9037919,0 
113.5717015,22.9037903,0 
113.5716971,22.9037887,0 
113.5716927,22.9037871,0 
113.5716882,22.9037855,0 
113.5716838,22.9037838,0 
113.5716795,22.9037822,0 
113.5716751,22.9037806,0 
113.5716708,22.9037790,0 
113.5716664,22.9037773,0 
113.5716621,22.9037757,0 
113.5716579,22.9037740,0 
113.5716536,22.9037724,0 
113.5716494,22.9037707,0 
113.5716453,22.9037691,0 
113.5716411,22.9037674,0 
113.5716370,22.9037658,0 
113.5716330,22.9037642,0 
113.5716290,22.9037625,0 
113.5716250,22.9037609,0 
113.5716210,22.9037592,0 
113.5716172,22.9037576,0 
113.5716133,22.9037560,0 
113.5716095,22.9037544,0 
113.5716058,22.9037527,0 
113.5716021,22.9037511,0 
113.5715985,22.9037495,0 
113.5715949,22.9037479,0 
113.5715914,22.9037464,0 
113.5715879,22.9037448,0 
113.5715845,22.9037432,0 
113.5715812,22.9037417,0 
113.5715779,22.9037402,0 
113.5715747,22.9037386,0 
113.5715715,22.9037371,0 
113.5715685,22.9037356,0 
113.5715655,22.9037341,0 
113.5715625,22.9037327,0 
113.5715596,22.9037312,0 
113.5715569,22.9037298,0 
113.5715541,22.9037284,0 
113.5715515,22.9037270,0 
113.5715489,22.9037256,0 
113.5715464,22.9037242,0 
113.5715440,22.9037229,0 
113.5715417,22.9037216,0 
113.5715394,22.9037203,0 
113.5715373,22.9037190,0 
113.5715352,22.9037178,0 
113.5715332,22.9037165,0 
113.5715312,22.9037153,0 
113.5715294,22.9037141,0 
113.5715277,22.9037130,0 
113.5715260,22.9037118,0 
113.5715244,22.9037107,0 
113.5715229,22.9037097,0 
113.5715215,22.9037086,0 
113.5715202,22.9037076,0 
113.5715190,22.9037066,0 
113.5715179,22.9037056,0 
113.5715168,22.9037046,0 
113.5715159,22.9037037,0 
113.5715150,22.9037028,0 
113.5715143,22.9037020,0 
113.5715136,22.9037011,0 
113.5715130,22.9037003,0 
113.5715125,22.9036996,0 
113.5715122,22.9036988,0 
113.5715119,22.9036981,0 
113.5715117,22.9036974,0 
113.5715116,22.9036968,0 
113.5715115,22.9036962,0 
113.5715116,22.9036956,0 
113.5715118,22.9036950,0 
</coordinates>
</LineString>
</Placemark>
</Folder>