<Folder>
<name>SV 25 243.610836 5.143501</name>
<visibility>1</visibility>
<Placemark>
<name>circle</name>
<visibility>1</visibility>
<Style>
<geomColor>FFFF007A</geomColor>
<geomScale>2</geomScale></Style>
<LineString>
<coordinates>
113.5711743,22.9034769,0 
113.5711747,22.9034763,0 
113.5711753,22.9034758,0 
113.5711760,22.9034753,0 
113.5711769,22.9034750,0 
113.5711779,22.9034747,0 
113.5711792,22.9034744,0 
113.5711805,22.9034743,0 
113.5711820,22.9034742,0 
113.5711837,22.9034742,0 
113.5711856,22.9034743,0 
113.5711876,22.9034744,0 
113.5711897,22.9034746,0 
113.5711920,22.9034749,0 
113.5711945,22.9034753,0 
113.5711971,22.9034757,0 
113.5711998,22.9034763,0 
113.5712027,22.9034768,0 
113.5712057,22.9034775,0 
113.5712089,22.9034782,0 
113.5712123,22.9034790,0 
113.5712157,22.9034799,0 
113.5712194,22.9034809,0 
113.5712231,22.9034819,0 
113.5712270,22.9034830,0 
113.5712311,22.9034841,0 
113.5712352,22.9034854,0 
113.5712395,22.9034867,0 
113.5712440,22.9034880,0 
113.5712485,22.9034895,0 
113.5712532,22.9034910,0 
113.5712580,22.9034925,0 
113.5712630,22.9034942,0 
113.5712680,22.9034959,0 
113.5712732,22.9034976,0 
113.5712785,22.9034995,0 
113.5712839,22.9035014,0 
113.5712894,22.9035033,0 
113.5712950,22.9035053,0 
113.5713007,22.9035074,0 
113.5713066,22.9035096,0 
113.5713125,22.9035118,0 
113.5713186,22.9035140,0 
113.5713247,22.9035163,0 
113.5713309,22.9035187,0 
113.5713372,22.9035211,0 
113.5713436,22.9035236,0 
113.5713501,22.9035261,0 
113.5713567,22.9035287,0 
113.5713633,22.9035313,0 
113.5713701,22.9035340,0 
113.5713769,22.9035367,0 
113.5713837,22.9035395,0 
113.5713907,22.9035423,0 
113.5713977,22.9035451,0 
113.5714047,22.9035480,0 
113.5714119,22.9035510,0 
113.5714190,22.9035540,0 
113.5714263,22.9035570,0 
113.5714336,22.9035601,0 
113.5714409,22.9035632,0 
113.5714482,22.9035663,0 
113.5714557,22.9035695,0 
113.5714631,22.9035727,0 
113.5714706,22.9035759,0 
113.5714781,22.9035791,0 
113.5714856,22.9035824,0 
113.5714932,22.9035857,0 
113.5715007,22.9035891,0 
113.5715083,22.9035925,0 
113.5715159,22.9035958,0 
113.5715235,22.9035992,0 
113.5715312,22.9036027,0 
113.5715388,22.9036061,0 
113.5715464,22.9036096,0 
113.5715540,22.9036130,0 
113.5715616,22.9036165,0 
113.5715692,22.9036200,0 
113.5715768,22.9036235,0 
113.5715844,22.9036271,0 
113.5715919,22.9036306,0 
113.5715995,22.9036341,0 
113.5716070,22.9036376,0 
113.5716144,22.9036412,0 
113.5716219,22.9036447,0 
113.5716293,22.9036483,0 
113.5716366,22.9036518,0 
113.5716439,22.9036553,0 
113.5716512,22.9036588,0 
113.5716584,22.9036624,0 
113.5716656,22.9036659,0 
113.5716727,22.9036694,0 
113.5716798,22.9036729,0 
113.5716867,22.9036763,0 
113.5716937,22.9036798,0 
113.5717005,22.9036832,0 
113.5717073,22.9036867,0 
113.5717140,22.9036901,0 
113.5717206,22.9036935,0 
113.5717272,22.9036968,0 
113.5717337,22.9037002,0 
113.5717400,22.9037035,0 
113.5717463,22.9037068,0 
113.5717525,22.9037100,0 
113.5717586,22.9037133,0 
113.5717647,22.9037165,0 
113.5717706,22.9037196,0 
113.5717764,22.9037228,0 
113.5717821,22.9037259,0 
113.5717877,22.9037289,0 
113.5717932,22.9037320,0 
113.5717985,22.9037349,0 
113.5718038,22.9037379,0 
113.5718090,22.9037408,0 
113.5718140,22.9037437,0 
113.5718189,22.9037465,0 
113.5718237,22.9037492,0 
113.5718283,22.9037520,0 
113.5718328,22.9037547,0 
113.5718372,22.9037573,0 
113.5718415,22.9037599,0 
113.5718457,22.9037624,0 
113.5718497,22.9037649,0 
113.5718535,22.9037673,0 
113.5718572,22.9037697,0 
113.5718608,22.9037720,0 
113.5718643,22.9037742,0 
113.5718676,22.9037764,0 
113.5718707,22.9037786,0 
113.5718737,22.9037807,0 
113.5718766,22.9037827,0 
113.5718793,22.9037846,0 
113.5718819,22.9037865,0 
113.5718843,22.9037884,0 
113.5718865,22.9037901,0 
113.5718887,22.9037918,0 
113.5718906,22.9037935,0 
113.5718924,22.9037951,0 
113.5718941,22.9037966,0 
113.5718955,22.9037980,0 
113.5718969,22.9037994,0 
113.5718980,22.9038007,0 
113.5718991,22.9038019,0 
113.5718999,22.9038031,0 
113.5719006,22.9038042,0 
113.5719012,22.9038052,0 
113.5719015,22.9038062,0 
113.5719017,22.9038070,0 
113.5719018,22.9038079,0 
113.5719017,22.9038086,0 
113.5719015,22.9038093,0 
113.5719010,22.9038098,0 
113.5719005,22.9038104,0 
113.5718997,22.9038108,0 
113.5718988,22.9038112,0 
113.5718978,22.9038115,0 
113.5718966,22.9038117,0 
113.5718952,22.9038119,0 
113.5718937,22.9038119,0 
113.5718920,22.9038119,0 
113.5718901,22.9038119,0 
113.5718882,22.9038117,0 
113.5718860,22.9038115,0 
113.5718837,22.9038112,0 
113.5718813,22.9038108,0 
113.5718787,22.9038104,0 
113.5718759,22.9038099,0 
113.5718730,22.9038093,0 
113.5718700,22.9038086,0 
113.5718668,22.9038079,0 
113.5718634,22.9038071,0 
113.5718600,22.9038062,0 
113.5718563,22.9038053,0 
113.5718526,22.9038043,0 
113.5718487,22.9038032,0 
113.5718447,22.9038020,0 
113.5718405,22.9038008,0 
113.5718362,22.9037995,0 
113.5718318,22.9037981,0 
113.5718272,22.9037967,0 
113.5718225,22.9037952,0 
113.5718177,22.9037936,0 
113.5718128,22.9037920,0 
113.5718077,22.9037903,0 
113.5718025,22.9037885,0 
113.5717972,22.9037867,0 
113.5717918,22.9037848,0 
113.5717863,22.9037828,0 
113.5717807,22.9037808,0 
113.5717750,22.9037787,0 
113.5717691,22.9037766,0 
113.5717632,22.9037744,0 
113.5717572,22.9037721,0 
113.5717510,22.9037698,0 
113.5717448,22.9037675,0 
113.5717385,22.9037650,0 
113.5717321,22.9037626,0 
113.5717256,22.9037600,0 
113.5717190,22.9037575,0 
113.5717124,22.9037548,0 
113.5717056,22.9037522,0 
113.5716988,22.9037494,0 
113.5716920,22.9037467,0 
113.5716850,22.9037439,0 
113.5716780,22.9037410,0 
113.5716710,22.9037381,0 
113.5716638,22.9037351,0 
113.5716567,22.9037322,0 
113.5716494,22.9037291,0 
113.5716422,22.9037261,0 
113.5716348,22.9037230,0 
113.5716275,22.9037198,0 
113.5716201,22.9037167,0 
113.5716126,22.9037135,0 
113.5716051,22.9037103,0 
113.5715976,22.9037070,0 
113.5715901,22.9037037,0 
113.5715825,22.9037004,0 
113.5715750,22.9036971,0 
113.5715674,22.9036937,0 
113.5715598,22.9036903,0 
113.5715522,22.9036869,0 
113.5715445,22.9036835,0 
113.5715369,22.9036800,0 
113.5715293,22.9036766,0 
113.5715217,22.9036731,0 
113.5715141,22.9036696,0 
113.5715065,22.9036661,0 
113.5714989,22.9036626,0 
113.5714913,22.9036591,0 
113.5714838,22.9036556,0 
113.5714762,22.9036520,0 
113.5714687,22.9036485,0 
113.5714613,22.9036450,0 
113.5714538,22.9036414,0 
113.5714464,22.9036379,0 
113.5714391,22.9036344,0 
113.5714318,22.9036308,0 
113.5714245,22.9036273,0 
113.5714173,22.9036238,0 
113.5714101,22.9036203,0 
113.5714030,22.9036168,0 
113.5713960,22.9036133,0 
113.5713890,22.9036098,0 
113.5713820,22.9036064,0 
113.5713752,22.9036029,0 
113.5713684,22.9035995,0 
113.5713617,22.9035961,0 
113.5713551,22.9035927,0 
113.5713485,22.9035893,0 
113.5713420,22.9035860,0 
113.5713357,22.9035827,0 
113.5713294,22.9035794,0 
113.5713232,22.9035761,0 
113.5713171,22.9035729,0 
113.5713111,22.9035697,0 
113.5713051,22.9035665,0 
113.5712993,22.9035634,0 
113.5712936,22.9035603,0 
113.5712880,22.9035572,0 
113.5712825,22.9035542,0 
113.5712772,22.9035512,0 
113.5712719,22.9035483,0 
113.5712668,22.9035453,0 
113.5712617,22.9035425,0 
113.5712568,22.9035397,0 
113.5712520,22.9035369,0 
113.5712474,22.9035342,0 
113.5712429,22.9035315,0 
113.5712385,22.9035289,0 
113.5712342,22.9035263,0 
113.5712301,22.9035237,0 
113.5712261,22.9035213,0 
113.5712222,22.9035188,0 
113.5712185,22.9035165,0 
113.5712149,22.9035142,0 
113.5712114,22.9035119,0 
113.5712081,22.9035097,0 
113.5712050,22.9035076,0 
113.5712020,22.9035055,0 
113.5711991,22.9035035,0 
113.5711964,22.9035015,0 
113.5711938,22.9034996,0 
113.5711914,22.9034978,0 
113.5711892,22.9034960,0 
113.5711871,22.9034943,0 
113.5711851,22.9034927,0 
113.5711833,22.9034911,0 
113.5711817,22.9034896,0 
113.5711802,22.9034881,0 
113.5711788,22.9034868,0 
113.5711777,22.9034855,0 
113.5711767,22.9034842,0 
113.5711758,22.9034831,0 
113.5711751,22.9034820,0 
113.5711746,22.9034809,0 
113.5711742,22.9034800,0 
113.5711740,22.9034791,0 
113.5711739,22.9034783,0 
113.5711740,22.9034776,0 
113.5711743,22.9034769,0 
</coordinates>
</LineString>
</Placemark>
</Folder>