<Folder>
<name>SV 31 229.858509 14.933497</name>
<visibility>1</visibility>
<Placemark>
<name>circle</name>
<visibility>1</visibility>
<Style>
<geomColor>FFFF00FF</geomColor>
<geomScale>2</geomScale></Style>
<LineString>
<coordinates>
113.5718971,22.9037423,0 
113.5718973,22.9037420,0 
113.5718977,22.9037418,0 
113.5718980,22.9037415,0 
113.5718984,22.9037413,0 
113.5718988,22.9037411,0 
113.5718992,22.9037409,0 
113.5718997,22.9037407,0 
113.5719002,22.9037406,0 
113.5719007,22.9037404,0 
113.5719012,22.9037403,0 
113.5719018,22.9037403,0 
113.5719024,22.9037402,0 
113.5719030,22.9037402,0 
113.5719036,22.9037401,0 
113.5719043,22.9037401,0 
113.5719050,22.9037402,0 
113.5719057,22.9037402,0 
113.5719064,22.9037403,0 
113.5719071,22.9037404,0 
113.5719079,22.9037405,0 
113.5719087,22.9037407,0 
113.5719095,22.9037408,0 
113.5719104,22.9037410,0 
113.5719113,22.9037412,0 
113.5719121,22.9037414,0 
113.5719130,22.9037417,0 
113.5719140,22.9037420,0 
113.5719149,22.9037422,0 
113.5719159,22.9037426,0 
113.5719169,22.9037429,0 
113.5719179,22.9037432,0 
113.5719189,22.9037436,0 
113.5719199,22.9037440,0 
113.5719210,22.9037444,0 
113.5719221,22.9037449,0 
113.5719232,22.9037453,0 
113.5719243,22.9037458,0 
113.5719254,22.9037463,0 
113.5719265,22.9037468,0 
113.5719277,22.9037474,0 
113.5719288,22.9037479,0 
113.5719300,22.9037485,0 
113.5719312,22.9037491,0 
113.5719324,22.9037497,0 
113.5719336,22.9037503,0 
113.5719348,22.9037510,0 
113.5719361,22.9037516,0 
113.5719373,22.9037523,0 
113.5719386,22.9037530,0 
113.5719399,22.9037537,0 
113.5719411,22.9037544,0 
113.5719424,22.9037552,0 
113.5719437,22.9037560,0 
113.5719450,22.9037567,0 
113.5719463,22.9037575,0 
113.5719476,22.9037583,0 
113.5719489,22.9037591,0 
113.5719502,22.9037600,0 
113.5719516,22.9037608,0 
113.5719529,22.9037617,0 
113.5719542,22.9037626,0 
113.5719555,22.9037634,0 
113.5719569,22.9037643,0 
113.5719582,22.9037652,0 
113.5719595,22.9037662,0 
113.5719609,22.9037671,0 
113.5719622,22.9037680,0 
113.5719635,22.9037690,0 
113.5719649,22.9037700,0 
113.5719662,22.9037709,0 
113.5719675,22.9037719,0 
113.5719688,22.9037729,0 
113.5719701,22.9037739,0 
113.5719714,22.9037749,0 
113.5719728,22.9037759,0 
113.5719741,22.9037769,0 
113.5719753,22.9037779,0 
113.5719766,22.9037790,0 
113.5719779,22.9037800,0 
113.5719792,22.9037810,0 
113.5719804,22.9037821,0 
113.5719817,22.9037831,0 
113.5719829,22.9037842,0 
113.5719842,22.9037852,0 
113.5719854,22.9037863,0 
113.5719866,22.9037873,0 
113.5719878,22.9037884,0 
113.5719890,22.9037894,0 
113.5719902,22.9037905,0 
113.5719913,22.9037915,0 
113.5719925,22.9037926,0 
113.5719936,22.9037937,0 
113.5719947,22.9037947,0 
113.5719958,22.9037958,0 
113.5719969,22.9037968,0 
113.5719979,22.9037979,0 
113.5719990,22.9037989,0 
113.5720000,22.9038000,0 
113.5720010,22.9038010,0 
113.5720020,22.9038020,0 
113.5720030,22.9038031,0 
113.5720040,22.9038041,0 
113.5720049,22.9038051,0 
113.5720058,22.9038061,0 
113.5720067,22.9038071,0 
113.5720076,22.9038081,0 
113.5720085,22.9038091,0 
113.5720093,22.9038101,0 
113.5720101,22.9038110,0 
113.5720109,22.9038120,0 
113.5720117,22.9038130,0 
113.5720124,22.9038139,0 
113.5720131,22.9038148,0 
113.5720138,22.9038158,0 
113.5720145,22.9038167,0 
113.5720151,22.9038176,0 
113.5720158,22.9038185,0 
113.5720164,22.9038193,0 
113.5720169,22.9038202,0 
113.5720175,22.9038211,0 
113.5720180,22.9038219,0 
113.5720185,22.9038227,0 
113.5720190,22.9038235,0 
113.5720194,22.9038243,0 
113.5720199,22.9038251,0 
113.5720202,22.9038259,0 
113.5720206,22.9038266,0 
113.5720210,22.9038274,0 
113.5720213,22.9038281,0 
113.5720215,22.9038288,0 
113.5720218,22.9038295,0 
113.5720220,22.9038301,0 
113.5720222,22.9038308,0 
113.5720224,22.9038314,0 
113.5720226,22.9038320,0 
113.5720227,22.9038326,0 
113.5720228,22.9038332,0 
113.5720228,22.9038338,0 
113.5720229,22.9038343,0 
113.5720229,22.9038348,0 
113.5720229,22.9038353,0 
113.5720228,22.9038358,0 
113.5720227,22.9038363,0 
113.5720226,22.9038367,0 
113.5720225,22.9038372,0 
113.5720223,22.9038376,0 
113.5720222,22.9038379,0 
113.5720219,22.9038383,0 
113.5720217,22.9038386,0 
113.5720214,22.9038390,0 
113.5720211,22.9038393,0 
113.5720208,22.9038395,0 
113.5720205,22.9038398,0 
113.5720201,22.9038400,0 
113.5720197,22.9038402,0 
113.5720192,22.9038404,0 
113.5720188,22.9038406,0 
113.5720183,22.9038407,0 
113.5720178,22.9038409,0 
113.5720173,22.9038410,0 
113.5720167,22.9038411,0 
113.5720161,22.9038411,0 
113.5720155,22.9038412,0 
113.5720149,22.9038412,0 
113.5720142,22.9038412,0 
113.5720135,22.9038411,0 
113.5720128,22.9038411,0 
113.5720121,22.9038410,0 
113.5720113,22.9038409,0 
113.5720106,22.9038408,0 
113.5720098,22.9038406,0 
113.5720089,22.9038405,0 
113.5720081,22.9038403,0 
113.5720072,22.9038401,0 
113.5720063,22.9038399,0 
113.5720054,22.9038396,0 
113.5720045,22.9038394,0 
113.5720036,22.9038391,0 
113.5720026,22.9038387,0 
113.5720016,22.9038384,0 
113.5720006,22.9038381,0 
113.5719996,22.9038377,0 
113.5719985,22.9038373,0 
113.5719975,22.9038369,0 
113.5719964,22.9038364,0 
113.5719953,22.9038360,0 
113.5719942,22.9038355,0 
113.5719931,22.9038350,0 
113.5719920,22.9038345,0 
113.5719908,22.9038339,0 
113.5719896,22.9038334,0 
113.5719885,22.9038328,0 
113.5719873,22.9038322,0 
113.5719861,22.9038316,0 
113.5719849,22.9038310,0 
113.5719836,22.9038303,0 
113.5719824,22.9038297,0 
113.5719812,22.9038290,0 
113.5719799,22.9038283,0 
113.5719786,22.9038276,0 
113.5719774,22.9038269,0 
113.5719761,22.9038261,0 
113.5719748,22.9038254,0 
113.5719735,22.9038246,0 
113.5719722,22.9038238,0 
113.5719709,22.9038230,0 
113.5719696,22.9038222,0 
113.5719682,22.9038213,0 
113.5719669,22.9038205,0 
113.5719656,22.9038196,0 
113.5719643,22.9038187,0 
113.5719629,22.9038179,0 
113.5719616,22.9038170,0 
113.5719603,22.9038161,0 
113.5719589,22.9038151,0 
113.5719576,22.9038142,0 
113.5719563,22.9038133,0 
113.5719550,22.9038123,0 
113.5719536,22.9038114,0 
113.5719523,22.9038104,0 
113.5719510,22.9038094,0 
113.5719497,22.9038084,0 
113.5719483,22.9038074,0 
113.5719470,22.9038064,0 
113.5719457,22.9038054,0 
113.5719444,22.9038044,0 
113.5719431,22.9038034,0 
113.5719418,22.9038024,0 
113.5719406,22.9038013,0 
113.5719393,22.9038003,0 
113.5719380,22.9037992,0 
113.5719368,22.9037982,0 
113.5719355,22.9037972,0 
113.5719343,22.9037961,0 
113.5719331,22.9037950,0 
113.5719319,22.9037940,0 
113.5719307,22.9037929,0 
113.5719295,22.9037919,0 
113.5719283,22.9037908,0 
113.5719272,22.9037898,0 
113.5719260,22.9037887,0 
113.5719249,22.9037877,0 
113.5719238,22.9037866,0 
113.5719227,22.9037855,0 
113.5719216,22.9037845,0 
113.5719205,22.9037834,0 
113.5719195,22.9037824,0 
113.5719185,22.9037814,0 
113.5719174,22.9037803,0 
113.5719164,22.9037793,0 
113.5719155,22.9037783,0 
113.5719145,22.9037772,0 
113.5719136,22.9037762,0 
113.5719127,22.9037752,0 
113.5719118,22.9037742,0 
113.5719109,22.9037732,0 
113.5719100,22.9037722,0 
113.5719092,22.9037712,0 
113.5719084,22.9037703,0 
113.5719076,22.9037693,0 
113.5719068,22.9037683,0 
113.5719061,22.9037674,0 
113.5719054,22.9037665,0 
113.5719047,22.9037655,0 
113.5719040,22.9037646,0 
113.5719033,22.9037637,0 
113.5719027,22.9037628,0 
113.5719021,22.9037620,0 
113.5719015,22.9037611,0 
113.5719010,22.9037602,0 
113.5719005,22.9037594,0 
113.5719000,22.9037586,0 
113.5718995,22.9037578,0 
113.5718990,22.9037570,0 
113.5718986,22.9037562,0 
113.5718982,22.9037554,0 
113.5718979,22.9037547,0 
113.5718975,22.9037539,0 
113.5718972,22.9037532,0 
113.5718969,22.9037525,0 
113.5718967,22.9037518,0 
113.5718964,22.9037512,0 
113.5718962,22.9037505,0 
113.5718961,22.9037499,0 
113.5718959,22.9037493,0 
113.5718958,22.9037487,0 
113.5718957,22.9037481,0 
113.5718956,22.9037475,0 
113.5718956,22.9037470,0 
113.5718956,22.9037465,0 
113.5718956,22.9037460,0 
113.5718957,22.9037455,0 
113.5718957,22.9037450,0 
113.5718958,22.9037446,0 
113.5718960,22.9037442,0 
113.5718961,22.9037437,0 
113.5718963,22.9037434,0 
113.5718965,22.9037430,0 
113.5718968,22.9037427,0 
113.5718971,22.9037423,0 
</coordinates>
</LineString>
</Placemark>
</Folder>