<Folder>
<name>SV  3 318.400347 14.928649</name>
<visibility>1</visibility>
<Placemark>
<name>circle</name>
<visibility>1</visibility>
<Style>
<geomColor>FF4CD0F5</geomColor>
<geomScale>2</geomScale></Style>
<LineString>
<coordinates>
113.5719237,22.9040830,0 
113.5719233,22.9040827,0 
113.5719230,22.9040824,0 
113.5719228,22.9040820,0 
113.5719225,22.9040817,0 
113.5719223,22.9040813,0 
113.5719221,22.9040809,0 
113.5719219,22.9040805,0 
113.5719218,22.9040800,0 
113.5719217,22.9040795,0 
113.5719216,22.9040790,0 
113.5719215,22.9040785,0 
113.5719214,22.9040780,0 
113.5719214,22.9040774,0 
113.5719214,22.9040768,0 
113.5719214,22.9040762,0 
113.5719215,22.9040756,0 
113.5719216,22.9040749,0 
113.5719217,22.9040742,0 
113.5719218,22.9040735,0 
113.5719219,22.9040728,0 
113.5719221,22.9040721,0 
113.5719223,22.9040713,0 
113.5719225,22.9040705,0 
113.5719228,22.9040697,0 
113.5719230,22.9040689,0 
113.5719233,22.9040681,0 
113.5719237,22.9040672,0 
113.5719240,22.9040663,0 
113.5719244,22.9040654,0 
113.5719248,22.9040645,0 
113.5719252,22.9040636,0 
113.5719256,22.9040627,0 
113.5719261,22.9040617,0 
113.5719266,22.9040607,0 
113.5719271,22.9040598,0 
113.5719276,22.9040588,0 
113.5719282,22.9040577,0 
113.5719287,22.9040567,0 
113.5719293,22.9040557,0 
113.5719299,22.9040546,0 
113.5719306,22.9040535,0 
113.5719312,22.9040525,0 
113.5719319,22.9040514,0 
113.5719326,22.9040503,0 
113.5719333,22.9040491,0 
113.5719341,22.9040480,0 
113.5719348,22.9040469,0 
113.5719356,22.9040457,0 
113.5719364,22.9040446,0 
113.5719372,22.9040434,0 
113.5719381,22.9040423,0 
113.5719389,22.9040411,0 
113.5719398,22.9040399,0 
113.5719407,22.9040387,0 
113.5719416,22.9040375,0 
113.5719425,22.9040363,0 
113.5719434,22.9040351,0 
113.5719444,22.9040339,0 
113.5719453,22.9040327,0 
113.5719463,22.9040315,0 
113.5719473,22.9040303,0 
113.5719483,22.9040291,0 
113.5719493,22.9040279,0 
113.5719503,22.9040267,0 
113.5719514,22.9040254,0 
113.5719524,22.9040242,0 
113.5719535,22.9040230,0 
113.5719546,22.9040218,0 
113.5719557,22.9040206,0 
113.5719568,22.9040194,0 
113.5719579,22.9040182,0 
113.5719590,22.9040170,0 
113.5719601,22.9040158,0 
113.5719613,22.9040146,0 
113.5719624,22.9040134,0 
113.5719635,22.9040122,0 
113.5719647,22.9040110,0 
113.5719659,22.9040099,0 
113.5719670,22.9040087,0 
113.5719682,22.9040075,0 
113.5719694,22.9040064,0 
113.5719705,22.9040053,0 
113.5719717,22.9040041,0 
113.5719729,22.9040030,0 
113.5719741,22.9040019,0 
113.5719753,22.9040008,0 
113.5719765,22.9039997,0 
113.5719777,22.9039986,0 
113.5719788,22.9039976,0 
113.5719800,22.9039965,0 
113.5719812,22.9039955,0 
113.5719824,22.9039945,0 
113.5719836,22.9039935,0 
113.5719848,22.9039925,0 
113.5719860,22.9039915,0 
113.5719871,22.9039905,0 
113.5719883,22.9039896,0 
113.5719895,22.9039886,0 
113.5719906,22.9039877,0 
113.5719918,22.9039868,0 
113.5719930,22.9039859,0 
113.5719941,22.9039851,0 
113.5719952,22.9039842,0 
113.5719964,22.9039834,0 
113.5719975,22.9039826,0 
113.5719986,22.9039818,0 
113.5719997,22.9039810,0 
113.5720008,22.9039803,0 
113.5720019,22.9039795,0 
113.5720030,22.9039788,0 
113.5720040,22.9039781,0 
113.5720051,22.9039775,0 
113.5720061,22.9039768,0 
113.5720072,22.9039762,0 
113.5720082,22.9039756,0 
113.5720092,22.9039750,0 
113.5720102,22.9039745,0 
113.5720112,22.9039739,0 
113.5720121,22.9039734,0 
113.5720131,22.9039729,0 
113.5720140,22.9039725,0 
113.5720149,22.9039720,0 
113.5720158,22.9039716,0 
113.5720167,22.9039712,0 
113.5720176,22.9039708,0 
113.5720184,22.9039705,0 
113.5720193,22.9039702,0 
113.5720201,22.9039699,0 
113.5720209,22.9039696,0 
113.5720216,22.9039693,0 
113.5720224,22.9039691,0 
113.5720231,22.9039689,0 
113.5720239,22.9039688,0 
113.5720246,22.9039686,0 
113.5720252,22.9039685,0 
113.5720259,22.9039684,0 
113.5720265,22.9039683,0 
113.5720272,22.9039683,0 
113.5720277,22.9039683,0 
113.5720283,22.9039683,0 
113.5720289,22.9039683,0 
113.5720294,22.9039683,0 
113.5720299,22.9039684,0 
113.5720304,22.9039685,0 
113.5720309,22.9039687,0 
113.5720313,22.9039688,0 
113.5720317,22.9039690,0 
113.5720321,22.9039692,0 
113.5720325,22.9039695,0 
113.5720328,22.9039697,0 
113.5720331,22.9039700,0 
113.5720334,22.9039703,0 
113.5720337,22.9039706,0 
113.5720339,22.9039710,0 
113.5720342,22.9039714,0 
113.5720344,22.9039718,0 
113.5720345,22.9039722,0 
113.5720347,22.9039727,0 
113.5720348,22.9039731,0 
113.5720349,22.9039736,0 
113.5720350,22.9039742,0 
113.5720350,22.9039747,0 
113.5720351,22.9039753,0 
113.5720351,22.9039759,0 
113.5720350,22.9039765,0 
113.5720350,22.9039771,0 
113.5720349,22.9039778,0 
113.5720348,22.9039785,0 
113.5720347,22.9039792,0 
113.5720345,22.9039799,0 
113.5720344,22.9039806,0 
113.5720342,22.9039814,0 
113.5720339,22.9039822,0 
113.5720337,22.9039830,0 
113.5720334,22.9039838,0 
113.5720331,22.9039846,0 
113.5720328,22.9039855,0 
113.5720325,22.9039863,0 
113.5720321,22.9039872,0 
113.5720317,22.9039881,0 
113.5720313,22.9039891,0 
113.5720308,22.9039900,0 
113.5720304,22.9039910,0 
113.5720299,22.9039919,0 
113.5720294,22.9039929,0 
113.5720289,22.9039939,0 
113.5720283,22.9039949,0 
113.5720277,22.9039960,0 
113.5720271,22.9039970,0 
113.5720265,22.9039981,0 
113.5720259,22.9039991,0 
113.5720252,22.9040002,0 
113.5720245,22.9040013,0 
113.5720238,22.9040024,0 
113.5720231,22.9040035,0 
113.5720224,22.9040047,0 
113.5720216,22.9040058,0 
113.5720208,22.9040069,0 
113.5720200,22.9040081,0 
113.5720192,22.9040092,0 
113.5720184,22.9040104,0 
113.5720175,22.9040116,0 
113.5720167,22.9040128,0 
113.5720158,22.9040140,0 
113.5720149,22.9040151,0 
113.5720140,22.9040163,0 
113.5720130,22.9040175,0 
113.5720121,22.9040187,0 
113.5720111,22.9040199,0 
113.5720102,22.9040212,0 
113.5720092,22.9040224,0 
113.5720082,22.9040236,0 
113.5720071,22.9040248,0 
113.5720061,22.9040260,0 
113.5720051,22.9040272,0 
113.5720040,22.9040285,0 
113.5720029,22.9040297,0 
113.5720019,22.9040309,0 
113.5720008,22.9040321,0 
113.5719997,22.9040333,0 
113.5719986,22.9040345,0 
113.5719975,22.9040357,0 
113.5719963,22.9040369,0 
113.5719952,22.9040381,0 
113.5719941,22.9040393,0 
113.5719929,22.9040405,0 
113.5719918,22.9040417,0 
113.5719906,22.9040428,0 
113.5719894,22.9040440,0 
113.5719883,22.9040451,0 
113.5719871,22.9040463,0 
113.5719859,22.9040474,0 
113.5719847,22.9040486,0 
113.5719836,22.9040497,0 
113.5719824,22.9040508,0 
113.5719812,22.9040519,0 
113.5719800,22.9040530,0 
113.5719788,22.9040540,0 
113.5719776,22.9040551,0 
113.5719764,22.9040562,0 
113.5719752,22.9040572,0 
113.5719740,22.9040582,0 
113.5719729,22.9040592,0 
113.5719717,22.9040602,0 
113.5719705,22.9040612,0 
113.5719693,22.9040622,0 
113.5719681,22.9040631,0 
113.5719670,22.9040641,0 
113.5719658,22.9040650,0 
113.5719647,22.9040659,0 
113.5719635,22.9040668,0 
113.5719624,22.9040676,0 
113.5719612,22.9040685,0 
113.5719601,22.9040693,0 
113.5719590,22.9040701,0 
113.5719578,22.9040709,0 
113.5719567,22.9040717,0 
113.5719556,22.9040724,0 
113.5719546,22.9040731,0 
113.5719535,22.9040739,0 
113.5719524,22.9040745,0 
113.5719514,22.9040752,0 
113.5719503,22.9040759,0 
113.5719493,22.9040765,0 
113.5719483,22.9040771,0 
113.5719473,22.9040777,0 
113.5719463,22.9040782,0 
113.5719453,22.9040788,0 
113.5719443,22.9040793,0 
113.5719434,22.9040798,0 
113.5719425,22.9040802,0 
113.5719415,22.9040807,0 
113.5719406,22.9040811,0 
113.5719398,22.9040815,0 
113.5719389,22.9040819,0 
113.5719380,22.9040822,0 
113.5719372,22.9040825,0 
113.5719364,22.9040828,0 
113.5719356,22.9040831,0 
113.5719348,22.9040833,0 
113.5719341,22.9040836,0 
113.5719333,22.9040838,0 
113.5719326,22.9040839,0 
113.5719319,22.9040841,0 
113.5719312,22.9040842,0 
113.5719306,22.9040843,0 
113.5719299,22.9040844,0 
113.5719293,22.9040844,0 
113.5719287,22.9040844,0 
113.5719281,22.9040844,0 
113.5719276,22.9040844,0 
113.5719271,22.9040843,0 
113.5719266,22.9040842,0 
113.5719261,22.9040841,0 
113.5719256,22.9040840,0 
113.5719252,22.9040839,0 
113.5719248,22.9040837,0 
113.5719244,22.9040835,0 
113.5719240,22.9040832,0 
113.5719237,22.9040830,0 
</coordinates>
</LineString>
</Placemark>
</Folder>