<Folder>
<name>SV 25 249.279119 7.452230</name>
<visibility>1</visibility>
<Placemark>
<name>circle</name>
<visibility>1</visibility>
<Style>
<geomColor>FFFF007A</geomColor>
<geomScale>2</geomScale></Style>
<LineString>
<coordinates>
113.5714910,22.9036878,0 
113.5714913,22.9036872,0 
113.5714916,22.9036867,0 
113.5714921,22.9036863,0 
113.5714927,22.9036858,0 
113.5714934,22.9036854,0 
113.5714941,22.9036851,0 
113.5714950,22.9036847,0 
113.5714959,22.9036844,0 
113.5714970,22.9036842,0 
113.5714981,22.9036840,0 
113.5714993,22.9036838,0 
113.5715007,22.9036836,0 
113.5715021,22.9036835,0 
113.5715036,22.9036834,0 
113.5715052,22.9036834,0 
113.5715069,22.9036834,0 
113.5715087,22.9036834,0 
113.5715106,22.9036835,0 
113.5715125,22.9036836,0 
113.5715146,22.9036837,0 
113.5715167,22.9036839,0 
113.5715190,22.9036841,0 
113.5715213,22.9036843,0 
113.5715237,22.9036846,0 
113.5715262,22.9036849,0 
113.5715287,22.9036852,0 
113.5715314,22.9036856,0 
113.5715341,22.9036860,0 
113.5715369,22.9036865,0 
113.5715398,22.9036870,0 
113.5715427,22.9036875,0 
113.5715457,22.9036880,0 
113.5715488,22.9036886,0 
113.5715520,22.9036893,0 
113.5715552,22.9036899,0 
113.5715586,22.9036906,0 
113.5715619,22.9036913,0 
113.5715654,22.9036921,0 
113.5715689,22.9036928,0 
113.5715725,22.9036937,0 
113.5715761,22.9036945,0 
113.5715798,22.9036954,0 
113.5715835,22.9036963,0 
113.5715874,22.9036972,0 
113.5715912,22.9036982,0 
113.5715951,22.9036992,0 
113.5715991,22.9037002,0 
113.5716031,22.9037013,0 
113.5716072,22.9037024,0 
113.5716113,22.9037035,0 
113.5716155,22.9037046,0 
113.5716197,22.9037058,0 
113.5716239,22.9037070,0 
113.5716282,22.9037082,0 
113.5716325,22.9037094,0 
113.5716369,22.9037107,0 
113.5716413,22.9037120,0 
113.5716457,22.9037133,0 
113.5716501,22.9037146,0 
113.5716546,22.9037160,0 
113.5716591,22.9037174,0 
113.5716636,22.9037188,0 
113.5716682,22.9037202,0 
113.5716727,22.9037216,0 
113.5716773,22.9037231,0 
113.5716819,22.9037246,0 
113.5716865,22.9037261,0 
113.5716911,22.9037276,0 
113.5716958,22.9037291,0 
113.5717004,22.9037306,0 
113.5717051,22.9037322,0 
113.5717097,22.9037338,0 
113.5717144,22.9037354,0 
113.5717190,22.9037370,0 
113.5717237,22.9037386,0 
113.5717283,22.9037402,0 
113.5717329,22.9037418,0 
113.5717376,22.9037435,0 
113.5717422,22.9037451,0 
113.5717468,22.9037468,0 
113.5717514,22.9037485,0 
113.5717559,22.9037501,0 
113.5717605,22.9037518,0 
113.5717650,22.9037535,0 
113.5717695,22.9037552,0 
113.5717740,22.9037569,0 
113.5717785,22.9037586,0 
113.5717829,22.9037603,0 
113.5717873,22.9037620,0 
113.5717917,22.9037637,0 
113.5717960,22.9037655,0 
113.5718003,22.9037672,0 
113.5718045,22.9037689,0 
113.5718088,22.9037706,0 
113.5718129,22.9037723,0 
113.5718171,22.9037740,0 
113.5718211,22.9037757,0 
113.5718252,22.9037774,0 
113.5718292,22.9037791,0 
113.5718331,22.9037808,0 
113.5718370,22.9037824,0 
113.5718408,22.9037841,0 
113.5718446,22.9037858,0 
113.5718483,22.9037874,0 
113.5718519,22.9037891,0 
113.5718555,22.9037907,0 
113.5718591,22.9037923,0 
113.5718625,22.9037939,0 
113.5718659,22.9037955,0 
113.5718693,22.9037971,0 
113.5718725,22.9037987,0 
113.5718757,22.9038002,0 
113.5718788,22.9038017,0 
113.5718819,22.9038033,0 
113.5718849,22.9038048,0 
113.5718878,22.9038063,0 
113.5718906,22.9038077,0 
113.5718933,22.9038092,0 
113.5718960,22.9038106,0 
113.5718986,22.9038120,0 
113.5719011,22.9038134,0 
113.5719035,22.9038148,0 
113.5719059,22.9038161,0 
113.5719081,22.9038174,0 
113.5719103,22.9038187,0 
113.5719124,22.9038200,0 
113.5719144,22.9038213,0 
113.5719163,22.9038225,0 
113.5719181,22.9038237,0 
113.5719198,22.9038249,0 
113.5719214,22.9038260,0 
113.5719230,22.9038272,0 
113.5719244,22.9038283,0 
113.5719258,22.9038293,0 
113.5719271,22.9038304,0 
113.5719282,22.9038314,0 
113.5719293,22.9038324,0 
113.5719303,22.9038333,0 
113.5719312,22.9038343,0 
113.5719320,22.9038352,0 
113.5719327,22.9038360,0 
113.5719333,22.9038368,0 
113.5719338,22.9038377,0 
113.5719342,22.9038384,0 
113.5719345,22.9038392,0 
113.5719347,22.9038399,0 
113.5719348,22.9038405,0 
113.5719348,22.9038412,0 
113.5719347,22.9038418,0 
113.5719346,22.9038423,0 
113.5719343,22.9038429,0 
113.5719339,22.9038434,0 
113.5719334,22.9038439,0 
113.5719329,22.9038443,0 
113.5719322,22.9038447,0 
113.5719314,22.9038451,0 
113.5719306,22.9038454,0 
113.5719296,22.9038457,0 
113.5719286,22.9038459,0 
113.5719274,22.9038462,0 
113.5719262,22.9038464,0 
113.5719249,22.9038465,0 
113.5719235,22.9038466,0 
113.5719219,22.9038467,0 
113.5719203,22.9038468,0 
113.5719186,22.9038468,0 
113.5719169,22.9038467,0 
113.5719150,22.9038467,0 
113.5719130,22.9038466,0 
113.5719110,22.9038464,0 
113.5719088,22.9038463,0 
113.5719066,22.9038461,0 
113.5719043,22.9038458,0 
113.5719019,22.9038456,0 
113.5718994,22.9038452,0 
113.5718968,22.9038449,0 
113.5718942,22.9038445,0 
113.5718915,22.9038441,0 
113.5718887,22.9038437,0 
113.5718858,22.9038432,0 
113.5718829,22.9038426,0 
113.5718798,22.9038421,0 
113.5718767,22.9038415,0 
113.5718736,22.9038409,0 
113.5718703,22.9038402,0 
113.5718670,22.9038395,0 
113.5718636,22.9038388,0 
113.5718602,22.9038381,0 
113.5718567,22.9038373,0 
113.5718531,22.9038365,0 
113.5718495,22.9038356,0 
113.5718458,22.9038347,0 
113.5718420,22.9038338,0 
113.5718382,22.9038329,0 
113.5718343,22.9038319,0 
113.5718304,22.9038309,0 
113.5718264,22.9038299,0 
113.5718224,22.9038288,0 
113.5718184,22.9038278,0 
113.5718142,22.9038267,0 
113.5718101,22.9038255,0 
113.5718059,22.9038244,0 
113.5718016,22.9038232,0 
113.5717974,22.9038219,0 
113.5717930,22.9038207,0 
113.5717887,22.9038194,0 
113.5717843,22.9038182,0 
113.5717799,22.9038168,0 
113.5717754,22.9038155,0 
113.5717710,22.9038141,0 
113.5717665,22.9038128,0 
113.5717619,22.9038114,0 
113.5717574,22.9038100,0 
113.5717528,22.9038085,0 
113.5717482,22.9038071,0 
113.5717436,22.9038056,0 
113.5717390,22.9038041,0 
113.5717344,22.9038026,0 
113.5717298,22.9038010,0 
113.5717251,22.9037995,0 
113.5717205,22.9037979,0 
113.5717158,22.9037964,0 
113.5717112,22.9037948,0 
113.5717065,22.9037932,0 
113.5717019,22.9037916,0 
113.5716973,22.9037899,0 
113.5716926,22.9037883,0 
113.5716880,22.9037867,0 
113.5716834,22.9037850,0 
113.5716788,22.9037833,0 
113.5716742,22.9037817,0 
113.5716696,22.9037800,0 
113.5716651,22.9037783,0 
113.5716605,22.9037766,0 
113.5716560,22.9037749,0 
113.5716515,22.9037732,0 
113.5716471,22.9037715,0 
113.5716427,22.9037698,0 
113.5716383,22.9037681,0 
113.5716339,22.9037664,0 
113.5716296,22.9037647,0 
113.5716253,22.9037630,0 
113.5716210,22.9037613,0 
113.5716168,22.9037595,0 
113.5716126,22.9037578,0 
113.5716085,22.9037561,0 
113.5716044,22.9037544,0 
113.5716004,22.9037527,0 
113.5715964,22.9037511,0 
113.5715925,22.9037494,0 
113.5715886,22.9037477,0 
113.5715848,22.9037460,0 
113.5715810,22.9037444,0 
113.5715773,22.9037427,0 
113.5715736,22.9037411,0 
113.5715700,22.9037394,0 
113.5715665,22.9037378,0 
113.5715630,22.9037362,0 
113.5715596,22.9037346,0 
113.5715563,22.9037330,0 
113.5715530,22.9037315,0 
113.5715498,22.9037299,0 
113.5715467,22.9037284,0 
113.5715437,22.9037269,0 
113.5715407,22.9037254,0 
113.5715378,22.9037239,0 
113.5715350,22.9037224,0 
113.5715322,22.9037210,0 
113.5715295,22.9037195,0 
113.5715270,22.9037181,0 
113.5715245,22.9037167,0 
113.5715220,22.9037154,0 
113.5715197,22.9037140,0 
113.5715174,22.9037127,0 
113.5715153,22.9037114,0 
113.5715132,22.9037101,0 
113.5715112,22.9037089,0 
113.5715093,22.9037076,0 
113.5715075,22.9037064,0 
113.5715057,22.9037052,0 
113.5715041,22.9037041,0 
113.5715026,22.9037030,0 
113.5715011,22.9037019,0 
113.5714998,22.9037008,0 
113.5714985,22.9036998,0 
113.5714973,22.9036987,0 
113.5714962,22.9036978,0 
113.5714953,22.9036968,0 
113.5714944,22.9036959,0 
113.5714936,22.9036950,0 
113.5714929,22.9036941,0 
113.5714923,22.9036933,0 
113.5714918,22.9036925,0 
113.5714914,22.9036917,0 
113.5714911,22.9036910,0 
113.5714909,22.9036903,0 
113.5714908,22.9036896,0 
113.5714907,22.9036890,0 
113.5714908,22.9036884,0 
113.5714910,22.9036878,0 
</coordinates>
</LineString>
</Placemark>
</Folder>