<Folder>
<name>SV  3 321.303845 10.940096</name>
<visibility>1</visibility>
<Placemark>
<name>circle</name>
<visibility>1</visibility>
<Style>
<geomColor>FF4CD0F5</geomColor>
<geomScale>2</geomScale></Style>
<LineString>
<coordinates>
113.5718542,22.9041826,0 
113.5718538,22.9041823,0 
113.5718535,22.9041819,0 
113.5718532,22.9041815,0 
113.5718529,22.9041811,0 
113.5718527,22.9041806,0 
113.5718524,22.9041801,0 
113.5718523,22.9041795,0 
113.5718521,22.9041789,0 
113.5718520,22.9041783,0 
113.5718520,22.9041776,0 
113.5718520,22.9041768,0 
113.5718520,22.9041761,0 
113.5718520,22.9041753,0 
113.5718521,22.9041744,0 
113.5718522,22.9041736,0 
113.5718524,22.9041727,0 
113.5718526,22.9041717,0 
113.5718528,22.9041707,0 
113.5718531,22.9041697,0 
113.5718534,22.9041686,0 
113.5718538,22.9041675,0 
113.5718541,22.9041664,0 
113.5718546,22.9041652,0 
113.5718550,22.9041640,0 
113.5718555,22.9041628,0 
113.5718560,22.9041615,0 
113.5718566,22.9041602,0 
113.5718572,22.9041589,0 
113.5718578,22.9041576,0 
113.5718585,22.9041562,0 
113.5718592,22.9041548,0 
113.5718599,22.9041533,0 
113.5718607,22.9041518,0 
113.5718615,22.9041503,0 
113.5718623,22.9041488,0 
113.5718632,22.9041472,0 
113.5718641,22.9041457,0 
113.5718650,22.9041440,0 
113.5718659,22.9041424,0 
113.5718669,22.9041407,0 
113.5718680,22.9041391,0 
113.5718690,22.9041374,0 
113.5718701,22.9041356,0 
113.5718712,22.9041339,0 
113.5718723,22.9041321,0 
113.5718735,22.9041303,0 
113.5718747,22.9041285,0 
113.5718759,22.9041267,0 
113.5718771,22.9041249,0 
113.5718784,22.9041230,0 
113.5718797,22.9041212,0 
113.5718810,22.9041193,0 
113.5718824,22.9041174,0 
113.5718838,22.9041155,0 
113.5718851,22.9041136,0 
113.5718866,22.9041116,0 
113.5718880,22.9041097,0 
113.5718895,22.9041077,0 
113.5718909,22.9041058,0 
113.5718924,22.9041038,0 
113.5718940,22.9041018,0 
113.5718955,22.9040998,0 
113.5718970,22.9040979,0 
113.5718986,22.9040959,0 
113.5719002,22.9040939,0 
113.5719018,22.9040919,0 
113.5719034,22.9040899,0 
113.5719051,22.9040879,0 
113.5719067,22.9040859,0 
113.5719084,22.9040839,0 
113.5719100,22.9040819,0 
113.5719117,22.9040799,0 
113.5719134,22.9040779,0 
113.5719151,22.9040759,0 
113.5719168,22.9040739,0 
113.5719186,22.9040720,0 
113.5719203,22.9040700,0 
113.5719220,22.9040681,0 
113.5719238,22.9040661,0 
113.5719255,22.9040642,0 
113.5719273,22.9040622,0 
113.5719290,22.9040603,0 
113.5719308,22.9040584,0 
113.5719325,22.9040565,0 
113.5719343,22.9040547,0 
113.5719361,22.9040528,0 
113.5719378,22.9040509,0 
113.5719396,22.9040491,0 
113.5719414,22.9040473,0 
113.5719431,22.9040455,0 
113.5719449,22.9040437,0 
113.5719466,22.9040420,0 
113.5719484,22.9040402,0 
113.5719501,22.9040385,0 
113.5719519,22.9040368,0 
113.5719536,22.9040352,0 
113.5719553,22.9040335,0 
113.5719570,22.9040319,0 
113.5719588,22.9040303,0 
113.5719604,22.9040287,0 
113.5719621,22.9040272,0 
113.5719638,22.9040256,0 
113.5719655,22.9040241,0 
113.5719671,22.9040227,0 
113.5719688,22.9040212,0 
113.5719704,22.9040198,0 
113.5719720,22.9040185,0 
113.5719736,22.9040171,0 
113.5719752,22.9040158,0 
113.5719767,22.9040145,0 
113.5719782,22.9040133,0 
113.5719798,22.9040120,0 
113.5719813,22.9040109,0 
113.5719828,22.9040097,0 
113.5719842,22.9040086,0 
113.5719857,22.9040075,0 
113.5719871,22.9040065,0 
113.5719885,22.9040055,0 
113.5719899,22.9040045,0 
113.5719912,22.9040035,0 
113.5719925,22.9040026,0 
113.5719938,22.9040018,0 
113.5719951,22.9040010,0 
113.5719964,22.9040002,0 
113.5719976,22.9039994,0 
113.5719988,22.9039987,0 
113.5720000,22.9039981,0 
113.5720011,22.9039974,0 
113.5720022,22.9039968,0 
113.5720033,22.9039963,0 
113.5720044,22.9039958,0 
113.5720054,22.9039953,0 
113.5720064,22.9039949,0 
113.5720073,22.9039945,0 
113.5720083,22.9039941,0 
113.5720092,22.9039938,0 
113.5720100,22.9039936,0 
113.5720109,22.9039934,0 
113.5720117,22.9039932,0 
113.5720125,22.9039930,0 
113.5720132,22.9039929,0 
113.5720139,22.9039929,0 
113.5720146,22.9039929,0 
113.5720152,22.9039929,0 
113.5720158,22.9039930,0 
113.5720164,22.9039931,0 
113.5720169,22.9039932,0 
113.5720174,22.9039934,0 
113.5720179,22.9039937,0 
113.5720183,22.9039940,0 
113.5720187,22.9039943,0 
113.5720190,22.9039946,0 
113.5720193,22.9039950,0 
113.5720196,22.9039955,0 
113.5720199,22.9039960,0 
113.5720201,22.9039965,0 
113.5720202,22.9039971,0 
113.5720204,22.9039977,0 
113.5720205,22.9039983,0 
113.5720205,22.9039990,0 
113.5720206,22.9039997,0 
113.5720205,22.9040005,0 
113.5720205,22.9040013,0 
113.5720204,22.9040021,0 
113.5720203,22.9040030,0 
113.5720201,22.9040039,0 
113.5720199,22.9040049,0 
113.5720197,22.9040059,0 
113.5720194,22.9040069,0 
113.5720191,22.9040079,0 
113.5720188,22.9040090,0 
113.5720184,22.9040102,0 
113.5720180,22.9040113,0 
113.5720175,22.9040125,0 
113.5720170,22.9040138,0 
113.5720165,22.9040150,0 
113.5720159,22.9040163,0 
113.5720153,22.9040177,0 
113.5720147,22.9040190,0 
113.5720140,22.9040204,0 
113.5720134,22.9040218,0 
113.5720126,22.9040233,0 
113.5720119,22.9040247,0 
113.5720111,22.9040263,0 
113.5720102,22.9040278,0 
113.5720094,22.9040293,0 
113.5720085,22.9040309,0 
113.5720075,22.9040325,0 
113.5720066,22.9040342,0 
113.5720056,22.9040358,0 
113.5720046,22.9040375,0 
113.5720035,22.9040392,0 
113.5720024,22.9040409,0 
113.5720013,22.9040427,0 
113.5720002,22.9040444,0 
113.5719990,22.9040462,0 
113.5719978,22.9040480,0 
113.5719966,22.9040499,0 
113.5719954,22.9040517,0 
113.5719941,22.9040535,0 
113.5719928,22.9040554,0 
113.5719915,22.9040573,0 
113.5719901,22.9040592,0 
113.5719888,22.9040611,0 
113.5719874,22.9040630,0 
113.5719860,22.9040650,0 
113.5719845,22.9040669,0 
113.5719831,22.9040688,0 
113.5719816,22.9040708,0 
113.5719801,22.9040728,0 
113.5719786,22.9040748,0 
113.5719770,22.9040767,0 
113.5719755,22.9040787,0 
113.5719739,22.9040807,0 
113.5719723,22.9040827,0 
113.5719707,22.9040847,0 
113.5719691,22.9040867,0 
113.5719675,22.9040887,0 
113.5719658,22.9040907,0 
113.5719642,22.9040927,0 
113.5719625,22.9040947,0 
113.5719608,22.9040967,0 
113.5719591,22.9040987,0 
113.5719574,22.9041007,0 
113.5719557,22.9041026,0 
113.5719540,22.9041046,0 
113.5719522,22.9041066,0 
113.5719505,22.9041085,0 
113.5719488,22.9041105,0 
113.5719470,22.9041124,0 
113.5719453,22.9041143,0 
113.5719435,22.9041163,0 
113.5719417,22.9041182,0 
113.5719400,22.9041201,0 
113.5719382,22.9041219,0 
113.5719365,22.9041238,0 
113.5719347,22.9041256,0 
113.5719329,22.9041275,0 
113.5719312,22.9041293,0 
113.5719294,22.9041311,0 
113.5719276,22.9041329,0 
113.5719259,22.9041346,0 
113.5719241,22.9041363,0 
113.5719224,22.9041381,0 
113.5719207,22.9041398,0 
113.5719189,22.9041414,0 
113.5719172,22.9041431,0 
113.5719155,22.9041447,0 
113.5719138,22.9041463,0 
113.5719121,22.9041479,0 
113.5719104,22.9041494,0 
113.5719087,22.9041509,0 
113.5719071,22.9041524,0 
113.5719054,22.9041539,0 
113.5719038,22.9041553,0 
113.5719021,22.9041567,0 
113.5719005,22.9041581,0 
113.5718990,22.9041595,0 
113.5718974,22.9041608,0 
113.5718958,22.9041621,0 
113.5718943,22.9041633,0 
113.5718928,22.9041645,0 
113.5718913,22.9041657,0 
113.5718898,22.9041669,0 
113.5718883,22.9041680,0 
113.5718869,22.9041691,0 
113.5718854,22.9041701,0 
113.5718841,22.9041711,0 
113.5718827,22.9041721,0 
113.5718813,22.9041730,0 
113.5718800,22.9041739,0 
113.5718787,22.9041748,0 
113.5718774,22.9041756,0 
113.5718762,22.9041764,0 
113.5718749,22.9041771,0 
113.5718737,22.9041779,0 
113.5718726,22.9041785,0 
113.5718714,22.9041792,0 
113.5718703,22.9041797,0 
113.5718692,22.9041803,0 
113.5718682,22.9041808,0 
113.5718671,22.9041813,0 
113.5718662,22.9041817,0 
113.5718652,22.9041821,0 
113.5718643,22.9041824,0 
113.5718634,22.9041827,0 
113.5718625,22.9041830,0 
113.5718616,22.9041832,0 
113.5718608,22.9041834,0 
113.5718601,22.9041835,0 
113.5718593,22.9041836,0 
113.5718586,22.9041837,0 
113.5718580,22.9041837,0 
113.5718573,22.9041837,0 
113.5718567,22.9041836,0 
113.5718561,22.9041835,0 
113.5718556,22.9041833,0 
113.5718551,22.9041831,0 
113.5718547,22.9041829,0 
113.5718542,22.9041826,0 
</coordinates>
</LineString>
</Placemark>
</Folder>