<Folder>
<name>SV 31 228.114046 13.185452</name>
<visibility>1</visibility>
<Placemark>
<name>circle</name>
<visibility>1</visibility>
<Style>
<geomColor>FFFF00FF</geomColor>
<geomScale>2</geomScale></Style>
<LineString>
<coordinates>
113.5718691,22.9037092,0 
113.5718694,22.9037089,0 
113.5718697,22.9037086,0 
113.5718701,22.9037084,0 
113.5718706,22.9037081,0 
113.5718710,22.9037079,0 
113.5718715,22.9037078,0 
113.5718720,22.9037076,0 
113.5718726,22.9037075,0 
113.5718731,22.9037074,0 
113.5718737,22.9037073,0 
113.5718744,22.9037073,0 
113.5718751,22.9037073,0 
113.5718758,22.9037073,0 
113.5718765,22.9037074,0 
113.5718772,22.9037074,0 
113.5718780,22.9037075,0 
113.5718788,22.9037076,0 
113.5718797,22.9037078,0 
113.5718805,22.9037080,0 
113.5718814,22.9037082,0 
113.5718823,22.9037084,0 
113.5718833,22.9037087,0 
113.5718843,22.9037090,0 
113.5718853,22.9037093,0 
113.5718863,22.9037096,0 
113.5718873,22.9037100,0 
113.5718884,22.9037104,0 
113.5718895,22.9037108,0 
113.5718906,22.9037112,0 
113.5718918,22.9037117,0 
113.5718929,22.9037122,0 
113.5718941,22.9037127,0 
113.5718953,22.9037133,0 
113.5718965,22.9037138,0 
113.5718978,22.9037144,0 
113.5718990,22.9037151,0 
113.5719003,22.9037157,0 
113.5719016,22.9037164,0 
113.5719029,22.9037170,0 
113.5719043,22.9037178,0 
113.5719056,22.9037185,0 
113.5719070,22.9037193,0 
113.5719084,22.9037200,0 
113.5719098,22.9037208,0 
113.5719112,22.9037217,0 
113.5719126,22.9037225,0 
113.5719141,22.9037234,0 
113.5719155,22.9037242,0 
113.5719170,22.9037251,0 
113.5719185,22.9037261,0 
113.5719199,22.9037270,0 
113.5719214,22.9037280,0 
113.5719229,22.9037290,0 
113.5719244,22.9037299,0 
113.5719260,22.9037310,0 
113.5719275,22.9037320,0 
113.5719290,22.9037330,0 
113.5719306,22.9037341,0 
113.5719321,22.9037352,0 
113.5719337,22.9037363,0 
113.5719352,22.9037374,0 
113.5719368,22.9037385,0 
113.5719383,22.9037396,0 
113.5719399,22.9037408,0 
113.5719414,22.9037420,0 
113.5719430,22.9037431,0 
113.5719446,22.9037443,0 
113.5719461,22.9037455,0 
113.5719477,22.9037467,0 
113.5719492,22.9037479,0 
113.5719508,22.9037492,0 
113.5719523,22.9037504,0 
113.5719539,22.9037516,0 
113.5719554,22.9037529,0 
113.5719569,22.9037542,0 
113.5719585,22.9037554,0 
113.5719600,22.9037567,0 
113.5719615,22.9037580,0 
113.5719630,22.9037592,0 
113.5719645,22.9037605,0 
113.5719660,22.9037618,0 
113.5719674,22.9037631,0 
113.5719689,22.9037644,0 
113.5719703,22.9037657,0 
113.5719718,22.9037670,0 
113.5719732,22.9037683,0 
113.5719746,22.9037696,0 
113.5719760,22.9037709,0 
113.5719774,22.9037722,0 
113.5719787,22.9037735,0 
113.5719801,22.9037748,0 
113.5719814,22.9037761,0 
113.5719827,22.9037774,0 
113.5719840,22.9037787,0 
113.5719853,22.9037800,0 
113.5719866,22.9037813,0 
113.5719878,22.9037826,0 
113.5719890,22.9037838,0 
113.5719902,22.9037851,0 
113.5719914,22.9037863,0 
113.5719926,22.9037876,0 
113.5719937,22.9037888,0 
113.5719948,22.9037901,0 
113.5719959,22.9037913,0 
113.5719970,22.9037925,0 
113.5719980,22.9037937,0 
113.5719990,22.9037949,0 
113.5720000,22.9037961,0 
113.5720010,22.9037973,0 
113.5720019,22.9037984,0 
113.5720028,22.9037996,0 
113.5720037,22.9038007,0 
113.5720046,22.9038018,0 
113.5720054,22.9038029,0 
113.5720062,22.9038040,0 
113.5720070,22.9038051,0 
113.5720077,22.9038062,0 
113.5720085,22.9038072,0 
113.5720091,22.9038082,0 
113.5720098,22.9038092,0 
113.5720104,22.9038102,0 
113.5720110,22.9038112,0 
113.5720116,22.9038122,0 
113.5720121,22.9038131,0 
113.5720127,22.9038140,0 
113.5720131,22.9038149,0 
113.5720136,22.9038158,0 
113.5720140,22.9038167,0 
113.5720144,22.9038175,0 
113.5720147,22.9038183,0 
113.5720150,22.9038191,0 
113.5720153,22.9038199,0 
113.5720156,22.9038206,0 
113.5720158,22.9038214,0 
113.5720160,22.9038221,0 
113.5720162,22.9038228,0 
113.5720163,22.9038234,0 
113.5720164,22.9038240,0 
113.5720164,22.9038247,0 
113.5720165,22.9038252,0 
113.5720165,22.9038258,0 
113.5720164,22.9038264,0 
113.5720164,22.9038269,0 
113.5720163,22.9038274,0 
113.5720161,22.9038278,0 
113.5720160,22.9038283,0 
113.5720158,22.9038287,0 
113.5720155,22.9038291,0 
113.5720153,22.9038294,0 
113.5720150,22.9038298,0 
113.5720146,22.9038301,0 
113.5720143,22.9038303,0 
113.5720139,22.9038306,0 
113.5720135,22.9038308,0 
113.5720130,22.9038310,0 
113.5720125,22.9038312,0 
113.5720120,22.9038313,0 
113.5720115,22.9038315,0 
113.5720109,22.9038316,0 
113.5720103,22.9038316,0 
113.5720096,22.9038317,0 
113.5720090,22.9038317,0 
113.5720083,22.9038317,0 
113.5720075,22.9038316,0 
113.5720068,22.9038315,0 
113.5720060,22.9038314,0 
113.5720052,22.9038313,0 
113.5720043,22.9038312,0 
113.5720035,22.9038310,0 
113.5720026,22.9038308,0 
113.5720017,22.9038305,0 
113.5720007,22.9038303,0 
113.5719997,22.9038300,0 
113.5719988,22.9038297,0 
113.5719977,22.9038293,0 
113.5719967,22.9038290,0 
113.5719956,22.9038286,0 
113.5719945,22.9038282,0 
113.5719934,22.9038277,0 
113.5719923,22.9038273,0 
113.5719911,22.9038268,0 
113.5719899,22.9038262,0 
113.5719887,22.9038257,0 
113.5719875,22.9038251,0 
113.5719862,22.9038245,0 
113.5719850,22.9038239,0 
113.5719837,22.9038233,0 
113.5719824,22.9038226,0 
113.5719811,22.9038219,0 
113.5719797,22.9038212,0 
113.5719784,22.9038205,0 
113.5719770,22.9038197,0 
113.5719756,22.9038189,0 
113.5719742,22.9038181,0 
113.5719728,22.9038173,0 
113.5719714,22.9038165,0 
113.5719700,22.9038156,0 
113.5719685,22.9038147,0 
113.5719670,22.9038138,0 
113.5719656,22.9038129,0 
113.5719641,22.9038120,0 
113.5719626,22.9038110,0 
113.5719611,22.9038100,0 
113.5719596,22.9038090,0 
113.5719580,22.9038080,0 
113.5719565,22.9038070,0 
113.5719550,22.9038059,0 
113.5719535,22.9038049,0 
113.5719519,22.9038038,0 
113.5719504,22.9038027,0 
113.5719488,22.9038016,0 
113.5719473,22.9038005,0 
113.5719457,22.9037993,0 
113.5719441,22.9037982,0 
113.5719426,22.9037970,0 
113.5719410,22.9037958,0 
113.5719395,22.9037946,0 
113.5719379,22.9037935,0 
113.5719363,22.9037922,0 
113.5719348,22.9037910,0 
113.5719332,22.9037898,0 
113.5719317,22.9037886,0 
113.5719302,22.9037873,0 
113.5719286,22.9037861,0 
113.5719271,22.9037848,0 
113.5719256,22.9037835,0 
113.5719240,22.9037823,0 
113.5719225,22.9037810,0 
113.5719210,22.9037797,0 
113.5719195,22.9037784,0 
113.5719181,22.9037771,0 
113.5719166,22.9037758,0 
113.5719151,22.9037745,0 
113.5719137,22.9037732,0 
113.5719122,22.9037719,0 
113.5719108,22.9037706,0 
113.5719094,22.9037693,0 
113.5719080,22.9037680,0 
113.5719066,22.9037667,0 
113.5719053,22.9037654,0 
113.5719039,22.9037641,0 
113.5719026,22.9037628,0 
113.5719013,22.9037615,0 
113.5719000,22.9037603,0 
113.5718987,22.9037590,0 
113.5718974,22.9037577,0 
113.5718962,22.9037564,0 
113.5718950,22.9037551,0 
113.5718938,22.9037539,0 
113.5718926,22.9037526,0 
113.5718914,22.9037514,0 
113.5718903,22.9037501,0 
113.5718892,22.9037489,0 
113.5718881,22.9037477,0 
113.5718871,22.9037465,0 
113.5718860,22.9037453,0 
113.5718850,22.9037441,0 
113.5718840,22.9037429,0 
113.5718830,22.9037417,0 
113.5718821,22.9037405,0 
113.5718812,22.9037394,0 
113.5718803,22.9037383,0 
113.5718794,22.9037371,0 
113.5718786,22.9037360,0 
113.5718778,22.9037350,0 
113.5718770,22.9037339,0 
113.5718763,22.9037328,0 
113.5718756,22.9037318,0 
113.5718749,22.9037307,0 
113.5718742,22.9037297,0 
113.5718736,22.9037287,0 
113.5718730,22.9037278,0 
113.5718724,22.9037268,0 
113.5718719,22.9037259,0 
113.5718714,22.9037250,0 
113.5718709,22.9037241,0 
113.5718704,22.9037232,0 
113.5718700,22.9037223,0 
113.5718696,22.9037215,0 
113.5718693,22.9037207,0 
113.5718690,22.9037199,0 
113.5718687,22.9037191,0 
113.5718684,22.9037183,0 
113.5718682,22.9037176,0 
113.5718680,22.9037169,0 
113.5718679,22.9037162,0 
113.5718677,22.9037156,0 
113.5718676,22.9037149,0 
113.5718676,22.9037143,0 
113.5718675,22.9037137,0 
113.5718675,22.9037132,0 
113.5718676,22.9037126,0 
113.5718677,22.9037121,0 
113.5718678,22.9037116,0 
113.5718679,22.9037111,0 
113.5718681,22.9037107,0 
113.5718683,22.9037103,0 
113.5718685,22.9037099,0 
113.5718688,22.9037095,0 
113.5718691,22.9037092,0 
</coordinates>
</LineString>
</Placemark>
</Folder>