<Folder>
<name>SV 25 243.610836 5.143501</name>
<visibility>1</visibility>
<Placemark>
<name>circle</name>
<visibility>1</visibility>
<Style>
<geomColor>FFFF007A</geomColor>
<geomScale>2</geomScale></Style>
<LineString>
<coordinates>
113.5711409,22.9034617,0 
113.5711414,22.9034610,0 
113.5711420,22.9034605,0 
113.5711427,22.9034600,0 
113.5711437,22.9034597,0 
113.5711448,22.9034593,0 
113.5711460,22.9034591,0 
113.5711474,22.9034590,0 
113.5711490,22.9034589,0 
113.5711508,22.9034589,0 
113.5711527,22.9034589,0 
113.5711548,22.9034591,0 
113.5711570,22.9034593,0 
113.5711594,22.9034596,0 
113.5711619,22.9034600,0 
113.5711646,22.9034605,0 
113.5711675,22.9034610,0 
113.5711705,22.9034616,0 
113.5711736,22.9034623,0 
113.5711770,22.9034631,0 
113.5711804,22.9034639,0 
113.5711840,22.9034648,0 
113.5711878,22.9034658,0 
113.5711917,22.9034669,0 
113.5711957,22.9034680,0 
113.5711999,22.9034692,0 
113.5712042,22.9034705,0 
113.5712087,22.9034718,0 
113.5712133,22.9034732,0 
113.5712181,22.9034747,0 
113.5712229,22.9034763,0 
113.5712279,22.9034779,0 
113.5712330,22.9034796,0 
113.5712383,22.9034814,0 
113.5712437,22.9034832,0 
113.5712492,22.9034851,0 
113.5712548,22.9034871,0 
113.5712605,22.9034891,0 
113.5712663,22.9034912,0 
113.5712723,22.9034934,0 
113.5712783,22.9034956,0 
113.5712845,22.9034979,0 
113.5712908,22.9035002,0 
113.5712971,22.9035026,0 
113.5713036,22.9035051,0 
113.5713102,22.9035076,0 
113.5713168,22.9035101,0 
113.5713235,22.9035128,0 
113.5713304,22.9035154,0 
113.5713373,22.9035182,0 
113.5713443,22.9035209,0 
113.5713513,22.9035238,0 
113.5713585,22.9035266,0 
113.5713657,22.9035296,0 
113.5713729,22.9035325,0 
113.5713803,22.9035355,0 
113.5713877,22.9035386,0 
113.5713951,22.9035417,0 
113.5714026,22.9035448,0 
113.5714102,22.9035480,0 
113.5714178,22.9035512,0 
113.5714254,22.9035545,0 
113.5714331,22.9035578,0 
113.5714409,22.9035611,0 
113.5714486,22.9035645,0 
113.5714564,22.9035678,0 
113.5714642,22.9035713,0 
113.5714721,22.9035747,0 
113.5714799,22.9035782,0 
113.5714878,22.9035817,0 
113.5714957,22.9035852,0 
113.5715036,22.9035887,0 
113.5715115,22.9035923,0 
113.5715195,22.9035958,0 
113.5715274,22.9035994,0 
113.5715353,22.9036030,0 
113.5715432,22.9036067,0 
113.5715511,22.9036103,0 
113.5715590,22.9036139,0 
113.5715668,22.9036176,0 
113.5715747,22.9036212,0 
113.5715825,22.9036249,0 
113.5715903,22.9036286,0 
113.5715980,22.9036323,0 
113.5716057,22.9036359,0 
113.5716134,22.9036396,0 
113.5716210,22.9036433,0 
113.5716286,22.9036469,0 
113.5716362,22.9036506,0 
113.5716437,22.9036542,0 
113.5716511,22.9036579,0 
113.5716585,22.9036615,0 
113.5716658,22.9036651,0 
113.5716731,22.9036688,0 
113.5716803,22.9036723,0 
113.5716874,22.9036759,0 
113.5716944,22.9036795,0 
113.5717014,22.9036830,0 
113.5717083,22.9036865,0 
113.5717151,22.9036900,0 
113.5717218,22.9036935,0 
113.5717284,22.9036969,0 
113.5717350,22.9037004,0 
113.5717414,22.9037037,0 
113.5717477,22.9037071,0 
113.5717540,22.9037104,0 
113.5717601,22.9037137,0 
113.5717662,22.9037170,0 
113.5717721,22.9037202,0 
113.5717779,22.9037234,0 
113.5717836,22.9037265,0 
113.5717892,22.9037296,0 
113.5717946,22.9037327,0 
113.5718000,22.9037357,0 
113.5718052,22.9037387,0 
113.5718103,22.9037416,0 
113.5718153,22.9037445,0 
113.5718201,22.9037473,0 
113.5718248,22.9037501,0 
113.5718294,22.9037528,0 
113.5718338,22.9037555,0 
113.5718381,22.9037581,0 
113.5718422,22.9037607,0 
113.5718463,22.9037632,0 
113.5718501,22.9037657,0 
113.5718538,22.9037681,0 
113.5718574,22.9037704,0 
113.5718608,22.9037727,0 
113.5718641,22.9037749,0 
113.5718672,22.9037771,0 
113.5718702,22.9037792,0 
113.5718730,22.9037812,0 
113.5718757,22.9037832,0 
113.5718782,22.9037851,0 
113.5718806,22.9037869,0 
113.5718827,22.9037887,0 
113.5718848,22.9037904,0 
113.5718866,22.9037920,0 
113.5718883,22.9037936,0 
113.5718899,22.9037951,0 
113.5718913,22.9037965,0 
113.5718925,22.9037979,0 
113.5718935,22.9037992,0 
113.5718944,22.9038004,0 
113.5718952,22.9038015,0 
113.5718957,22.9038026,0 
113.5718961,22.9038036,0 
113.5718963,22.9038045,0 
113.5718964,22.9038053,0 
113.5718963,22.9038061,0 
113.5718960,22.9038068,0 
113.5718956,22.9038074,0 
113.5718950,22.9038079,0 
113.5718942,22.9038084,0 
113.5718933,22.9038088,0 
113.5718922,22.9038091,0 
113.5718909,22.9038093,0 
113.5718895,22.9038095,0 
113.5718879,22.9038096,0 
113.5718862,22.9038096,0 
113.5718843,22.9038095,0 
113.5718822,22.9038093,0 
113.5718800,22.9038091,0 
113.5718776,22.9038088,0 
113.5718751,22.9038084,0 
113.5718724,22.9038080,0 
113.5718695,22.9038074,0 
113.5718665,22.9038068,0 
113.5718633,22.9038061,0 
113.5718600,22.9038054,0 
113.5718566,22.9038045,0 
113.5718529,22.9038036,0 
113.5718492,22.9038026,0 
113.5718453,22.9038016,0 
113.5718412,22.9038005,0 
113.5718370,22.9037992,0 
113.5718327,22.9037980,0 
113.5718283,22.9037966,0 
113.5718237,22.9037952,0 
113.5718189,22.9037937,0 
113.5718141,22.9037921,0 
113.5718091,22.9037905,0 
113.5718039,22.9037888,0 
113.5717987,22.9037870,0 
113.5717933,22.9037852,0 
113.5717878,22.9037833,0 
113.5717822,22.9037813,0 
113.5717765,22.9037793,0 
113.5717706,22.9037772,0 
113.5717647,22.9037751,0 
113.5717586,22.9037729,0 
113.5717525,22.9037706,0 
113.5717462,22.9037682,0 
113.5717398,22.9037658,0 
113.5717334,22.9037634,0 
113.5717268,22.9037609,0 
113.5717202,22.9037583,0 
113.5717134,22.9037557,0 
113.5717066,22.9037530,0 
113.5716997,22.9037503,0 
113.5716927,22.9037475,0 
113.5716857,22.9037447,0 
113.5716785,22.9037418,0 
113.5716713,22.9037389,0 
113.5716640,22.9037359,0 
113.5716567,22.9037329,0 
113.5716493,22.9037298,0 
113.5716419,22.9037267,0 
113.5716343,22.9037236,0 
113.5716268,22.9037204,0 
113.5716192,22.9037172,0 
113.5716115,22.9037139,0 
113.5716038,22.9037107,0 
113.5715961,22.9037073,0 
113.5715883,22.9037040,0 
113.5715806,22.9037006,0 
113.5715727,22.9036972,0 
113.5715649,22.9036937,0 
113.5715570,22.9036903,0 
113.5715491,22.9036868,0 
113.5715412,22.9036833,0 
113.5715333,22.9036797,0 
113.5715254,22.9036762,0 
113.5715175,22.9036726,0 
113.5715096,22.9036690,0 
113.5715017,22.9036654,0 
113.5714938,22.9036618,0 
113.5714859,22.9036581,0 
113.5714780,22.9036545,0 
113.5714702,22.9036508,0 
113.5714623,22.9036472,0 
113.5714545,22.9036435,0 
113.5714467,22.9036399,0 
113.5714390,22.9036362,0 
113.5714312,22.9036325,0 
113.5714236,22.9036288,0 
113.5714159,22.9036252,0 
113.5714083,22.9036215,0 
113.5714008,22.9036178,0 
113.5713933,22.9036142,0 
113.5713858,22.9036105,0 
113.5713785,22.9036069,0 
113.5713711,22.9036033,0 
113.5713639,22.9035997,0 
113.5713567,22.9035961,0 
113.5713496,22.9035925,0 
113.5713425,22.9035890,0 
113.5713356,22.9035854,0 
113.5713287,22.9035819,0 
113.5713219,22.9035784,0 
113.5713152,22.9035749,0 
113.5713085,22.9035715,0 
113.5713020,22.9035681,0 
113.5712956,22.9035647,0 
113.5712892,22.9035613,0 
113.5712830,22.9035580,0 
113.5712768,22.9035547,0 
113.5712708,22.9035515,0 
113.5712649,22.9035482,0 
113.5712591,22.9035451,0 
113.5712534,22.9035419,0 
113.5712478,22.9035388,0 
113.5712423,22.9035358,0 
113.5712370,22.9035327,0 
113.5712318,22.9035298,0 
113.5712267,22.9035268,0 
113.5712217,22.9035240,0 
113.5712169,22.9035211,0 
113.5712122,22.9035184,0 
113.5712076,22.9035156,0 
113.5712032,22.9035129,0 
113.5711989,22.9035103,0 
113.5711947,22.9035077,0 
113.5711907,22.9035052,0 
113.5711869,22.9035028,0 
113.5711831,22.9035004,0 
113.5711796,22.9034980,0 
113.5711761,22.9034957,0 
113.5711728,22.9034935,0 
113.5711697,22.9034914,0 
113.5711668,22.9034893,0 
113.5711639,22.9034872,0 
113.5711613,22.9034853,0 
113.5711588,22.9034833,0 
113.5711564,22.9034815,0 
113.5711542,22.9034797,0 
113.5711522,22.9034780,0 
113.5711503,22.9034764,0 
113.5711486,22.9034748,0 
113.5711471,22.9034733,0 
113.5711457,22.9034719,0 
113.5711445,22.9034706,0 
113.5711434,22.9034693,0 
113.5711425,22.9034681,0 
113.5711418,22.9034669,0 
113.5711413,22.9034659,0 
113.5711409,22.9034649,0 
113.5711406,22.9034640,0 
113.5711406,22.9034631,0 
113.5711407,22.9034623,0 
113.5711409,22.9034617,0 
</coordinates>
</LineString>
</Placemark>
</Folder>