<Folder>
<name>SV 31 228.114046 13.185452</name>
<visibility>1</visibility>
<Placemark>
<name>circle</name>
<visibility>1</visibility>
<Style>
<geomColor>FFFF00FF</geomColor>
<geomScale>2</geomScale></Style>
<LineString>
<coordinates>
113.5718644,22.9037054,0 
113.5718648,22.9037051,0 
113.5718651,22.9037048,0 
113.5718655,22.9037045,0 
113.5718660,22.9037043,0 
113.5718664,22.9037041,0 
113.5718669,22.9037039,0 
113.5718674,22.9037038,0 
113.5718680,22.9037036,0 
113.5718686,22.9037035,0 
113.5718692,22.9037035,0 
113.5718699,22.9037034,0 
113.5718706,22.9037034,0 
113.5718713,22.9037034,0 
113.5718720,22.9037035,0 
113.5718728,22.9037036,0 
113.5718736,22.9037037,0 
113.5718744,22.9037038,0 
113.5718753,22.9037039,0 
113.5718762,22.9037041,0 
113.5718771,22.9037043,0 
113.5718780,22.9037046,0 
113.5718790,22.9037048,0 
113.5718800,22.9037051,0 
113.5718810,22.9037055,0 
113.5718820,22.9037058,0 
113.5718831,22.9037062,0 
113.5718842,22.9037066,0 
113.5718853,22.9037070,0 
113.5718865,22.9037075,0 
113.5718876,22.9037079,0 
113.5718888,22.9037084,0 
113.5718900,22.9037090,0 
113.5718913,22.9037095,0 
113.5718925,22.9037101,0 
113.5718938,22.9037107,0 
113.5718951,22.9037114,0 
113.5718964,22.9037120,0 
113.5718977,22.9037127,0 
113.5718991,22.9037134,0 
113.5719004,22.9037141,0 
113.5719018,22.9037149,0 
113.5719032,22.9037156,0 
113.5719046,22.9037164,0 
113.5719061,22.9037173,0 
113.5719075,22.9037181,0 
113.5719090,22.9037190,0 
113.5719104,22.9037198,0 
113.5719119,22.9037208,0 
113.5719134,22.9037217,0 
113.5719149,22.9037226,0 
113.5719164,22.9037236,0 
113.5719180,22.9037246,0 
113.5719195,22.9037256,0 
113.5719211,22.9037266,0 
113.5719226,22.9037276,0 
113.5719242,22.9037287,0 
113.5719257,22.9037297,0 
113.5719273,22.9037308,0 
113.5719289,22.9037319,0 
113.5719305,22.9037331,0 
113.5719321,22.9037342,0 
113.5719336,22.9037353,0 
113.5719352,22.9037365,0 
113.5719368,22.9037377,0 
113.5719384,22.9037389,0 
113.5719400,22.9037401,0 
113.5719416,22.9037413,0 
113.5719432,22.9037425,0 
113.5719448,22.9037437,0 
113.5719464,22.9037450,0 
113.5719480,22.9037462,0 
113.5719495,22.9037475,0 
113.5719511,22.9037488,0 
113.5719527,22.9037500,0 
113.5719543,22.9037513,0 
113.5719558,22.9037526,0 
113.5719574,22.9037539,0 
113.5719589,22.9037552,0 
113.5719604,22.9037565,0 
113.5719620,22.9037579,0 
113.5719635,22.9037592,0 
113.5719650,22.9037605,0 
113.5719665,22.9037618,0 
113.5719680,22.9037632,0 
113.5719694,22.9037645,0 
113.5719709,22.9037658,0 
113.5719723,22.9037671,0 
113.5719738,22.9037685,0 
113.5719752,22.9037698,0 
113.5719766,22.9037711,0 
113.5719779,22.9037725,0 
113.5719793,22.9037738,0 
113.5719806,22.9037751,0 
113.5719820,22.9037764,0 
113.5719833,22.9037777,0 
113.5719846,22.9037791,0 
113.5719858,22.9037804,0 
113.5719871,22.9037817,0 
113.5719883,22.9037830,0 
113.5719895,22.9037842,0 
113.5719907,22.9037855,0 
113.5719919,22.9037868,0 
113.5719930,22.9037880,0 
113.5719941,22.9037893,0 
113.5719952,22.9037905,0 
113.5719963,22.9037918,0 
113.5719973,22.9037930,0 
113.5719983,22.9037942,0 
113.5719993,22.9037954,0 
113.5720003,22.9037966,0 
113.5720012,22.9037978,0 
113.5720021,22.9037989,0 
113.5720030,22.9038001,0 
113.5720038,22.9038012,0 
113.5720046,22.9038023,0 
113.5720054,22.9038034,0 
113.5720062,22.9038045,0 
113.5720069,22.9038056,0 
113.5720076,22.9038066,0 
113.5720083,22.9038076,0 
113.5720090,22.9038087,0 
113.5720096,22.9038096,0 
113.5720102,22.9038106,0 
113.5720107,22.9038116,0 
113.5720112,22.9038125,0 
113.5720117,22.9038134,0 
113.5720122,22.9038143,0 
113.5720126,22.9038152,0 
113.5720130,22.9038161,0 
113.5720133,22.9038169,0 
113.5720137,22.9038177,0 
113.5720140,22.9038185,0 
113.5720142,22.9038193,0 
113.5720145,22.9038200,0 
113.5720147,22.9038208,0 
113.5720148,22.9038215,0 
113.5720149,22.9038221,0 
113.5720150,22.9038228,0 
113.5720151,22.9038234,0 
113.5720151,22.9038240,0 
113.5720151,22.9038246,0 
113.5720151,22.9038251,0 
113.5720150,22.9038257,0 
113.5720149,22.9038262,0 
113.5720148,22.9038266,0 
113.5720146,22.9038271,0 
113.5720144,22.9038275,0 
113.5720142,22.9038279,0 
113.5720139,22.9038283,0 
113.5720136,22.9038286,0 
113.5720133,22.9038289,0 
113.5720129,22.9038292,0 
113.5720125,22.9038295,0 
113.5720121,22.9038297,0 
113.5720116,22.9038299,0 
113.5720111,22.9038301,0 
113.5720106,22.9038302,0 
113.5720100,22.9038304,0 
113.5720094,22.9038305,0 
113.5720088,22.9038305,0 
113.5720081,22.9038306,0 
113.5720075,22.9038306,0 
113.5720067,22.9038306,0 
113.5720060,22.9038305,0 
113.5720052,22.9038304,0 
113.5720044,22.9038303,0 
113.5720036,22.9038302,0 
113.5720027,22.9038301,0 
113.5720019,22.9038299,0 
113.5720009,22.9038297,0 
113.5720000,22.9038294,0 
113.5719990,22.9038292,0 
113.5719980,22.9038289,0 
113.5719970,22.9038285,0 
113.5719960,22.9038282,0 
113.5719949,22.9038278,0 
113.5719938,22.9038274,0 
113.5719927,22.9038270,0 
113.5719915,22.9038265,0 
113.5719904,22.9038261,0 
113.5719892,22.9038256,0 
113.5719880,22.9038250,0 
113.5719867,22.9038245,0 
113.5719855,22.9038239,0 
113.5719842,22.9038233,0 
113.5719829,22.9038226,0 
113.5719816,22.9038220,0 
113.5719803,22.9038213,0 
113.5719789,22.9038206,0 
113.5719776,22.9038199,0 
113.5719762,22.9038191,0 
113.5719748,22.9038184,0 
113.5719734,22.9038176,0 
113.5719719,22.9038167,0 
113.5719705,22.9038159,0 
113.5719690,22.9038150,0 
113.5719676,22.9038142,0 
113.5719661,22.9038132,0 
113.5719646,22.9038123,0 
113.5719631,22.9038114,0 
113.5719616,22.9038104,0 
113.5719600,22.9038094,0 
113.5719585,22.9038084,0 
113.5719570,22.9038074,0 
113.5719554,22.9038064,0 
113.5719538,22.9038053,0 
113.5719523,22.9038043,0 
113.5719507,22.9038032,0 
113.5719491,22.9038021,0 
113.5719475,22.9038009,0 
113.5719460,22.9037998,0 
113.5719444,22.9037987,0 
113.5719428,22.9037975,0 
113.5719412,22.9037963,0 
113.5719396,22.9037951,0 
113.5719380,22.9037939,0 
113.5719364,22.9037927,0 
113.5719348,22.9037915,0 
113.5719332,22.9037903,0 
113.5719316,22.9037890,0 
113.5719300,22.9037878,0 
113.5719285,22.9037865,0 
113.5719269,22.9037852,0 
113.5719253,22.9037840,0 
113.5719237,22.9037827,0 
113.5719222,22.9037814,0 
113.5719206,22.9037801,0 
113.5719191,22.9037788,0 
113.5719176,22.9037775,0 
113.5719160,22.9037761,0 
113.5719145,22.9037748,0 
113.5719130,22.9037735,0 
113.5719115,22.9037722,0 
113.5719100,22.9037708,0 
113.5719086,22.9037695,0 
113.5719071,22.9037682,0 
113.5719057,22.9037669,0 
113.5719042,22.9037655,0 
113.5719028,22.9037642,0 
113.5719014,22.9037629,0 
113.5719001,22.9037615,0 
113.5718987,22.9037602,0 
113.5718974,22.9037589,0 
113.5718960,22.9037576,0 
113.5718947,22.9037563,0 
113.5718934,22.9037549,0 
113.5718922,22.9037536,0 
113.5718909,22.9037523,0 
113.5718897,22.9037510,0 
113.5718885,22.9037498,0 
113.5718873,22.9037485,0 
113.5718862,22.9037472,0 
113.5718850,22.9037460,0 
113.5718839,22.9037447,0 
113.5718828,22.9037435,0 
113.5718818,22.9037422,0 
113.5718807,22.9037410,0 
113.5718797,22.9037398,0 
113.5718787,22.9037386,0 
113.5718778,22.9037374,0 
113.5718768,22.9037362,0 
113.5718759,22.9037351,0 
113.5718750,22.9037339,0 
113.5718742,22.9037328,0 
113.5718734,22.9037317,0 
113.5718726,22.9037306,0 
113.5718718,22.9037295,0 
113.5718711,22.9037284,0 
113.5718704,22.9037274,0 
113.5718697,22.9037264,0 
113.5718690,22.9037253,0 
113.5718684,22.9037243,0 
113.5718678,22.9037234,0 
113.5718673,22.9037224,0 
113.5718668,22.9037215,0 
113.5718663,22.9037206,0 
113.5718658,22.9037197,0 
113.5718654,22.9037188,0 
113.5718650,22.9037179,0 
113.5718647,22.9037171,0 
113.5718643,22.9037163,0 
113.5718640,22.9037155,0 
113.5718638,22.9037147,0 
113.5718635,22.9037140,0 
113.5718633,22.9037132,0 
113.5718632,22.9037125,0 
113.5718631,22.9037119,0 
113.5718630,22.9037112,0 
113.5718629,22.9037106,0 
113.5718629,22.9037100,0 
113.5718629,22.9037094,0 
113.5718629,22.9037089,0 
113.5718630,22.9037083,0 
113.5718631,22.9037078,0 
113.5718632,22.9037074,0 
113.5718634,22.9037069,0 
113.5718636,22.9037065,0 
113.5718638,22.9037061,0 
113.5718641,22.9037057,0 
113.5718644,22.9037054,0 
</coordinates>
</LineString>
</Placemark>
</Folder>