<Folder>
<name>SV 31 229.858509 14.933497</name>
<visibility>1</visibility>
<Placemark>
<name>circle</name>
<visibility>1</visibility>
<Style>
<geomColor>FFFF00FF</geomColor>
<geomScale>2</geomScale></Style>
<LineString>
<coordinates>
113.5718930,22.9037392,0 
113.5718933,22.9037389,0 
113.5718936,22.9037386,0 
113.5718940,22.9037383,0 
113.5718944,22.9037381,0 
113.5718948,22.9037379,0 
113.5718952,22.9037377,0 
113.5718957,22.9037375,0 
113.5718962,22.9037374,0 
113.5718967,22.9037372,0 
113.5718973,22.9037371,0 
113.5718978,22.9037371,0 
113.5718984,22.9037370,0 
113.5718991,22.9037370,0 
113.5718997,22.9037369,0 
113.5719004,22.9037369,0 
113.5719011,22.9037370,0 
113.5719018,22.9037370,0 
113.5719025,22.9037371,0 
113.5719033,22.9037372,0 
113.5719041,22.9037373,0 
113.5719049,22.9037375,0 
113.5719058,22.9037376,0 
113.5719066,22.9037378,0 
113.5719075,22.9037380,0 
113.5719084,22.9037383,0 
113.5719094,22.9037385,0 
113.5719103,22.9037388,0 
113.5719113,22.9037391,0 
113.5719123,22.9037394,0 
113.5719133,22.9037398,0 
113.5719143,22.9037401,0 
113.5719153,22.9037405,0 
113.5719164,22.9037409,0 
113.5719175,22.9037413,0 
113.5719186,22.9037418,0 
113.5719197,22.9037423,0 
113.5719208,22.9037427,0 
113.5719220,22.9037432,0 
113.5719231,22.9037438,0 
113.5719243,22.9037443,0 
113.5719255,22.9037449,0 
113.5719267,22.9037455,0 
113.5719279,22.9037461,0 
113.5719291,22.9037467,0 
113.5719304,22.9037473,0 
113.5719316,22.9037480,0 
113.5719329,22.9037487,0 
113.5719342,22.9037494,0 
113.5719355,22.9037501,0 
113.5719368,22.9037508,0 
113.5719381,22.9037516,0 
113.5719394,22.9037523,0 
113.5719407,22.9037531,0 
113.5719420,22.9037539,0 
113.5719433,22.9037547,0 
113.5719447,22.9037555,0 
113.5719460,22.9037564,0 
113.5719474,22.9037572,0 
113.5719487,22.9037581,0 
113.5719501,22.9037590,0 
113.5719514,22.9037599,0 
113.5719528,22.9037608,0 
113.5719541,22.9037617,0 
113.5719555,22.9037626,0 
113.5719569,22.9037636,0 
113.5719582,22.9037645,0 
113.5719596,22.9037655,0 
113.5719610,22.9037664,0 
113.5719623,22.9037674,0 
113.5719637,22.9037684,0 
113.5719650,22.9037694,0 
113.5719664,22.9037704,0 
113.5719677,22.9037714,0 
113.5719691,22.9037725,0 
113.5719704,22.9037735,0 
113.5719717,22.9037745,0 
113.5719730,22.9037756,0 
113.5719744,22.9037766,0 
113.5719757,22.9037777,0 
113.5719770,22.9037787,0 
113.5719782,22.9037798,0 
113.5719795,22.9037809,0 
113.5719808,22.9037819,0 
113.5719821,22.9037830,0 
113.5719833,22.9037841,0 
113.5719845,22.9037852,0 
113.5719858,22.9037862,0 
113.5719870,22.9037873,0 
113.5719882,22.9037884,0 
113.5719894,22.9037895,0 
113.5719905,22.9037906,0 
113.5719917,22.9037917,0 
113.5719928,22.9037927,0 
113.5719939,22.9037938,0 
113.5719951,22.9037949,0 
113.5719961,22.9037960,0 
113.5719972,22.9037970,0 
113.5719983,22.9037981,0 
113.5719993,22.9037992,0 
113.5720003,22.9038002,0 
113.5720013,22.9038013,0 
113.5720023,22.9038023,0 
113.5720033,22.9038033,0 
113.5720042,22.9038044,0 
113.5720051,22.9038054,0 
113.5720060,22.9038064,0 
113.5720069,22.9038074,0 
113.5720077,22.9038084,0 
113.5720086,22.9038094,0 
113.5720094,22.9038104,0 
113.5720102,22.9038114,0 
113.5720109,22.9038124,0 
113.5720117,22.9038133,0 
113.5720124,22.9038143,0 
113.5720131,22.9038152,0 
113.5720137,22.9038161,0 
113.5720144,22.9038170,0 
113.5720150,22.9038179,0 
113.5720156,22.9038188,0 
113.5720161,22.9038197,0 
113.5720167,22.9038205,0 
113.5720172,22.9038214,0 
113.5720177,22.9038222,0 
113.5720181,22.9038230,0 
113.5720185,22.9038238,0 
113.5720189,22.9038246,0 
113.5720193,22.9038254,0 
113.5720197,22.9038261,0 
113.5720200,22.9038268,0 
113.5720203,22.9038276,0 
113.5720205,22.9038283,0 
113.5720208,22.9038289,0 
113.5720210,22.9038296,0 
113.5720212,22.9038303,0 
113.5720213,22.9038309,0 
113.5720214,22.9038315,0 
113.5720215,22.9038321,0 
113.5720216,22.9038327,0 
113.5720216,22.9038332,0 
113.5720216,22.9038338,0 
113.5720216,22.9038343,0 
113.5720216,22.9038348,0 
113.5720215,22.9038352,0 
113.5720214,22.9038357,0 
113.5720212,22.9038361,0 
113.5720211,22.9038365,0 
113.5720209,22.9038369,0 
113.5720207,22.9038373,0 
113.5720204,22.9038376,0 
113.5720201,22.9038380,0 
113.5720198,22.9038383,0 
113.5720195,22.9038386,0 
113.5720192,22.9038388,0 
113.5720188,22.9038391,0 
113.5720184,22.9038393,0 
113.5720179,22.9038395,0 
113.5720174,22.9038396,0 
113.5720170,22.9038398,0 
113.5720164,22.9038399,0 
113.5720159,22.9038400,0 
113.5720153,22.9038401,0 
113.5720147,22.9038402,0 
113.5720141,22.9038402,0 
113.5720134,22.9038402,0 
113.5720128,22.9038402,0 
113.5720121,22.9038402,0 
113.5720113,22.9038401,0 
113.5720106,22.9038401,0 
113.5720098,22.9038400,0 
113.5720090,22.9038398,0 
113.5720082,22.9038397,0 
113.5720074,22.9038395,0 
113.5720065,22.9038393,0 
113.5720056,22.9038391,0 
113.5720047,22.9038389,0 
113.5720038,22.9038386,0 
113.5720028,22.9038384,0 
113.5720019,22.9038381,0 
113.5720009,22.9038377,0 
113.5719999,22.9038374,0 
113.5719989,22.9038370,0 
113.5719978,22.9038367,0 
113.5719968,22.9038363,0 
113.5719957,22.9038358,0 
113.5719946,22.9038354,0 
113.5719935,22.9038349,0 
113.5719923,22.9038344,0 
113.5719912,22.9038339,0 
113.5719900,22.9038334,0 
113.5719888,22.9038328,0 
113.5719877,22.9038323,0 
113.5719865,22.9038317,0 
113.5719852,22.9038311,0 
113.5719840,22.9038305,0 
113.5719828,22.9038298,0 
113.5719815,22.9038292,0 
113.5719802,22.9038285,0 
113.5719790,22.9038278,0 
113.5719777,22.9038271,0 
113.5719764,22.9038263,0 
113.5719751,22.9038256,0 
113.5719738,22.9038248,0 
113.5719725,22.9038241,0 
113.5719711,22.9038233,0 
113.5719698,22.9038225,0 
113.5719685,22.9038216,0 
113.5719671,22.9038208,0 
113.5719658,22.9038199,0 
113.5719644,22.9038191,0 
113.5719631,22.9038182,0 
113.5719617,22.9038173,0 
113.5719604,22.9038164,0 
113.5719590,22.9038155,0 
113.5719576,22.9038146,0 
113.5719563,22.9038136,0 
113.5719549,22.9038127,0 
113.5719536,22.9038117,0 
113.5719522,22.9038107,0 
113.5719508,22.9038097,0 
113.5719495,22.9038088,0 
113.5719481,22.9038078,0 
113.5719468,22.9038067,0 
113.5719454,22.9038057,0 
113.5719441,22.9038047,0 
113.5719428,22.9038037,0 
113.5719414,22.9038026,0 
113.5719401,22.9038016,0 
113.5719388,22.9038005,0 
113.5719375,22.9037995,0 
113.5719362,22.9037984,0 
113.5719349,22.9037974,0 
113.5719336,22.9037963,0 
113.5719323,22.9037952,0 
113.5719311,22.9037942,0 
113.5719298,22.9037931,0 
113.5719286,22.9037920,0 
113.5719274,22.9037909,0 
113.5719262,22.9037898,0 
113.5719250,22.9037888,0 
113.5719238,22.9037877,0 
113.5719226,22.9037866,0 
113.5719215,22.9037855,0 
113.5719203,22.9037844,0 
113.5719192,22.9037834,0 
113.5719181,22.9037823,0 
113.5719170,22.9037812,0 
113.5719159,22.9037801,0 
113.5719149,22.9037791,0 
113.5719138,22.9037780,0 
113.5719128,22.9037770,0 
113.5719118,22.9037759,0 
113.5719108,22.9037749,0 
113.5719099,22.9037738,0 
113.5719089,22.9037728,0 
113.5719080,22.9037718,0 
113.5719071,22.9037707,0 
113.5719063,22.9037697,0 
113.5719054,22.9037687,0 
113.5719046,22.9037677,0 
113.5719038,22.9037668,0 
113.5719030,22.9037658,0 
113.5719022,22.9037648,0 
113.5719015,22.9037639,0 
113.5719008,22.9037629,0 
113.5719001,22.9037620,0 
113.5718994,22.9037611,0 
113.5718988,22.9037601,0 
113.5718982,22.9037593,0 
113.5718976,22.9037584,0 
113.5718970,22.9037575,0 
113.5718965,22.9037566,0 
113.5718960,22.9037558,0 
113.5718955,22.9037550,0 
113.5718950,22.9037542,0 
113.5718946,22.9037534,0 
113.5718942,22.9037526,0 
113.5718938,22.9037518,0 
113.5718935,22.9037511,0 
113.5718932,22.9037503,0 
113.5718929,22.9037496,0 
113.5718926,22.9037489,0 
113.5718924,22.9037482,0 
113.5718922,22.9037476,0 
113.5718920,22.9037469,0 
113.5718918,22.9037463,0 
113.5718917,22.9037457,0 
113.5718916,22.9037451,0 
113.5718916,22.9037445,0 
113.5718915,22.9037439,0 
113.5718915,22.9037434,0 
113.5718915,22.9037429,0 
113.5718916,22.9037424,0 
113.5718917,22.9037419,0 
113.5718918,22.9037415,0 
113.5718919,22.9037410,0 
113.5718921,22.9037406,0 
113.5718923,22.9037402,0 
113.5718925,22.9037399,0 
113.5718927,22.9037395,0 
113.5718930,22.9037392,0 
</coordinates>
</LineString>
</Placemark>
</Folder>