<Folder>
<name>SV 23 286.799464 12.744355</name>
<visibility>1</visibility>
<Placemark>
<name>circle</name>
<visibility>1</visibility>
<Style>
<geomColor></geomColor>
<geomScale>2</geomScale></Style>
<LineString>
<coordinates>
113.5717999,22.9039835,0 
113.5717998,22.9039831,0 
113.5717997,22.9039827,0 
113.5717997,22.9039823,0 
113.5717997,22.9039819,0 
113.5717998,22.9039815,0 
113.5717999,22.9039810,0 
113.5718000,22.9039806,0 
113.5718002,22.9039802,0 
113.5718004,22.9039797,0 
113.5718006,22.9039792,0 
113.5718009,22.9039788,0 
113.5718012,22.9039783,0 
113.5718016,22.9039778,0 
113.5718020,22.9039773,0 
113.5718024,22.9039768,0 
113.5718029,22.9039763,0 
113.5718034,22.9039757,0 
113.5718039,22.9039752,0 
113.5718045,22.9039747,0 
113.5718051,22.9039741,0 
113.5718057,22.9039736,0 
113.5718064,22.9039730,0 
113.5718072,22.9039725,0 
113.5718079,22.9039719,0 
113.5718087,22.9039713,0 
113.5718095,22.9039707,0 
113.5718104,22.9039702,0 
113.5718113,22.9039696,0 
113.5718122,22.9039690,0 
113.5718132,22.9039684,0 
113.5718142,22.9039678,0 
113.5718152,22.9039672,0 
113.5718162,22.9039666,0 
113.5718173,22.9039660,0 
113.5718185,22.9039653,0 
113.5718196,22.9039647,0 
113.5718208,22.9039641,0 
113.5718220,22.9039635,0 
113.5718232,22.9039629,0 
113.5718245,22.9039622,0 
113.5718258,22.9039616,0 
113.5718271,22.9039610,0 
113.5718284,22.9039603,0 
113.5718298,22.9039597,0 
113.5718312,22.9039591,0 
113.5718326,22.9039585,0 
113.5718341,22.9039578,0 
113.5718355,22.9039572,0 
113.5718370,22.9039566,0 
113.5718385,22.9039559,0 
113.5718401,22.9039553,0 
113.5718416,22.9039547,0 
113.5718432,22.9039541,0 
113.5718448,22.9039534,0 
113.5718464,22.9039528,0 
113.5718480,22.9039522,0 
113.5718497,22.9039516,0 
113.5718514,22.9039510,0 
113.5718530,22.9039504,0 
113.5718547,22.9039498,0 
113.5718564,22.9039492,0 
113.5718582,22.9039486,0 
113.5718599,22.9039480,0 
113.5718616,22.9039474,0 
113.5718634,22.9039469,0 
113.5718652,22.9039463,0 
113.5718670,22.9039457,0 
113.5718687,22.9039452,0 
113.5718705,22.9039446,0 
113.5718723,22.9039441,0 
113.5718742,22.9039435,0 
113.5718760,22.9039430,0 
113.5718778,22.9039424,0 
113.5718796,22.9039419,0 
113.5718814,22.9039414,0 
113.5718833,22.9039409,0 
113.5718851,22.9039404,0 
113.5718869,22.9039399,0 
113.5718888,22.9039394,0 
113.5718906,22.9039390,0 
113.5718924,22.9039385,0 
113.5718943,22.9039381,0 
113.5718961,22.9039376,0 
113.5718979,22.9039372,0 
113.5718997,22.9039368,0 
113.5719015,22.9039363,0 
113.5719033,22.9039359,0 
113.5719051,22.9039355,0 
113.5719069,22.9039352,0 
113.5719087,22.9039348,0 
113.5719105,22.9039344,0 
113.5719123,22.9039341,0 
113.5719140,22.9039337,0 
113.5719157,22.9039334,0 
113.5719175,22.9039331,0 
113.5719192,22.9039328,0 
113.5719209,22.9039325,0 
113.5719226,22.9039322,0 
113.5719242,22.9039319,0 
113.5719259,22.9039316,0 
113.5719275,22.9039314,0 
113.5719291,22.9039312,0 
113.5719307,22.9039309,0 
113.5719323,22.9039307,0 
113.5719339,22.9039305,0 
113.5719354,22.9039303,0 
113.5719370,22.9039302,0 
113.5719385,22.9039300,0 
113.5719399,22.9039299,0 
113.5719414,22.9039297,0 
113.5719428,22.9039296,0 
113.5719442,22.9039295,0 
113.5719456,22.9039294,0 
113.5719469,22.9039293,0 
113.5719483,22.9039292,0 
113.5719496,22.9039292,0 
113.5719509,22.9039291,0 
113.5719521,22.9039291,0 
113.5719533,22.9039291,0 
113.5719545,22.9039291,0 
113.5719557,22.9039291,0 
113.5719568,22.9039291,0 
113.5719579,22.9039291,0 
113.5719590,22.9039292,0 
113.5719600,22.9039293,0 
113.5719610,22.9039293,0 
113.5719620,22.9039294,0 
113.5719629,22.9039295,0 
113.5719638,22.9039296,0 
113.5719647,22.9039298,0 
113.5719655,22.9039299,0 
113.5719663,22.9039300,0 
113.5719671,22.9039302,0 
113.5719678,22.9039304,0 
113.5719685,22.9039306,0 
113.5719692,22.9039308,0 
113.5719698,22.9039310,0 
113.5719704,22.9039312,0 
113.5719710,22.9039315,0 
113.5719715,22.9039317,0 
113.5719720,22.9039320,0 
113.5719724,22.9039323,0 
113.5719728,22.9039325,0 
113.5719732,22.9039328,0 
113.5719735,22.9039332,0 
113.5719738,22.9039335,0 
113.5719741,22.9039338,0 
113.5719743,22.9039342,0 
113.5719745,22.9039345,0 
113.5719746,22.9039349,0 
113.5719747,22.9039353,0 
113.5719748,22.9039356,0 
113.5719748,22.9039360,0 
113.5719748,22.9039364,0 
113.5719747,22.9039369,0 
113.5719746,22.9039373,0 
113.5719745,22.9039377,0 
113.5719744,22.9039382,0 
113.5719741,22.9039386,0 
113.5719739,22.9039391,0 
113.5719736,22.9039396,0 
113.5719733,22.9039401,0 
113.5719730,22.9039405,0 
113.5719726,22.9039410,0 
113.5719721,22.9039415,0 
113.5719717,22.9039421,0 
113.5719712,22.9039426,0 
113.5719706,22.9039431,0 
113.5719700,22.9039436,0 
113.5719694,22.9039442,0 
113.5719688,22.9039447,0 
113.5719681,22.9039453,0 
113.5719674,22.9039459,0 
113.5719666,22.9039464,0 
113.5719658,22.9039470,0 
113.5719650,22.9039476,0 
113.5719641,22.9039482,0 
113.5719632,22.9039488,0 
113.5719623,22.9039493,0 
113.5719613,22.9039499,0 
113.5719603,22.9039505,0 
113.5719593,22.9039512,0 
113.5719583,22.9039518,0 
113.5719572,22.9039524,0 
113.5719561,22.9039530,0 
113.5719549,22.9039536,0 
113.5719537,22.9039542,0 
113.5719525,22.9039549,0 
113.5719513,22.9039555,0 
113.5719500,22.9039561,0 
113.5719487,22.9039567,0 
113.5719474,22.9039574,0 
113.5719461,22.9039580,0 
113.5719447,22.9039586,0 
113.5719433,22.9039592,0 
113.5719419,22.9039599,0 
113.5719404,22.9039605,0 
113.5719390,22.9039611,0 
113.5719375,22.9039618,0 
113.5719360,22.9039624,0 
113.5719344,22.9039630,0 
113.5719329,22.9039636,0 
113.5719313,22.9039643,0 
113.5719297,22.9039649,0 
113.5719281,22.9039655,0 
113.5719265,22.9039661,0 
113.5719248,22.9039667,0 
113.5719232,22.9039673,0 
113.5719215,22.9039679,0 
113.5719198,22.9039685,0 
113.5719181,22.9039691,0 
113.5719163,22.9039697,0 
113.5719146,22.9039703,0 
113.5719129,22.9039709,0 
113.5719111,22.9039715,0 
113.5719093,22.9039720,0 
113.5719076,22.9039726,0 
113.5719058,22.9039732,0 
113.5719040,22.9039737,0 
113.5719022,22.9039743,0 
113.5719004,22.9039748,0 
113.5718985,22.9039754,0 
113.5718967,22.9039759,0 
113.5718949,22.9039764,0 
113.5718931,22.9039769,0 
113.5718912,22.9039774,0 
113.5718894,22.9039779,0 
113.5718876,22.9039784,0 
113.5718857,22.9039789,0 
113.5718839,22.9039794,0 
113.5718821,22.9039798,0 
113.5718803,22.9039803,0 
113.5718784,22.9039807,0 
113.5718766,22.9039812,0 
113.5718748,22.9039816,0 
113.5718730,22.9039820,0 
113.5718712,22.9039824,0 
113.5718694,22.9039828,0 
113.5718676,22.9039832,0 
113.5718658,22.9039836,0 
113.5718640,22.9039839,0 
113.5718623,22.9039843,0 
113.5718605,22.9039846,0 
113.5718588,22.9039849,0 
113.5718570,22.9039853,0 
113.5718553,22.9039856,0 
113.5718536,22.9039859,0 
113.5718519,22.9039861,0 
113.5718503,22.9039864,0 
113.5718486,22.9039867,0 
113.5718470,22.9039869,0 
113.5718454,22.9039872,0 
113.5718438,22.9039874,0 
113.5718422,22.9039876,0 
113.5718406,22.9039878,0 
113.5718391,22.9039880,0 
113.5718376,22.9039882,0 
113.5718361,22.9039883,0 
113.5718346,22.9039885,0 
113.5718331,22.9039886,0 
113.5718317,22.9039887,0 
113.5718303,22.9039888,0 
113.5718289,22.9039889,0 
113.5718276,22.9039890,0 
113.5718262,22.9039891,0 
113.5718249,22.9039892,0 
113.5718237,22.9039892,0 
113.5718224,22.9039892,0 
113.5718212,22.9039892,0 
113.5718200,22.9039892,0 
113.5718189,22.9039892,0 
113.5718177,22.9039892,0 
113.5718166,22.9039892,0 
113.5718156,22.9039891,0 
113.5718145,22.9039891,0 
113.5718135,22.9039890,0 
113.5718125,22.9039889,0 
113.5718116,22.9039888,0 
113.5718107,22.9039887,0 
113.5718098,22.9039886,0 
113.5718090,22.9039884,0 
113.5718082,22.9039883,0 
113.5718074,22.9039881,0 
113.5718067,22.9039879,0 
113.5718060,22.9039878,0 
113.5718053,22.9039875,0 
113.5718047,22.9039873,0 
113.5718041,22.9039871,0 
113.5718035,22.9039869,0 
113.5718030,22.9039866,0 
113.5718025,22.9039864,0 
113.5718021,22.9039861,0 
113.5718017,22.9039858,0 
113.5718013,22.9039855,0 
113.5718010,22.9039852,0 
113.5718007,22.9039849,0 
113.5718004,22.9039845,0 
113.5718002,22.9039842,0 
113.5718001,22.9039838,0 
113.5717999,22.9039835,0 
</coordinates>
</LineString>
</Placemark>
</Folder>