<Folder>
<name>SV 30 319.656917 11.688141</name>
<visibility>1</visibility>
<Placemark>
<name>circle</name>
<visibility>1</visibility>
<Style>
<geomColor>FF969696</geomColor>
<geomScale>2</geomScale></Style>
<LineString>
<coordinates>
113.5718607,22.9041596,0 
113.5718603,22.9041593,0 
113.5718600,22.9041589,0 
113.5718597,22.9041585,0 
113.5718594,22.9041581,0 
113.5718592,22.9041576,0 
113.5718590,22.9041571,0 
113.5718588,22.9041566,0 
113.5718587,22.9041560,0 
113.5718586,22.9041554,0 
113.5718585,22.9041548,0 
113.5718585,22.9041541,0 
113.5718585,22.9041534,0 
113.5718586,22.9041527,0 
113.5718586,22.9041519,0 
113.5718588,22.9041511,0 
113.5718589,22.9041502,0 
113.5718591,22.9041494,0 
113.5718593,22.9041485,0 
113.5718596,22.9041475,0 
113.5718599,22.9041466,0 
113.5718602,22.9041456,0 
113.5718605,22.9041445,0 
113.5718609,22.9041435,0 
113.5718613,22.9041424,0 
113.5718618,22.9041413,0 
113.5718623,22.9041401,0 
113.5718628,22.9041389,0 
113.5718634,22.9041377,0 
113.5718639,22.9041365,0 
113.5718646,22.9041353,0 
113.5718652,22.9041340,0 
113.5718659,22.9041327,0 
113.5718666,22.9041313,0 
113.5718674,22.9041300,0 
113.5718681,22.9041286,0 
113.5718689,22.9041272,0 
113.5718698,22.9041258,0 
113.5718706,22.9041244,0 
113.5718715,22.9041229,0 
113.5718724,22.9041214,0 
113.5718734,22.9041199,0 
113.5718744,22.9041184,0 
113.5718754,22.9041168,0 
113.5718764,22.9041153,0 
113.5718775,22.9041137,0 
113.5718786,22.9041121,0 
113.5718797,22.9041105,0 
113.5718808,22.9041089,0 
113.5718820,22.9041072,0 
113.5718832,22.9041056,0 
113.5718844,22.9041039,0 
113.5718856,22.9041022,0 
113.5718869,22.9041005,0 
113.5718882,22.9040988,0 
113.5718895,22.9040971,0 
113.5718908,22.9040954,0 
113.5718921,22.9040937,0 
113.5718935,22.9040919,0 
113.5718949,22.9040902,0 
113.5718963,22.9040885,0 
113.5718977,22.9040867,0 
113.5718991,22.9040850,0 
113.5719006,22.9040832,0 
113.5719020,22.9040814,0 
113.5719035,22.9040797,0 
113.5719050,22.9040779,0 
113.5719065,22.9040761,0 
113.5719081,22.9040744,0 
113.5719096,22.9040726,0 
113.5719112,22.9040708,0 
113.5719127,22.9040691,0 
113.5719143,22.9040673,0 
113.5719159,22.9040655,0 
113.5719175,22.9040638,0 
113.5719191,22.9040620,0 
113.5719207,22.9040603,0 
113.5719223,22.9040586,0 
113.5719239,22.9040569,0 
113.5719256,22.9040551,0 
113.5719272,22.9040534,0 
113.5719288,22.9040517,0 
113.5719305,22.9040500,0 
113.5719321,22.9040484,0 
113.5719338,22.9040467,0 
113.5719354,22.9040451,0 
113.5719371,22.9040434,0 
113.5719387,22.9040418,0 
113.5719404,22.9040402,0 
113.5719420,22.9040386,0 
113.5719437,22.9040370,0 
113.5719453,22.9040355,0 
113.5719470,22.9040339,0 
113.5719486,22.9040324,0 
113.5719502,22.9040309,0 
113.5719519,22.9040294,0 
113.5719535,22.9040280,0 
113.5719551,22.9040265,0 
113.5719567,22.9040251,0 
113.5719583,22.9040237,0 
113.5719599,22.9040224,0 
113.5719615,22.9040210,0 
113.5719630,22.9040197,0 
113.5719646,22.9040184,0 
113.5719661,22.9040171,0 
113.5719677,22.9040159,0 
113.5719692,22.9040147,0 
113.5719707,22.9040135,0 
113.5719722,22.9040123,0 
113.5719737,22.9040112,0 
113.5719751,22.9040101,0 
113.5719766,22.9040090,0 
113.5719780,22.9040079,0 
113.5719794,22.9040069,0 
113.5719808,22.9040059,0 
113.5719821,22.9040050,0 
113.5719835,22.9040040,0 
113.5719848,22.9040031,0 
113.5719861,22.9040023,0 
113.5719874,22.9040014,0 
113.5719887,22.9040006,0 
113.5719899,22.9039999,0 
113.5719912,22.9039991,0 
113.5719924,22.9039984,0 
113.5719935,22.9039978,0 
113.5719947,22.9039972,0 
113.5719958,22.9039966,0 
113.5719969,22.9039960,0 
113.5719980,22.9039955,0 
113.5719990,22.9039950,0 
113.5720000,22.9039945,0 
113.5720010,22.9039941,0 
113.5720020,22.9039937,0 
113.5720029,22.9039934,0 
113.5720038,22.9039931,0 
113.5720047,22.9039928,0 
113.5720055,22.9039926,0 
113.5720064,22.9039924,0 
113.5720071,22.9039922,0 
113.5720079,22.9039921,0 
113.5720086,22.9039920,0 
113.5720093,22.9039920,0 
113.5720100,22.9039919,0 
113.5720106,22.9039920,0 
113.5720112,22.9039920,0 
113.5720118,22.9039921,0 
113.5720123,22.9039923,0 
113.5720128,22.9039924,0 
113.5720133,22.9039926,0 
113.5720137,22.9039929,0 
113.5720141,22.9039932,0 
113.5720145,22.9039935,0 
113.5720148,22.9039938,0 
113.5720151,22.9039942,0 
113.5720154,22.9039947,0 
113.5720156,22.9039951,0 
113.5720158,22.9039956,0 
113.5720159,22.9039961,0 
113.5720161,22.9039967,0 
113.5720162,22.9039973,0 
113.5720162,22.9039980,0 
113.5720162,22.9039986,0 
113.5720162,22.9039993,0 
113.5720162,22.9040001,0 
113.5720161,22.9040009,0 
113.5720160,22.9040017,0 
113.5720158,22.9040025,0 
113.5720157,22.9040034,0 
113.5720154,22.9040043,0 
113.5720152,22.9040052,0 
113.5720149,22.9040062,0 
113.5720146,22.9040072,0 
113.5720142,22.9040082,0 
113.5720138,22.9040093,0 
113.5720134,22.9040104,0 
113.5720130,22.9040115,0 
113.5720125,22.9040126,0 
113.5720120,22.9040138,0 
113.5720114,22.9040150,0 
113.5720108,22.9040162,0 
113.5720102,22.9040175,0 
113.5720096,22.9040187,0 
113.5720089,22.9040201,0 
113.5720082,22.9040214,0 
113.5720074,22.9040227,0 
113.5720066,22.9040241,0 
113.5720058,22.9040255,0 
113.5720050,22.9040269,0 
113.5720041,22.9040284,0 
113.5720032,22.9040298,0 
113.5720023,22.9040313,0 
113.5720014,22.9040328,0 
113.5720004,22.9040344,0 
113.5719994,22.9040359,0 
113.5719983,22.9040375,0 
113.5719973,22.9040390,0 
113.5719962,22.9040406,0 
113.5719951,22.9040422,0 
113.5719939,22.9040439,0 
113.5719928,22.9040455,0 
113.5719916,22.9040472,0 
113.5719904,22.9040488,0 
113.5719891,22.9040505,0 
113.5719879,22.9040522,0 
113.5719866,22.9040539,0 
113.5719853,22.9040556,0 
113.5719840,22.9040573,0 
113.5719826,22.9040590,0 
113.5719813,22.9040608,0 
113.5719799,22.9040625,0 
113.5719785,22.9040643,0 
113.5719771,22.9040660,0 
113.5719756,22.9040678,0 
113.5719742,22.9040695,0 
113.5719727,22.9040713,0 
113.5719712,22.9040731,0 
113.5719697,22.9040748,0 
113.5719682,22.9040766,0 
113.5719667,22.9040784,0 
113.5719652,22.9040801,0 
113.5719636,22.9040819,0 
113.5719620,22.9040837,0 
113.5719605,22.9040854,0 
113.5719589,22.9040872,0 
113.5719573,22.9040889,0 
113.5719557,22.9040907,0 
113.5719541,22.9040924,0 
113.5719525,22.9040942,0 
113.5719508,22.9040959,0 
113.5719492,22.9040976,0 
113.5719476,22.9040993,0 
113.5719459,22.9041010,0 
113.5719443,22.9041027,0 
113.5719426,22.9041044,0 
113.5719410,22.9041060,0 
113.5719393,22.9041077,0 
113.5719377,22.9041093,0 
113.5719360,22.9041109,0 
113.5719344,22.9041125,0 
113.5719327,22.9041141,0 
113.5719311,22.9041157,0 
113.5719294,22.9041172,0 
113.5719278,22.9041188,0 
113.5719262,22.9041203,0 
113.5719245,22.9041218,0 
113.5719229,22.9041233,0 
113.5719213,22.9041247,0 
113.5719197,22.9041262,0 
113.5719181,22.9041276,0 
113.5719165,22.9041290,0 
113.5719149,22.9041304,0 
113.5719133,22.9041317,0 
113.5719117,22.9041330,0 
113.5719102,22.9041343,0 
113.5719086,22.9041356,0 
113.5719071,22.9041369,0 
113.5719056,22.9041381,0 
113.5719041,22.9041393,0 
113.5719026,22.9041404,0 
113.5719011,22.9041416,0 
113.5718996,22.9041427,0 
113.5718982,22.9041438,0 
113.5718968,22.9041448,0 
113.5718954,22.9041458,0 
113.5718940,22.9041468,0 
113.5718926,22.9041478,0 
113.5718913,22.9041487,0 
113.5718899,22.9041496,0 
113.5718886,22.9041505,0 
113.5718873,22.9041513,0 
113.5718861,22.9041521,0 
113.5718848,22.9041529,0 
113.5718836,22.9041536,0 
113.5718824,22.9041543,0 
113.5718812,22.9041550,0 
113.5718801,22.9041556,0 
113.5718790,22.9041562,0 
113.5718779,22.9041567,0 
113.5718768,22.9041573,0 
113.5718758,22.9041577,0 
113.5718747,22.9041582,0 
113.5718737,22.9041586,0 
113.5718728,22.9041590,0 
113.5718719,22.9041593,0 
113.5718709,22.9041596,0 
113.5718701,22.9041599,0 
113.5718692,22.9041602,0 
113.5718684,22.9041604,0 
113.5718676,22.9041605,0 
113.5718669,22.9041606,0 
113.5718661,22.9041607,0 
113.5718655,22.9041608,0 
113.5718648,22.9041608,0 
113.5718642,22.9041608,0 
113.5718636,22.9041607,0 
113.5718630,22.9041606,0 
113.5718625,22.9041605,0 
113.5718620,22.9041603,0 
113.5718615,22.9041601,0 
113.5718611,22.9041598,0 
113.5718607,22.9041596,0 
</coordinates>
</LineString>
</Placemark>
</Folder>