<Folder>
<name>SV 30 319.885700 14.707193</name>
<visibility>1</visibility>
<Placemark>
<name>circle</name>
<visibility>1</visibility>
<Style>
<geomColor>FF969696</geomColor>
<geomScale>2</geomScale></Style>
<LineString>
<coordinates>
113.5719213,22.9040954,0 
113.5719209,22.9040952,0 
113.5719206,22.9040949,0 
113.5719203,22.9040945,0 
113.5719201,22.9040942,0 
113.5719198,22.9040938,0 
113.5719196,22.9040934,0 
113.5719195,22.9040930,0 
113.5719193,22.9040925,0 
113.5719192,22.9040920,0 
113.5719190,22.9040915,0 
113.5719190,22.9040910,0 
113.5719189,22.9040904,0 
113.5719189,22.9040899,0 
113.5719189,22.9040893,0 
113.5719189,22.9040886,0 
113.5719189,22.9040880,0 
113.5719190,22.9040873,0 
113.5719191,22.9040866,0 
113.5719192,22.9040859,0 
113.5719193,22.9040852,0 
113.5719195,22.9040844,0 
113.5719196,22.9040836,0 
113.5719199,22.9040828,0 
113.5719201,22.9040820,0 
113.5719204,22.9040812,0 
113.5719206,22.9040803,0 
113.5719209,22.9040794,0 
113.5719213,22.9040785,0 
113.5719216,22.9040776,0 
113.5719220,22.9040767,0 
113.5719224,22.9040757,0 
113.5719228,22.9040748,0 
113.5719233,22.9040738,0 
113.5719237,22.9040728,0 
113.5719242,22.9040718,0 
113.5719248,22.9040707,0 
113.5719253,22.9040697,0 
113.5719259,22.9040686,0 
113.5719264,22.9040676,0 
113.5719270,22.9040665,0 
113.5719277,22.9040654,0 
113.5719283,22.9040642,0 
113.5719290,22.9040631,0 
113.5719297,22.9040620,0 
113.5719304,22.9040608,0 
113.5719311,22.9040597,0 
113.5719318,22.9040585,0 
113.5719326,22.9040573,0 
113.5719334,22.9040561,0 
113.5719342,22.9040549,0 
113.5719350,22.9040537,0 
113.5719358,22.9040525,0 
113.5719367,22.9040513,0 
113.5719376,22.9040500,0 
113.5719385,22.9040488,0 
113.5719394,22.9040475,0 
113.5719403,22.9040463,0 
113.5719412,22.9040450,0 
113.5719422,22.9040438,0 
113.5719431,22.9040425,0 
113.5719441,22.9040413,0 
113.5719451,22.9040400,0 
113.5719461,22.9040387,0 
113.5719471,22.9040375,0 
113.5719482,22.9040362,0 
113.5719492,22.9040349,0 
113.5719503,22.9040337,0 
113.5719513,22.9040324,0 
113.5719524,22.9040311,0 
113.5719535,22.9040299,0 
113.5719546,22.9040286,0 
113.5719557,22.9040274,0 
113.5719568,22.9040261,0 
113.5719579,22.9040249,0 
113.5719590,22.9040236,0 
113.5719602,22.9040224,0 
113.5719613,22.9040212,0 
113.5719625,22.9040199,0 
113.5719636,22.9040187,0 
113.5719648,22.9040175,0 
113.5719660,22.9040163,0 
113.5719671,22.9040151,0 
113.5719683,22.9040139,0 
113.5719695,22.9040128,0 
113.5719707,22.9040116,0 
113.5719718,22.9040105,0 
113.5719730,22.9040093,0 
113.5719742,22.9040082,0 
113.5719754,22.9040071,0 
113.5719766,22.9040060,0 
113.5719777,22.9040049,0 
113.5719789,22.9040038,0 
113.5719801,22.9040028,0 
113.5719813,22.9040017,0 
113.5719825,22.9040007,0 
113.5719836,22.9039997,0 
113.5719848,22.9039987,0 
113.5719860,22.9039977,0 
113.5719871,22.9039967,0 
113.5719883,22.9039958,0 
113.5719894,22.9039948,0 
113.5719906,22.9039939,0 
113.5719917,22.9039930,0 
113.5719928,22.9039921,0 
113.5719940,22.9039913,0 
113.5719951,22.9039905,0 
113.5719962,22.9039896,0 
113.5719973,22.9039888,0 
113.5719984,22.9039881,0 
113.5719994,22.9039873,0 
113.5720005,22.9039866,0 
113.5720016,22.9039859,0 
113.5720026,22.9039852,0 
113.5720036,22.9039845,0 
113.5720046,22.9039839,0 
113.5720056,22.9039832,0 
113.5720066,22.9039827,0 
113.5720076,22.9039821,0 
113.5720086,22.9039815,0 
113.5720095,22.9039810,0 
113.5720105,22.9039805,0 
113.5720114,22.9039800,0 
113.5720123,22.9039796,0 
113.5720132,22.9039791,0 
113.5720140,22.9039787,0 
113.5720149,22.9039784,0 
113.5720157,22.9039780,0 
113.5720166,22.9039777,0 
113.5720174,22.9039774,0 
113.5720181,22.9039771,0 
113.5720189,22.9039769,0 
113.5720196,22.9039766,0 
113.5720204,22.9039764,0 
113.5720211,22.9039763,0 
113.5720218,22.9039761,0 
113.5720224,22.9039760,0 
113.5720231,22.9039759,0 
113.5720237,22.9039759,0 
113.5720243,22.9039758,0 
113.5720249,22.9039758,0 
113.5720254,22.9039758,0 
113.5720260,22.9039759,0 
113.5720265,22.9039759,0 
113.5720270,22.9039760,0 
113.5720274,22.9039761,0 
113.5720279,22.9039763,0 
113.5720283,22.9039765,0 
113.5720287,22.9039767,0 
113.5720291,22.9039769,0 
113.5720294,22.9039771,0 
113.5720298,22.9039774,0 
113.5720301,22.9039777,0 
113.5720304,22.9039781,0 
113.5720306,22.9039784,0 
113.5720309,22.9039788,0 
113.5720311,22.9039792,0 
113.5720312,22.9039796,0 
113.5720314,22.9039801,0 
113.5720315,22.9039806,0 
113.5720317,22.9039811,0 
113.5720317,22.9039816,0 
113.5720318,22.9039821,0 
113.5720318,22.9039827,0 
113.5720318,22.9039833,0 
113.5720318,22.9039839,0 
113.5720318,22.9039846,0 
113.5720317,22.9039853,0 
113.5720316,22.9039860,0 
113.5720315,22.9039867,0 
113.5720314,22.9039874,0 
113.5720312,22.9039882,0 
113.5720311,22.9039889,0 
113.5720308,22.9039897,0 
113.5720306,22.9039906,0 
113.5720303,22.9039914,0 
113.5720301,22.9039922,0 
113.5720298,22.9039931,0 
113.5720294,22.9039940,0 
113.5720291,22.9039949,0 
113.5720287,22.9039959,0 
113.5720283,22.9039968,0 
113.5720279,22.9039978,0 
113.5720274,22.9039988,0 
113.5720270,22.9039998,0 
113.5720265,22.9040008,0 
113.5720259,22.9040018,0 
113.5720254,22.9040029,0 
113.5720248,22.9040039,0 
113.5720243,22.9040050,0 
113.5720237,22.9040061,0 
113.5720230,22.9040072,0 
113.5720224,22.9040083,0 
113.5720217,22.9040095,0 
113.5720210,22.9040106,0 
113.5720203,22.9040118,0 
113.5720196,22.9040129,0 
113.5720189,22.9040141,0 
113.5720181,22.9040153,0 
113.5720173,22.9040165,0 
113.5720165,22.9040177,0 
113.5720157,22.9040189,0 
113.5720149,22.9040201,0 
113.5720140,22.9040213,0 
113.5720131,22.9040226,0 
113.5720122,22.9040238,0 
113.5720113,22.9040250,0 
113.5720104,22.9040263,0 
113.5720095,22.9040275,0 
113.5720085,22.9040288,0 
113.5720076,22.9040300,0 
113.5720066,22.9040313,0 
113.5720056,22.9040326,0 
113.5720046,22.9040338,0 
113.5720036,22.9040351,0 
113.5720025,22.9040364,0 
113.5720015,22.9040376,0 
113.5720004,22.9040389,0 
113.5719994,22.9040402,0 
113.5719983,22.9040414,0 
113.5719972,22.9040427,0 
113.5719961,22.9040439,0 
113.5719950,22.9040452,0 
113.5719939,22.9040464,0 
113.5719928,22.9040477,0 
113.5719917,22.9040489,0 
113.5719905,22.9040502,0 
113.5719894,22.9040514,0 
113.5719882,22.9040526,0 
113.5719871,22.9040538,0 
113.5719859,22.9040551,0 
113.5719847,22.9040563,0 
113.5719836,22.9040574,0 
113.5719824,22.9040586,0 
113.5719812,22.9040598,0 
113.5719800,22.9040610,0 
113.5719789,22.9040621,0 
113.5719777,22.9040632,0 
113.5719765,22.9040644,0 
113.5719753,22.9040655,0 
113.5719741,22.9040666,0 
113.5719730,22.9040677,0 
113.5719718,22.9040688,0 
113.5719706,22.9040698,0 
113.5719694,22.9040709,0 
113.5719682,22.9040719,0 
113.5719671,22.9040729,0 
113.5719659,22.9040739,0 
113.5719647,22.9040749,0 
113.5719636,22.9040759,0 
113.5719624,22.9040768,0 
113.5719613,22.9040777,0 
113.5719601,22.9040787,0 
113.5719590,22.9040796,0 
113.5719579,22.9040804,0 
113.5719567,22.9040813,0 
113.5719556,22.9040821,0 
113.5719545,22.9040829,0 
113.5719534,22.9040837,0 
113.5719523,22.9040845,0 
113.5719513,22.9040853,0 
113.5719502,22.9040860,0 
113.5719491,22.9040867,0 
113.5719481,22.9040874,0 
113.5719471,22.9040881,0 
113.5719461,22.9040887,0 
113.5719451,22.9040893,0 
113.5719441,22.9040899,0 
113.5719431,22.9040905,0 
113.5719421,22.9040910,0 
113.5719412,22.9040916,0 
113.5719402,22.9040921,0 
113.5719393,22.9040926,0 
113.5719384,22.9040930,0 
113.5719375,22.9040934,0 
113.5719367,22.9040938,0 
113.5719358,22.9040942,0 
113.5719350,22.9040946,0 
113.5719341,22.9040949,0 
113.5719333,22.9040952,0 
113.5719326,22.9040955,0 
113.5719318,22.9040957,0 
113.5719311,22.9040959,0 
113.5719303,22.9040961,0 
113.5719296,22.9040963,0 
113.5719289,22.9040964,0 
113.5719283,22.9040966,0 
113.5719276,22.9040967,0 
113.5719270,22.9040967,0 
113.5719264,22.9040968,0 
113.5719258,22.9040968,0 
113.5719253,22.9040968,0 
113.5719247,22.9040967,0 
113.5719242,22.9040966,0 
113.5719237,22.9040966,0 
113.5719233,22.9040964,0 
113.5719228,22.9040963,0 
113.5719224,22.9040961,0 
113.5719220,22.9040959,0 
113.5719216,22.9040957,0 
113.5719213,22.9040954,0 
</coordinates>
</LineString>
</Placemark>
</Folder>