<Folder>
<name>SV 23 291.761872 14.966054</name>
<visibility>1</visibility>
<Placemark>
<name>circle</name>
<visibility>1</visibility>
<Style>
<geomColor></geomColor>
<geomScale>2</geomScale></Style>
<LineString>
<coordinates>
113.5718608,22.9039880,0 
113.5718607,22.9039876,0 
113.5718606,22.9039873,0 
113.5718605,22.9039869,0 
113.5718605,22.9039865,0 
113.5718605,22.9039862,0 
113.5718605,22.9039858,0 
113.5718605,22.9039854,0 
113.5718606,22.9039850,0 
113.5718607,22.9039845,0 
113.5718608,22.9039841,0 
113.5718610,22.9039837,0 
113.5718612,22.9039832,0 
113.5718614,22.9039828,0 
113.5718617,22.9039823,0 
113.5718620,22.9039819,0 
113.5718623,22.9039814,0 
113.5718626,22.9039809,0 
113.5718630,22.9039804,0 
113.5718634,22.9039799,0 
113.5718638,22.9039794,0 
113.5718642,22.9039789,0 
113.5718647,22.9039783,0 
113.5718652,22.9039778,0 
113.5718658,22.9039773,0 
113.5718663,22.9039767,0 
113.5718669,22.9039762,0 
113.5718675,22.9039756,0 
113.5718682,22.9039751,0 
113.5718688,22.9039745,0 
113.5718695,22.9039739,0 
113.5718702,22.9039734,0 
113.5718710,22.9039728,0 
113.5718717,22.9039722,0 
113.5718725,22.9039716,0 
113.5718733,22.9039710,0 
113.5718742,22.9039704,0 
113.5718750,22.9039699,0 
113.5718759,22.9039693,0 
113.5718768,22.9039687,0 
113.5718778,22.9039681,0 
113.5718787,22.9039674,0 
113.5718797,22.9039668,0 
113.5718807,22.9039662,0 
113.5718817,22.9039656,0 
113.5718827,22.9039650,0 
113.5718838,22.9039644,0 
113.5718849,22.9039638,0 
113.5718860,22.9039632,0 
113.5718871,22.9039626,0 
113.5718882,22.9039620,0 
113.5718894,22.9039613,0 
113.5718905,22.9039607,0 
113.5718917,22.9039601,0 
113.5718929,22.9039595,0 
113.5718941,22.9039589,0 
113.5718953,22.9039583,0 
113.5718966,22.9039577,0 
113.5718978,22.9039571,0 
113.5718991,22.9039565,0 
113.5719004,22.9039559,0 
113.5719016,22.9039553,0 
113.5719029,22.9039547,0 
113.5719043,22.9039542,0 
113.5719056,22.9039536,0 
113.5719069,22.9039530,0 
113.5719083,22.9039524,0 
113.5719096,22.9039519,0 
113.5719110,22.9039513,0 
113.5719123,22.9039508,0 
113.5719137,22.9039502,0 
113.5719151,22.9039497,0 
113.5719165,22.9039491,0 
113.5719178,22.9039486,0 
113.5719192,22.9039481,0 
113.5719206,22.9039476,0 
113.5719220,22.9039471,0 
113.5719234,22.9039466,0 
113.5719248,22.9039461,0 
113.5719262,22.9039456,0 
113.5719276,22.9039451,0 
113.5719290,22.9039446,0 
113.5719304,22.9039442,0 
113.5719318,22.9039437,0 
113.5719332,22.9039433,0 
113.5719346,22.9039428,0 
113.5719360,22.9039424,0 
113.5719374,22.9039420,0 
113.5719388,22.9039416,0 
113.5719402,22.9039412,0 
113.5719416,22.9039408,0 
113.5719429,22.9039404,0 
113.5719443,22.9039400,0 
113.5719457,22.9039397,0 
113.5719470,22.9039393,0 
113.5719483,22.9039390,0 
113.5719497,22.9039386,0 
113.5719510,22.9039383,0 
113.5719523,22.9039380,0 
113.5719536,22.9039377,0 
113.5719549,22.9039374,0 
113.5719562,22.9039372,0 
113.5719574,22.9039369,0 
113.5719587,22.9039366,0 
113.5719599,22.9039364,0 
113.5719611,22.9039362,0 
113.5719623,22.9039360,0 
113.5719635,22.9039358,0 
113.5719647,22.9039356,0 
113.5719659,22.9039354,0 
113.5719670,22.9039352,0 
113.5719681,22.9039351,0 
113.5719693,22.9039349,0 
113.5719703,22.9039348,0 
113.5719714,22.9039347,0 
113.5719725,22.9039346,0 
113.5719735,22.9039345,0 
113.5719745,22.9039344,0 
113.5719755,22.9039344,0 
113.5719765,22.9039343,0 
113.5719774,22.9039343,0 
113.5719783,22.9039342,0 
113.5719792,22.9039342,0 
113.5719801,22.9039342,0 
113.5719810,22.9039342,0 
113.5719818,22.9039343,0 
113.5719826,22.9039343,0 
113.5719834,22.9039343,0 
113.5719842,22.9039344,0 
113.5719849,22.9039345,0 
113.5719856,22.9039346,0 
113.5719863,22.9039347,0 
113.5719870,22.9039348,0 
113.5719876,22.9039349,0 
113.5719882,22.9039351,0 
113.5719888,22.9039352,0 
113.5719894,22.9039354,0 
113.5719899,22.9039355,0 
113.5719904,22.9039357,0 
113.5719909,22.9039359,0 
113.5719913,22.9039361,0 
113.5719917,22.9039364,0 
113.5719921,22.9039366,0 
113.5719925,22.9039369,0 
113.5719928,22.9039371,0 
113.5719931,22.9039374,0 
113.5719934,22.9039377,0 
113.5719936,22.9039380,0 
113.5719938,22.9039383,0 
113.5719940,22.9039386,0 
113.5719942,22.9039389,0 
113.5719943,22.9039392,0 
113.5719944,22.9039396,0 
113.5719945,22.9039400,0 
113.5719945,22.9039403,0 
113.5719945,22.9039407,0 
113.5719945,22.9039411,0 
113.5719945,22.9039415,0 
113.5719944,22.9039419,0 
113.5719943,22.9039423,0 
113.5719942,22.9039427,0 
113.5719940,22.9039432,0 
113.5719938,22.9039436,0 
113.5719936,22.9039441,0 
113.5719933,22.9039445,0 
113.5719931,22.9039450,0 
113.5719927,22.9039455,0 
113.5719924,22.9039460,0 
113.5719920,22.9039465,0 
113.5719916,22.9039470,0 
113.5719912,22.9039475,0 
113.5719908,22.9039480,0 
113.5719903,22.9039485,0 
113.5719898,22.9039490,0 
113.5719893,22.9039496,0 
113.5719887,22.9039501,0 
113.5719881,22.9039507,0 
113.5719875,22.9039512,0 
113.5719869,22.9039518,0 
113.5719862,22.9039523,0 
113.5719855,22.9039529,0 
113.5719848,22.9039535,0 
113.5719840,22.9039541,0 
113.5719833,22.9039546,0 
113.5719825,22.9039552,0 
113.5719817,22.9039558,0 
113.5719808,22.9039564,0 
113.5719800,22.9039570,0 
113.5719791,22.9039576,0 
113.5719782,22.9039582,0 
113.5719772,22.9039588,0 
113.5719763,22.9039594,0 
113.5719753,22.9039600,0 
113.5719743,22.9039606,0 
113.5719733,22.9039612,0 
113.5719723,22.9039619,0 
113.5719712,22.9039625,0 
113.5719701,22.9039631,0 
113.5719690,22.9039637,0 
113.5719679,22.9039643,0 
113.5719668,22.9039649,0 
113.5719657,22.9039655,0 
113.5719645,22.9039661,0 
113.5719633,22.9039667,0 
113.5719621,22.9039673,0 
113.5719609,22.9039679,0 
113.5719597,22.9039686,0 
113.5719584,22.9039692,0 
113.5719572,22.9039698,0 
113.5719559,22.9039703,0 
113.5719547,22.9039709,0 
113.5719534,22.9039715,0 
113.5719521,22.9039721,0 
113.5719507,22.9039727,0 
113.5719494,22.9039733,0 
113.5719481,22.9039738,0 
113.5719468,22.9039744,0 
113.5719454,22.9039750,0 
113.5719440,22.9039755,0 
113.5719427,22.9039761,0 
113.5719413,22.9039766,0 
113.5719399,22.9039772,0 
113.5719386,22.9039777,0 
113.5719372,22.9039783,0 
113.5719358,22.9039788,0 
113.5719344,22.9039793,0 
113.5719330,22.9039798,0 
113.5719316,22.9039803,0 
113.5719302,22.9039808,0 
113.5719288,22.9039813,0 
113.5719274,22.9039818,0 
113.5719260,22.9039822,0 
113.5719246,22.9039827,0 
113.5719232,22.9039832,0 
113.5719218,22.9039836,0 
113.5719204,22.9039840,0 
113.5719190,22.9039845,0 
113.5719176,22.9039849,0 
113.5719162,22.9039853,0 
113.5719148,22.9039857,0 
113.5719134,22.9039861,0 
113.5719121,22.9039865,0 
113.5719107,22.9039868,0 
113.5719093,22.9039872,0 
113.5719080,22.9039876,0 
113.5719067,22.9039879,0 
113.5719053,22.9039882,0 
113.5719040,22.9039885,0 
113.5719027,22.9039889,0 
113.5719014,22.9039891,0 
113.5719001,22.9039894,0 
113.5718988,22.9039897,0 
113.5718976,22.9039900,0 
113.5718963,22.9039902,0 
113.5718951,22.9039905,0 
113.5718939,22.9039907,0 
113.5718927,22.9039909,0 
113.5718915,22.9039911,0 
113.5718903,22.9039913,0 
113.5718891,22.9039915,0 
113.5718880,22.9039916,0 
113.5718869,22.9039918,0 
113.5718858,22.9039919,0 
113.5718847,22.9039921,0 
113.5718836,22.9039922,0 
113.5718825,22.9039923,0 
113.5718815,22.9039924,0 
113.5718805,22.9039924,0 
113.5718795,22.9039925,0 
113.5718785,22.9039926,0 
113.5718776,22.9039926,0 
113.5718767,22.9039926,0 
113.5718758,22.9039926,0 
113.5718749,22.9039926,0 
113.5718740,22.9039926,0 
113.5718732,22.9039926,0 
113.5718724,22.9039926,0 
113.5718716,22.9039925,0 
113.5718708,22.9039924,0 
113.5718701,22.9039924,0 
113.5718694,22.9039923,0 
113.5718687,22.9039922,0 
113.5718680,22.9039921,0 
113.5718674,22.9039919,0 
113.5718668,22.9039918,0 
113.5718662,22.9039917,0 
113.5718657,22.9039915,0 
113.5718651,22.9039913,0 
113.5718646,22.9039911,0 
113.5718641,22.9039909,0 
113.5718637,22.9039907,0 
113.5718633,22.9039905,0 
113.5718629,22.9039903,0 
113.5718625,22.9039900,0 
113.5718622,22.9039897,0 
113.5718619,22.9039895,0 
113.5718616,22.9039892,0 
113.5718614,22.9039889,0 
113.5718612,22.9039886,0 
113.5718610,22.9039883,0 
113.5718608,22.9039880,0 
</coordinates>
</LineString>
</Placemark>
</Folder>