<Folder>
<name>SV  7 178.368900 10.004883</name>
<visibility>1</visibility>
<Placemark>
<name>circle</name>
<visibility>1</visibility>
<Style>
<geomColor>FF0000FF</geomColor>
<geomScale>2</geomScale></Style>
<LineString>
<coordinates>
113.5721131,22.9034770,0 
113.5721136,22.9034770,0 
113.5721142,22.9034771,0 
113.5721147,22.9034773,0 
113.5721153,22.9034775,0 
113.5721158,22.9034778,0 
113.5721163,22.9034782,0 
113.5721169,22.9034786,0 
113.5721174,22.9034790,0 
113.5721179,22.9034796,0 
113.5721185,22.9034802,0 
113.5721190,22.9034808,0 
113.5721195,22.9034815,0 
113.5721200,22.9034823,0 
113.5721205,22.9034831,0 
113.5721210,22.9034840,0 
113.5721215,22.9034850,0 
113.5721220,22.9034860,0 
113.5721225,22.9034870,0 
113.5721230,22.9034882,0 
113.5721234,22.9034893,0 
113.5721239,22.9034906,0 
113.5721244,22.9034919,0 
113.5721248,22.9034932,0 
113.5721253,22.9034946,0 
113.5721257,22.9034961,0 
113.5721261,22.9034976,0 
113.5721265,22.9034991,0 
113.5721270,22.9035007,0 
113.5721274,22.9035024,0 
113.5721278,22.9035041,0 
113.5721281,22.9035059,0 
113.5721285,22.9035077,0 
113.5721289,22.9035095,0 
113.5721293,22.9035114,0 
113.5721296,22.9035134,0 
113.5721300,22.9035154,0 
113.5721303,22.9035174,0 
113.5721306,22.9035195,0 
113.5721309,22.9035216,0 
113.5721313,22.9035238,0 
113.5721316,22.9035260,0 
113.5721318,22.9035282,0 
113.5721321,22.9035305,0 
113.5721324,22.9035328,0 
113.5721326,22.9035352,0 
113.5721329,22.9035376,0 
113.5721331,22.9035400,0 
113.5721333,22.9035425,0 
113.5721336,22.9035450,0 
113.5721338,22.9035475,0 
113.5721340,22.9035501,0 
113.5721341,22.9035527,0 
113.5721343,22.9035553,0 
113.5721345,22.9035579,0 
113.5721346,22.9035606,0 
113.5721348,22.9035633,0 
113.5721349,22.9035660,0 
113.5721350,22.9035687,0 
113.5721351,22.9035715,0 
113.5721352,22.9035743,0 
113.5721353,22.9035771,0 
113.5721353,22.9035799,0 
113.5721354,22.9035827,0 
113.5721354,22.9035856,0 
113.5721355,22.9035885,0 
113.5721355,22.9035913,0 
113.5721355,22.9035942,0 
113.5721355,22.9035971,0 
113.5721355,22.9036000,0 
113.5721354,22.9036029,0 
113.5721354,22.9036058,0 
113.5721354,22.9036088,0 
113.5721353,22.9036117,0 
113.5721352,22.9036146,0 
113.5721351,22.9036176,0 
113.5721350,22.9036205,0 
113.5721349,22.9036234,0 
113.5721348,22.9036263,0 
113.5721347,22.9036293,0 
113.5721345,22.9036322,0 
113.5721344,22.9036351,0 
113.5721342,22.9036380,0 
113.5721340,22.9036409,0 
113.5721339,22.9036438,0 
113.5721337,22.9036466,0 
113.5721335,22.9036495,0 
113.5721332,22.9036523,0 
113.5721330,22.9036551,0 
113.5721328,22.9036580,0 
113.5721325,22.9036607,0 
113.5721322,22.9036635,0 
113.5721320,22.9036663,0 
113.5721317,22.9036690,0 
113.5721314,22.9036717,0 
113.5721311,22.9036744,0 
113.5721308,22.9036770,0 
113.5721305,22.9036797,0 
113.5721301,22.9036823,0 
113.5721298,22.9036849,0 
113.5721294,22.9036874,0 
113.5721291,22.9036899,0 
113.5721287,22.9036924,0 
113.5721283,22.9036948,0 
113.5721279,22.9036973,0 
113.5721276,22.9036996,0 
113.5721272,22.9037020,0 
113.5721267,22.9037043,0 
113.5721263,22.9037066,0 
113.5721259,22.9037088,0 
113.5721255,22.9037110,0 
113.5721250,22.9037131,0 
113.5721246,22.9037152,0 
113.5721241,22.9037173,0 
113.5721237,22.9037193,0 
113.5721232,22.9037213,0 
113.5721227,22.9037232,0 
113.5721222,22.9037251,0 
113.5721218,22.9037269,0 
113.5721213,22.9037287,0 
113.5721208,22.9037304,0 
113.5721203,22.9037321,0 
113.5721198,22.9037338,0 
113.5721192,22.9037353,0 
113.5721187,22.9037369,0 
113.5721182,22.9037384,0 
113.5721177,22.9037398,0 
113.5721171,22.9037412,0 
113.5721166,22.9037425,0 
113.5721161,22.9037437,0 
113.5721155,22.9037449,0 
113.5721150,22.9037461,0 
113.5721144,22.9037472,0 
113.5721139,22.9037482,0 
113.5721133,22.9037492,0 
113.5721128,22.9037501,0 
113.5721122,22.9037510,0 
113.5721117,22.9037518,0 
113.5721111,22.9037525,0 
113.5721106,22.9037532,0 
113.5721100,22.9037538,0 
113.5721094,22.9037544,0 
113.5721089,22.9037549,0 
113.5721083,22.9037553,0 
113.5721078,22.9037557,0 
113.5721072,22.9037561,0 
113.5721067,22.9037563,0 
113.5721061,22.9037565,0 
113.5721055,22.9037567,0 
113.5721050,22.9037567,0 
113.5721044,22.9037567,0 
113.5721039,22.9037567,0 
113.5721033,22.9037566,0 
113.5721028,22.9037564,0 
113.5721022,22.9037562,0 
113.5721017,22.9037559,0 
113.5721012,22.9037556,0 
113.5721006,22.9037551,0 
113.5721001,22.9037547,0 
113.5720996,22.9037541,0 
113.5720990,22.9037535,0 
113.5720985,22.9037529,0 
113.5720980,22.9037522,0 
113.5720975,22.9037514,0 
113.5720970,22.9037506,0 
113.5720965,22.9037497,0 
113.5720960,22.9037487,0 
113.5720955,22.9037477,0 
113.5720950,22.9037467,0 
113.5720945,22.9037456,0 
113.5720941,22.9037444,0 
113.5720936,22.9037431,0 
113.5720931,22.9037419,0 
113.5720927,22.9037405,0 
113.5720923,22.9037391,0 
113.5720918,22.9037377,0 
113.5720914,22.9037362,0 
113.5720910,22.9037346,0 
113.5720906,22.9037330,0 
113.5720901,22.9037313,0 
113.5720897,22.9037296,0 
113.5720894,22.9037279,0 
113.5720890,22.9037261,0 
113.5720886,22.9037242,0 
113.5720882,22.9037223,0 
113.5720879,22.9037204,0 
113.5720875,22.9037184,0 
113.5720872,22.9037163,0 
113.5720869,22.9037142,0 
113.5720866,22.9037121,0 
113.5720863,22.9037099,0 
113.5720860,22.9037077,0 
113.5720857,22.9037055,0 
113.5720854,22.9037032,0 
113.5720851,22.9037009,0 
113.5720849,22.9036985,0 
113.5720846,22.9036961,0 
113.5720844,22.9036937,0 
113.5720842,22.9036912,0 
113.5720839,22.9036887,0 
113.5720837,22.9036862,0 
113.5720835,22.9036836,0 
113.5720834,22.9036811,0 
113.5720832,22.9036784,0 
113.5720830,22.9036758,0 
113.5720829,22.9036731,0 
113.5720828,22.9036704,0 
113.5720826,22.9036677,0 
113.5720825,22.9036650,0 
113.5720824,22.9036622,0 
113.5720823,22.9036594,0 
113.5720822,22.9036566,0 
113.5720822,22.9036538,0 
113.5720821,22.9036510,0 
113.5720821,22.9036481,0 
113.5720820,22.9036453,0 
113.5720820,22.9036424,0 
113.5720820,22.9036395,0 
113.5720820,22.9036366,0 
113.5720820,22.9036337,0 
113.5720821,22.9036308,0 
113.5720821,22.9036279,0 
113.5720821,22.9036250,0 
113.5720822,22.9036220,0 
113.5720823,22.9036191,0 
113.5720824,22.9036162,0 
113.5720825,22.9036132,0 
113.5720826,22.9036103,0 
113.5720827,22.9036074,0 
113.5720828,22.9036045,0 
113.5720830,22.9036015,0 
113.5720831,22.9035986,0 
113.5720833,22.9035957,0 
113.5720835,22.9035928,0 
113.5720836,22.9035900,0 
113.5720838,22.9035871,0 
113.5720841,22.9035842,0 
113.5720843,22.9035814,0 
113.5720845,22.9035786,0 
113.5720847,22.9035758,0 
113.5720850,22.9035730,0 
113.5720853,22.9035702,0 
113.5720855,22.9035674,0 
113.5720858,22.9035647,0 
113.5720861,22.9035620,0 
113.5720864,22.9035593,0 
113.5720867,22.9035567,0 
113.5720870,22.9035540,0 
113.5720874,22.9035514,0 
113.5720877,22.9035489,0 
113.5720881,22.9035463,0 
113.5720884,22.9035438,0 
113.5720888,22.9035413,0 
113.5720892,22.9035389,0 
113.5720896,22.9035365,0 
113.5720899,22.9035341,0 
113.5720904,22.9035317,0 
113.5720908,22.9035294,0 
113.5720912,22.9035272,0 
113.5720916,22.9035249,0 
113.5720920,22.9035227,0 
113.5720925,22.9035206,0 
113.5720929,22.9035185,0 
113.5720934,22.9035164,0 
113.5720938,22.9035144,0 
113.5720943,22.9035124,0 
113.5720948,22.9035105,0 
113.5720953,22.9035086,0 
113.5720958,22.9035068,0 
113.5720962,22.9035050,0 
113.5720967,22.9035033,0 
113.5720972,22.9035016,0 
113.5720978,22.9035000,0 
113.5720983,22.9034984,0 
113.5720988,22.9034968,0 
113.5720993,22.9034954,0 
113.5720998,22.9034939,0 
113.5721004,22.9034926,0 
113.5721009,22.9034912,0 
113.5721014,22.9034900,0 
113.5721020,22.9034888,0 
113.5721025,22.9034876,0 
113.5721031,22.9034865,0 
113.5721036,22.9034855,0 
113.5721042,22.9034845,0 
113.5721047,22.9034836,0 
113.5721053,22.9034827,0 
113.5721058,22.9034819,0 
113.5721064,22.9034812,0 
113.5721069,22.9034805,0 
113.5721075,22.9034799,0 
113.5721081,22.9034793,0 
113.5721086,22.9034788,0 
113.5721092,22.9034784,0 
113.5721097,22.9034780,0 
113.5721103,22.9034777,0 
113.5721109,22.9034774,0 
113.5721114,22.9034772,0 
113.5721120,22.9034771,0 
113.5721125,22.9034770,0 
113.5721131,22.9034770,0 
</coordinates>
</LineString>
</Placemark>
</Folder>