<Folder>
<name>SV  7 180.745587 13.495334</name>
<visibility>1</visibility>
<Placemark>
<name>circle</name>
<visibility>1</visibility>
<Style>
<geomColor>FF0000FF</geomColor>
<geomScale>2</geomScale></Style>
<LineString>
<coordinates>
113.5720959,22.9036094,0 
113.5720964,22.9036094,0 
113.5720968,22.9036095,0 
113.5720973,22.9036096,0 
113.5720978,22.9036097,0 
113.5720983,22.9036099,0 
113.5720987,22.9036101,0 
113.5720992,22.9036103,0 
113.5720997,22.9036106,0 
113.5721001,22.9036109,0 
113.5721006,22.9036113,0 
113.5721011,22.9036117,0 
113.5721015,22.9036121,0 
113.5721020,22.9036126,0 
113.5721025,22.9036131,0 
113.5721029,22.9036137,0 
113.5721034,22.9036143,0 
113.5721038,22.9036149,0 
113.5721043,22.9036156,0 
113.5721047,22.9036163,0 
113.5721052,22.9036170,0 
113.5721056,22.9036178,0 
113.5721061,22.9036186,0 
113.5721065,22.9036194,0 
113.5721069,22.9036203,0 
113.5721074,22.9036212,0 
113.5721078,22.9036222,0 
113.5721082,22.9036231,0 
113.5721086,22.9036242,0 
113.5721090,22.9036252,0 
113.5721094,22.9036263,0 
113.5721098,22.9036274,0 
113.5721102,22.9036285,0 
113.5721106,22.9036297,0 
113.5721110,22.9036309,0 
113.5721113,22.9036321,0 
113.5721117,22.9036334,0 
113.5721120,22.9036347,0 
113.5721124,22.9036360,0 
113.5721127,22.9036373,0 
113.5721131,22.9036387,0 
113.5721134,22.9036401,0 
113.5721137,22.9036415,0 
113.5721141,22.9036430,0 
113.5721144,22.9036444,0 
113.5721147,22.9036459,0 
113.5721150,22.9036474,0 
113.5721153,22.9036490,0 
113.5721155,22.9036505,0 
113.5721158,22.9036521,0 
113.5721161,22.9036537,0 
113.5721163,22.9036554,0 
113.5721166,22.9036570,0 
113.5721168,22.9036587,0 
113.5721170,22.9036603,0 
113.5721173,22.9036620,0 
113.5721175,22.9036637,0 
113.5721177,22.9036655,0 
113.5721179,22.9036672,0 
113.5721181,22.9036690,0 
113.5721182,22.9036707,0 
113.5721184,22.9036725,0 
113.5721186,22.9036743,0 
113.5721187,22.9036761,0 
113.5721188,22.9036779,0 
113.5721190,22.9036797,0 
113.5721191,22.9036816,0 
113.5721192,22.9036834,0 
113.5721193,22.9036852,0 
113.5721194,22.9036871,0 
113.5721195,22.9036889,0 
113.5721195,22.9036908,0 
113.5721196,22.9036927,0 
113.5721197,22.9036945,0 
113.5721197,22.9036964,0 
113.5721197,22.9036983,0 
113.5721197,22.9037001,0 
113.5721198,22.9037020,0 
113.5721198,22.9037038,0 
113.5721198,22.9037057,0 
113.5721197,22.9037076,0 
113.5721197,22.9037094,0 
113.5721197,22.9037113,0 
113.5721196,22.9037131,0 
113.5721196,22.9037150,0 
113.5721195,22.9037168,0 
113.5721194,22.9037186,0 
113.5721193,22.9037204,0 
113.5721192,22.9037222,0 
113.5721191,22.9037240,0 
113.5721190,22.9037258,0 
113.5721189,22.9037276,0 
113.5721188,22.9037293,0 
113.5721186,22.9037311,0 
113.5721185,22.9037328,0 
113.5721183,22.9037345,0 
113.5721181,22.9037362,0 
113.5721179,22.9037379,0 
113.5721177,22.9037396,0 
113.5721175,22.9037412,0 
113.5721173,22.9037428,0 
113.5721171,22.9037445,0 
113.5721169,22.9037460,0 
113.5721167,22.9037476,0 
113.5721164,22.9037492,0 
113.5721162,22.9037507,0 
113.5721159,22.9037522,0 
113.5721156,22.9037537,0 
113.5721153,22.9037551,0 
113.5721151,22.9037565,0 
113.5721148,22.9037579,0 
113.5721145,22.9037593,0 
113.5721142,22.9037607,0 
113.5721138,22.9037620,0 
113.5721135,22.9037633,0 
113.5721132,22.9037646,0 
113.5721129,22.9037658,0 
113.5721125,22.9037670,0 
113.5721122,22.9037682,0 
113.5721118,22.9037693,0 
113.5721114,22.9037705,0 
113.5721111,22.9037715,0 
113.5721107,22.9037726,0 
113.5721103,22.9037736,0 
113.5721099,22.9037746,0 
113.5721095,22.9037756,0 
113.5721091,22.9037765,0 
113.5721087,22.9037774,0 
113.5721083,22.9037782,0 
113.5721079,22.9037790,0 
113.5721075,22.9037798,0 
113.5721071,22.9037806,0 
113.5721066,22.9037813,0 
113.5721062,22.9037819,0 
113.5721058,22.9037826,0 
113.5721053,22.9037832,0 
113.5721049,22.9037837,0 
113.5721044,22.9037843,0 
113.5721040,22.9037848,0 
113.5721035,22.9037852,0 
113.5721031,22.9037856,0 
113.5721026,22.9037860,0 
113.5721022,22.9037863,0 
113.5721017,22.9037866,0 
113.5721012,22.9037869,0 
113.5721008,22.9037871,0 
113.5721003,22.9037873,0 
113.5720998,22.9037874,0 
113.5720994,22.9037875,0 
113.5720989,22.9037876,0 
113.5720984,22.9037876,0 
113.5720979,22.9037876,0 
113.5720975,22.9037876,0 
113.5720970,22.9037875,0 
113.5720965,22.9037873,0 
113.5720960,22.9037872,0 
113.5720956,22.9037870,0 
113.5720951,22.9037867,0 
113.5720946,22.9037864,0 
113.5720942,22.9037861,0 
113.5720937,22.9037857,0 
113.5720932,22.9037853,0 
113.5720928,22.9037849,0 
113.5720923,22.9037844,0 
113.5720918,22.9037839,0 
113.5720914,22.9037834,0 
113.5720909,22.9037828,0 
113.5720905,22.9037821,0 
113.5720900,22.9037815,0 
113.5720896,22.9037808,0 
113.5720891,22.9037800,0 
113.5720887,22.9037793,0 
113.5720882,22.9037785,0 
113.5720878,22.9037776,0 
113.5720874,22.9037767,0 
113.5720870,22.9037758,0 
113.5720865,22.9037749,0 
113.5720861,22.9037739,0 
113.5720857,22.9037729,0 
113.5720853,22.9037718,0 
113.5720849,22.9037708,0 
113.5720845,22.9037697,0 
113.5720841,22.9037685,0 
113.5720837,22.9037674,0 
113.5720834,22.9037662,0 
113.5720830,22.9037649,0 
113.5720826,22.9037637,0 
113.5720823,22.9037624,0 
113.5720819,22.9037611,0 
113.5720816,22.9037597,0 
113.5720812,22.9037583,0 
113.5720809,22.9037570,0 
113.5720806,22.9037555,0 
113.5720802,22.9037541,0 
113.5720799,22.9037526,0 
113.5720796,22.9037511,0 
113.5720793,22.9037496,0 
113.5720790,22.9037481,0 
113.5720788,22.9037465,0 
113.5720785,22.9037449,0 
113.5720782,22.9037433,0 
113.5720780,22.9037417,0 
113.5720777,22.9037400,0 
113.5720775,22.9037384,0 
113.5720773,22.9037367,0 
113.5720770,22.9037350,0 
113.5720768,22.9037333,0 
113.5720766,22.9037316,0 
113.5720764,22.9037298,0 
113.5720762,22.9037281,0 
113.5720761,22.9037263,0 
113.5720759,22.9037245,0 
113.5720757,22.9037227,0 
113.5720756,22.9037209,0 
113.5720755,22.9037191,0 
113.5720753,22.9037173,0 
113.5720752,22.9037155,0 
113.5720751,22.9037136,0 
113.5720750,22.9037118,0 
113.5720749,22.9037100,0 
113.5720748,22.9037081,0 
113.5720748,22.9037062,0 
113.5720747,22.9037044,0 
113.5720747,22.9037025,0 
113.5720746,22.9037007,0 
113.5720746,22.9036988,0 
113.5720746,22.9036969,0 
113.5720745,22.9036951,0 
113.5720745,22.9036932,0 
113.5720746,22.9036913,0 
113.5720746,22.9036895,0 
113.5720746,22.9036876,0 
113.5720746,22.9036858,0 
113.5720747,22.9036839,0 
113.5720747,22.9036821,0 
113.5720748,22.9036803,0 
113.5720749,22.9036784,0 
113.5720750,22.9036766,0 
113.5720751,22.9036748,0 
113.5720752,22.9036730,0 
113.5720753,22.9036712,0 
113.5720754,22.9036695,0 
113.5720756,22.9036677,0 
113.5720757,22.9036660,0 
113.5720759,22.9036642,0 
113.5720760,22.9036625,0 
113.5720762,22.9036608,0 
113.5720764,22.9036591,0 
113.5720766,22.9036575,0 
113.5720768,22.9036558,0 
113.5720770,22.9036542,0 
113.5720772,22.9036526,0 
113.5720774,22.9036510,0 
113.5720777,22.9036494,0 
113.5720779,22.9036479,0 
113.5720782,22.9036464,0 
113.5720784,22.9036449,0 
113.5720787,22.9036434,0 
113.5720790,22.9036419,0 
113.5720792,22.9036405,0 
113.5720795,22.9036391,0 
113.5720798,22.9036377,0 
113.5720801,22.9036364,0 
113.5720805,22.9036350,0 
113.5720808,22.9036338,0 
113.5720811,22.9036325,0 
113.5720815,22.9036312,0 
113.5720818,22.9036300,0 
113.5720821,22.9036289,0 
113.5720825,22.9036277,0 
113.5720829,22.9036266,0 
113.5720832,22.9036255,0 
113.5720836,22.9036245,0 
113.5720840,22.9036234,0 
113.5720844,22.9036224,0 
113.5720848,22.9036215,0 
113.5720852,22.9036206,0 
113.5720856,22.9036197,0 
113.5720860,22.9036188,0 
113.5720864,22.9036180,0 
113.5720868,22.9036172,0 
113.5720872,22.9036165,0 
113.5720877,22.9036158,0 
113.5720881,22.9036151,0 
113.5720885,22.9036145,0 
113.5720890,22.9036139,0 
113.5720894,22.9036133,0 
113.5720899,22.9036128,0 
113.5720903,22.9036123,0 
113.5720908,22.9036118,0 
113.5720912,22.9036114,0 
113.5720917,22.9036110,0 
113.5720921,22.9036107,0 
113.5720926,22.9036104,0 
113.5720931,22.9036102,0 
113.5720935,22.9036099,0 
113.5720940,22.9036098,0 
113.5720945,22.9036096,0 
113.5720950,22.9036095,0 
113.5720954,22.9036094,0 
113.5720959,22.9036094,0 
</coordinates>
</LineString>
</Placemark>
</Folder>