<Folder>
<name>SV 25 273.779716 14.983979</name>
<visibility>1</visibility>
<Placemark>
<name>circle</name>
<visibility>1</visibility>
<Style>
<geomColor>FFFF007A</geomColor>
<geomScale>2</geomScale></Style>
<LineString>
<coordinates>
113.5718207,22.9039170,0 
113.5718207,22.9039166,0 
113.5718207,22.9039162,0 
113.5718208,22.9039159,0 
113.5718209,22.9039155,0 
113.5718210,22.9039151,0 
113.5718212,22.9039147,0 
113.5718213,22.9039143,0 
113.5718216,22.9039139,0 
113.5718218,22.9039136,0 
113.5718221,22.9039132,0 
113.5718224,22.9039128,0 
113.5718228,22.9039124,0 
113.5718232,22.9039120,0 
113.5718236,22.9039116,0 
113.5718240,22.9039112,0 
113.5718245,22.9039108,0 
113.5718250,22.9039105,0 
113.5718255,22.9039101,0 
113.5718261,22.9039097,0 
113.5718267,22.9039093,0 
113.5718273,22.9039089,0 
113.5718280,22.9039086,0 
113.5718287,22.9039082,0 
113.5718294,22.9039078,0 
113.5718302,22.9039074,0 
113.5718309,22.9039071,0 
113.5718317,22.9039067,0 
113.5718326,22.9039063,0 
113.5718334,22.9039060,0 
113.5718343,22.9039056,0 
113.5718353,22.9039052,0 
113.5718362,22.9039049,0 
113.5718372,22.9039045,0 
113.5718382,22.9039042,0 
113.5718392,22.9039038,0 
113.5718402,22.9039035,0 
113.5718413,22.9039032,0 
113.5718424,22.9039028,0 
113.5718435,22.9039025,0 
113.5718447,22.9039022,0 
113.5718458,22.9039018,0 
113.5718470,22.9039015,0 
113.5718482,22.9039012,0 
113.5718494,22.9039009,0 
113.5718507,22.9039006,0 
113.5718520,22.9039003,0 
113.5718533,22.9039000,0 
113.5718546,22.9038997,0 
113.5718559,22.9038995,0 
113.5718572,22.9038992,0 
113.5718586,22.9038989,0 
113.5718600,22.9038987,0 
113.5718614,22.9038984,0 
113.5718628,22.9038982,0 
113.5718642,22.9038979,0 
113.5718656,22.9038977,0 
113.5718671,22.9038974,0 
113.5718685,22.9038972,0 
113.5718700,22.9038970,0 
113.5718715,22.9038968,0 
113.5718730,22.9038966,0 
113.5718745,22.9038964,0 
113.5718760,22.9038962,0 
113.5718775,22.9038960,0 
113.5718791,22.9038958,0 
113.5718806,22.9038957,0 
113.5718821,22.9038955,0 
113.5718837,22.9038954,0 
113.5718853,22.9038952,0 
113.5718868,22.9038951,0 
113.5718884,22.9038949,0 
113.5718899,22.9038948,0 
113.5718915,22.9038947,0 
113.5718931,22.9038946,0 
113.5718947,22.9038945,0 
113.5718962,22.9038944,0 
113.5718978,22.9038943,0 
113.5718994,22.9038942,0 
113.5719010,22.9038942,0 
113.5719025,22.9038941,0 
113.5719041,22.9038941,0 
113.5719057,22.9038940,0 
113.5719072,22.9038940,0 
113.5719088,22.9038940,0 
113.5719103,22.9038939,0 
113.5719119,22.9038939,0 
113.5719134,22.9038939,0 
113.5719149,22.9038939,0 
113.5719165,22.9038939,0 
113.5719180,22.9038940,0 
113.5719195,22.9038940,0 
113.5719210,22.9038940,0 
113.5719225,22.9038941,0 
113.5719239,22.9038941,0 
113.5719254,22.9038942,0 
113.5719268,22.9038943,0 
113.5719283,22.9038943,0 
113.5719297,22.9038944,0 
113.5719311,22.9038945,0 
113.5719325,22.9038946,0 
113.5719338,22.9038947,0 
113.5719352,22.9038948,0 
113.5719365,22.9038950,0 
113.5719378,22.9038951,0 
113.5719391,22.9038952,0 
113.5719404,22.9038954,0 
113.5719417,22.9038955,0 
113.5719429,22.9038957,0 
113.5719441,22.9038959,0 
113.5719453,22.9038960,0 
113.5719465,22.9038962,0 
113.5719477,22.9038964,0 
113.5719488,22.9038966,0 
113.5719499,22.9038968,0 
113.5719510,22.9038970,0 
113.5719521,22.9038972,0 
113.5719531,22.9038975,0 
113.5719541,22.9038977,0 
113.5719551,22.9038979,0 
113.5719561,22.9038982,0 
113.5719570,22.9038984,0 
113.5719579,22.9038987,0 
113.5719588,22.9038990,0 
113.5719596,22.9038992,0 
113.5719605,22.9038995,0 
113.5719613,22.9038998,0 
113.5719620,22.9039001,0 
113.5719628,22.9039004,0 
113.5719635,22.9039006,0 
113.5719642,22.9039009,0 
113.5719648,22.9039013,0 
113.5719654,22.9039016,0 
113.5719660,22.9039019,0 
113.5719666,22.9039022,0 
113.5719671,22.9039025,0 
113.5719676,22.9039029,0 
113.5719681,22.9039032,0 
113.5719685,22.9039035,0 
113.5719689,22.9039039,0 
113.5719693,22.9039042,0 
113.5719696,22.9039046,0 
113.5719699,22.9039049,0 
113.5719702,22.9039053,0 
113.5719704,22.9039056,0 
113.5719706,22.9039060,0 
113.5719708,22.9039064,0 
113.5719710,22.9039067,0 
113.5719711,22.9039071,0 
113.5719711,22.9039075,0 
113.5719712,22.9039078,0 
113.5719712,22.9039082,0 
113.5719712,22.9039086,0 
113.5719711,22.9039090,0 
113.5719710,22.9039094,0 
113.5719709,22.9039097,0 
113.5719708,22.9039101,0 
113.5719706,22.9039105,0 
113.5719703,22.9039109,0 
113.5719701,22.9039113,0 
113.5719698,22.9039117,0 
113.5719695,22.9039121,0 
113.5719691,22.9039124,0 
113.5719688,22.9039128,0 
113.5719683,22.9039132,0 
113.5719679,22.9039136,0 
113.5719674,22.9039140,0 
113.5719669,22.9039144,0 
113.5719664,22.9039148,0 
113.5719658,22.9039151,0 
113.5719652,22.9039155,0 
113.5719646,22.9039159,0 
113.5719639,22.9039163,0 
113.5719632,22.9039167,0 
113.5719625,22.9039170,0 
113.5719617,22.9039174,0 
113.5719610,22.9039178,0 
113.5719602,22.9039182,0 
113.5719593,22.9039185,0 
113.5719585,22.9039189,0 
113.5719576,22.9039192,0 
113.5719567,22.9039196,0 
113.5719557,22.9039200,0 
113.5719547,22.9039203,0 
113.5719537,22.9039207,0 
113.5719527,22.9039210,0 
113.5719517,22.9039213,0 
113.5719506,22.9039217,0 
113.5719495,22.9039220,0 
113.5719484,22.9039223,0 
113.5719472,22.9039227,0 
113.5719461,22.9039230,0 
113.5719449,22.9039233,0 
113.5719437,22.9039236,0 
113.5719425,22.9039239,0 
113.5719412,22.9039242,0 
113.5719399,22.9039245,0 
113.5719387,22.9039248,0 
113.5719373,22.9039251,0 
113.5719360,22.9039254,0 
113.5719347,22.9039256,0 
113.5719333,22.9039259,0 
113.5719319,22.9039262,0 
113.5719306,22.9039264,0 
113.5719291,22.9039267,0 
113.5719277,22.9039269,0 
113.5719263,22.9039272,0 
113.5719248,22.9039274,0 
113.5719234,22.9039276,0 
113.5719219,22.9039278,0 
113.5719204,22.9039280,0 
113.5719189,22.9039282,0 
113.5719174,22.9039284,0 
113.5719159,22.9039286,0 
113.5719144,22.9039288,0 
113.5719129,22.9039290,0 
113.5719113,22.9039292,0 
113.5719098,22.9039293,0 
113.5719082,22.9039295,0 
113.5719067,22.9039296,0 
113.5719051,22.9039298,0 
113.5719035,22.9039299,0 
113.5719020,22.9039300,0 
113.5719004,22.9039301,0 
113.5718988,22.9039302,0 
113.5718972,22.9039303,0 
113.5718957,22.9039304,0 
113.5718941,22.9039305,0 
113.5718925,22.9039306,0 
113.5718909,22.9039307,0 
113.5718894,22.9039307,0 
113.5718878,22.9039308,0 
113.5718862,22.9039308,0 
113.5718847,22.9039308,0 
113.5718831,22.9039309,0 
113.5718816,22.9039309,0 
113.5718800,22.9039309,0 
113.5718785,22.9039309,0 
113.5718770,22.9039309,0 
113.5718754,22.9039309,0 
113.5718739,22.9039309,0 
113.5718724,22.9039308,0 
113.5718709,22.9039308,0 
113.5718695,22.9039308,0 
113.5718680,22.9039307,0 
113.5718665,22.9039306,0 
113.5718651,22.9039306,0 
113.5718637,22.9039305,0 
113.5718622,22.9039304,0 
113.5718608,22.9039303,0 
113.5718595,22.9039302,0 
113.5718581,22.9039301,0 
113.5718567,22.9039300,0 
113.5718554,22.9039299,0 
113.5718541,22.9039297,0 
113.5718528,22.9039296,0 
113.5718515,22.9039295,0 
113.5718502,22.9039293,0 
113.5718490,22.9039291,0 
113.5718478,22.9039290,0 
113.5718466,22.9039288,0 
113.5718454,22.9039286,0 
113.5718442,22.9039284,0 
113.5718431,22.9039282,0 
113.5718420,22.9039280,0 
113.5718409,22.9039278,0 
113.5718398,22.9039276,0 
113.5718388,22.9039274,0 
113.5718378,22.9039271,0 
113.5718368,22.9039269,0 
113.5718358,22.9039267,0 
113.5718349,22.9039264,0 
113.5718340,22.9039261,0 
113.5718331,22.9039259,0 
113.5718323,22.9039256,0 
113.5718314,22.9039253,0 
113.5718306,22.9039251,0 
113.5718299,22.9039248,0 
113.5718291,22.9039245,0 
113.5718284,22.9039242,0 
113.5718278,22.9039239,0 
113.5718271,22.9039236,0 
113.5718265,22.9039233,0 
113.5718259,22.9039230,0 
113.5718253,22.9039226,0 
113.5718248,22.9039223,0 
113.5718243,22.9039220,0 
113.5718238,22.9039216,0 
113.5718234,22.9039213,0 
113.5718230,22.9039210,0 
113.5718226,22.9039206,0 
113.5718223,22.9039203,0 
113.5718220,22.9039199,0 
113.5718217,22.9039196,0 
113.5718215,22.9039192,0 
113.5718213,22.9039188,0 
113.5718211,22.9039185,0 
113.5718210,22.9039181,0 
113.5718208,22.9039177,0 
113.5718208,22.9039174,0 
113.5718207,22.9039170,0 
</coordinates>
</LineString>
</Placemark>
</Folder>