<Folder>
<name>SV  4 186.906011 9.633290</name>
<visibility>1</visibility>
<Placemark>
<name>circle</name>
<visibility>1</visibility>
<Style>
<geomColor></geomColor>
<geomScale>2</geomScale></Style>
<LineString>
<coordinates>
113.5720379,22.9034275,0 
113.5720385,22.9034274,0 
113.5720391,22.9034275,0 
113.5720397,22.9034276,0 
113.5720403,22.9034278,0 
113.5720409,22.9034280,0 
113.5720416,22.9034283,0 
113.5720422,22.9034287,0 
113.5720429,22.9034291,0 
113.5720436,22.9034297,0 
113.5720442,22.9034302,0 
113.5720449,22.9034309,0 
113.5720456,22.9034316,0 
113.5720463,22.9034324,0 
113.5720469,22.9034332,0 
113.5720476,22.9034341,0 
113.5720483,22.9034351,0 
113.5720490,22.9034362,0 
113.5720498,22.9034373,0 
113.5720505,22.9034385,0 
113.5720512,22.9034397,0 
113.5720519,22.9034410,0 
113.5720526,22.9034424,0 
113.5720534,22.9034438,0 
113.5720541,22.9034453,0 
113.5720548,22.9034468,0 
113.5720555,22.9034484,0 
113.5720563,22.9034501,0 
113.5720570,22.9034518,0 
113.5720577,22.9034536,0 
113.5720585,22.9034554,0 
113.5720592,22.9034573,0 
113.5720599,22.9034593,0 
113.5720607,22.9034613,0 
113.5720614,22.9034634,0 
113.5720621,22.9034655,0 
113.5720629,22.9034676,0 
113.5720636,22.9034699,0 
113.5720643,22.9034721,0 
113.5720650,22.9034744,0 
113.5720657,22.9034768,0 
113.5720665,22.9034792,0 
113.5720672,22.9034817,0 
113.5720679,22.9034842,0 
113.5720686,22.9034867,0 
113.5720693,22.9034893,0 
113.5720700,22.9034919,0 
113.5720707,22.9034946,0 
113.5720714,22.9034973,0 
113.5720720,22.9035000,0 
113.5720727,22.9035028,0 
113.5720734,22.9035056,0 
113.5720740,22.9035085,0 
113.5720747,22.9035114,0 
113.5720753,22.9035143,0 
113.5720760,22.9035172,0 
113.5720766,22.9035202,0 
113.5720772,22.9035232,0 
113.5720778,22.9035263,0 
113.5720784,22.9035293,0 
113.5720790,22.9035324,0 
113.5720796,22.9035355,0 
113.5720802,22.9035386,0 
113.5720808,22.9035418,0 
113.5720813,22.9035449,0 
113.5720819,22.9035481,0 
113.5720824,22.9035513,0 
113.5720830,22.9035545,0 
113.5720835,22.9035577,0 
113.5720840,22.9035609,0 
113.5720845,22.9035642,0 
113.5720850,22.9035674,0 
113.5720854,22.9035707,0 
113.5720859,22.9035740,0 
113.5720863,22.9035772,0 
113.5720868,22.9035805,0 
113.5720872,22.9035838,0 
113.5720876,22.9035870,0 
113.5720880,22.9035903,0 
113.5720884,22.9035936,0 
113.5720888,22.9035968,0 
113.5720891,22.9036001,0 
113.5720895,22.9036033,0 
113.5720898,22.9036066,0 
113.5720901,22.9036098,0 
113.5720904,22.9036130,0 
113.5720907,22.9036162,0 
113.5720910,22.9036194,0 
113.5720913,22.9036226,0 
113.5720915,22.9036258,0 
113.5720917,22.9036289,0 
113.5720920,22.9036320,0 
113.5720922,22.9036351,0 
113.5720923,22.9036382,0 
113.5720925,22.9036413,0 
113.5720927,22.9036443,0 
113.5720928,22.9036473,0 
113.5720930,22.9036503,0 
113.5720931,22.9036532,0 
113.5720932,22.9036561,0 
113.5720932,22.9036590,0 
113.5720933,22.9036619,0 
113.5720934,22.9036647,0 
113.5720934,22.9036675,0 
113.5720934,22.9036702,0 
113.5720934,22.9036729,0 
113.5720934,22.9036756,0 
113.5720934,22.9036782,0 
113.5720934,22.9036808,0 
113.5720933,22.9036833,0 
113.5720932,22.9036858,0 
113.5720931,22.9036883,0 
113.5720930,22.9036907,0 
113.5720929,22.9036930,0 
113.5720928,22.9036953,0 
113.5720927,22.9036976,0 
113.5720925,22.9036998,0 
113.5720923,22.9037020,0 
113.5720921,22.9037041,0 
113.5720919,22.9037062,0 
113.5720917,22.9037082,0 
113.5720915,22.9037101,0 
113.5720912,22.9037120,0 
113.5720909,22.9037138,0 
113.5720907,22.9037156,0 
113.5720904,22.9037173,0 
113.5720901,22.9037190,0 
113.5720897,22.9037206,0 
113.5720894,22.9037221,0 
113.5720891,22.9037236,0 
113.5720887,22.9037251,0 
113.5720883,22.9037264,0 
113.5720879,22.9037277,0 
113.5720875,22.9037289,0 
113.5720871,22.9037301,0 
113.5720867,22.9037312,0 
113.5720863,22.9037323,0 
113.5720858,22.9037332,0 
113.5720854,22.9037341,0 
113.5720849,22.9037350,0 
113.5720844,22.9037358,0 
113.5720839,22.9037365,0 
113.5720834,22.9037371,0 
113.5720829,22.9037377,0 
113.5720823,22.9037382,0 
113.5720818,22.9037387,0 
113.5720812,22.9037390,0 
113.5720807,22.9037393,0 
113.5720801,22.9037396,0 
113.5720795,22.9037397,0 
113.5720789,22.9037398,0 
113.5720783,22.9037399,0 
113.5720777,22.9037398,0 
113.5720771,22.9037397,0 
113.5720765,22.9037396,0 
113.5720759,22.9037393,0 
113.5720752,22.9037390,0 
113.5720746,22.9037386,0 
113.5720739,22.9037382,0 
113.5720733,22.9037377,0 
113.5720726,22.9037371,0 
113.5720719,22.9037364,0 
113.5720712,22.9037357,0 
113.5720706,22.9037349,0 
113.5720699,22.9037341,0 
113.5720692,22.9037332,0 
113.5720685,22.9037322,0 
113.5720678,22.9037312,0 
113.5720671,22.9037300,0 
113.5720663,22.9037289,0 
113.5720656,22.9037276,0 
113.5720649,22.9037263,0 
113.5720642,22.9037250,0 
113.5720635,22.9037235,0 
113.5720627,22.9037220,0 
113.5720620,22.9037205,0 
113.5720613,22.9037189,0 
113.5720605,22.9037172,0 
113.5720598,22.9037155,0 
113.5720591,22.9037137,0 
113.5720583,22.9037119,0 
113.5720576,22.9037100,0 
113.5720569,22.9037080,0 
113.5720561,22.9037060,0 
113.5720554,22.9037040,0 
113.5720547,22.9037018,0 
113.5720540,22.9036997,0 
113.5720532,22.9036975,0 
113.5720525,22.9036952,0 
113.5720518,22.9036929,0 
113.5720511,22.9036905,0 
113.5720503,22.9036881,0 
113.5720496,22.9036857,0 
113.5720489,22.9036832,0 
113.5720482,22.9036806,0 
113.5720475,22.9036780,0 
113.5720468,22.9036754,0 
113.5720461,22.9036727,0 
113.5720455,22.9036700,0 
113.5720448,22.9036673,0 
113.5720441,22.9036645,0 
113.5720434,22.9036617,0 
113.5720428,22.9036588,0 
113.5720421,22.9036559,0 
113.5720415,22.9036530,0 
113.5720408,22.9036501,0 
113.5720402,22.9036471,0 
113.5720396,22.9036441,0 
113.5720390,22.9036411,0 
113.5720384,22.9036380,0 
113.5720378,22.9036349,0 
113.5720372,22.9036318,0 
113.5720366,22.9036287,0 
113.5720360,22.9036256,0 
113.5720355,22.9036224,0 
113.5720349,22.9036192,0 
113.5720344,22.9036160,0 
113.5720339,22.9036128,0 
113.5720333,22.9036096,0 
113.5720328,22.9036064,0 
113.5720323,22.9036031,0 
113.5720319,22.9035999,0 
113.5720314,22.9035966,0 
113.5720309,22.9035934,0 
113.5720305,22.9035901,0 
113.5720300,22.9035868,0 
113.5720296,22.9035836,0 
113.5720292,22.9035803,0 
113.5720288,22.9035770,0 
113.5720284,22.9035737,0 
113.5720280,22.9035705,0 
113.5720277,22.9035672,0 
113.5720273,22.9035640,0 
113.5720270,22.9035607,0 
113.5720267,22.9035575,0 
113.5720264,22.9035543,0 
113.5720261,22.9035511,0 
113.5720258,22.9035479,0 
113.5720256,22.9035447,0 
113.5720253,22.9035416,0 
113.5720251,22.9035384,0 
113.5720249,22.9035353,0 
113.5720247,22.9035322,0 
113.5720245,22.9035291,0 
113.5720243,22.9035261,0 
113.5720241,22.9035230,0 
113.5720240,22.9035200,0 
113.5720239,22.9035171,0 
113.5720237,22.9035141,0 
113.5720237,22.9035112,0 
113.5720236,22.9035083,0 
113.5720235,22.9035055,0 
113.5720234,22.9035026,0 
113.5720234,22.9034999,0 
113.5720234,22.9034971,0 
113.5720234,22.9034944,0 
113.5720234,22.9034918,0 
113.5720234,22.9034891,0 
113.5720235,22.9034865,0 
113.5720235,22.9034840,0 
113.5720236,22.9034815,0 
113.5720237,22.9034791,0 
113.5720238,22.9034767,0 
113.5720239,22.9034743,0 
113.5720240,22.9034720,0 
113.5720242,22.9034697,0 
113.5720243,22.9034675,0 
113.5720245,22.9034653,0 
113.5720247,22.9034632,0 
113.5720249,22.9034612,0 
113.5720251,22.9034592,0 
113.5720254,22.9034572,0 
113.5720256,22.9034553,0 
113.5720259,22.9034535,0 
113.5720261,22.9034517,0 
113.5720264,22.9034500,0 
113.5720267,22.9034483,0 
113.5720271,22.9034467,0 
113.5720274,22.9034452,0 
113.5720277,22.9034437,0 
113.5720281,22.9034423,0 
113.5720285,22.9034409,0 
113.5720289,22.9034396,0 
113.5720293,22.9034384,0 
113.5720297,22.9034372,0 
113.5720301,22.9034361,0 
113.5720305,22.9034351,0 
113.5720310,22.9034341,0 
113.5720315,22.9034332,0 
113.5720319,22.9034323,0 
113.5720324,22.9034316,0 
113.5720329,22.9034308,0 
113.5720334,22.9034302,0 
113.5720339,22.9034296,0 
113.5720345,22.9034291,0 
113.5720350,22.9034287,0 
113.5720356,22.9034283,0 
113.5720361,22.9034280,0 
113.5720367,22.9034278,0 
113.5720373,22.9034276,0 
113.5720379,22.9034275,0 
</coordinates>
</LineString>
</Placemark>
</Folder>