<Folder>
<name>SV 25 266.451396 13.359339</name>
<visibility>1</visibility>
<Placemark>
<name>circle</name>
<visibility>1</visibility>
<Style>
<geomColor>FFFF007A</geomColor>
<geomScale>2</geomScale></Style>
<LineString>
<coordinates>
113.5717789,22.9038817,0 
113.5717790,22.9038813,0 
113.5717791,22.9038809,0 
113.5717792,22.9038805,0 
113.5717794,22.9038801,0 
113.5717796,22.9038797,0 
113.5717798,22.9038793,0 
113.5717801,22.9038789,0 
113.5717804,22.9038786,0 
113.5717808,22.9038782,0 
113.5717811,22.9038778,0 
113.5717816,22.9038775,0 
113.5717821,22.9038771,0 
113.5717826,22.9038767,0 
113.5717831,22.9038764,0 
113.5717837,22.9038760,0 
113.5717843,22.9038757,0 
113.5717850,22.9038754,0 
113.5717857,22.9038750,0 
113.5717864,22.9038747,0 
113.5717872,22.9038744,0 
113.5717880,22.9038741,0 
113.5717888,22.9038737,0 
113.5717897,22.9038734,0 
113.5717906,22.9038731,0 
113.5717915,22.9038728,0 
113.5717925,22.9038726,0 
113.5717935,22.9038723,0 
113.5717946,22.9038720,0 
113.5717956,22.9038717,0 
113.5717967,22.9038715,0 
113.5717979,22.9038712,0 
113.5717990,22.9038710,0 
113.5718002,22.9038707,0 
113.5718015,22.9038705,0 
113.5718027,22.9038703,0 
113.5718040,22.9038700,0 
113.5718053,22.9038698,0 
113.5718067,22.9038696,0 
113.5718080,22.9038694,0 
113.5718094,22.9038692,0 
113.5718108,22.9038690,0 
113.5718123,22.9038689,0 
113.5718137,22.9038687,0 
113.5718152,22.9038685,0 
113.5718168,22.9038684,0 
113.5718183,22.9038682,0 
113.5718199,22.9038681,0 
113.5718214,22.9038680,0 
113.5718230,22.9038679,0 
113.5718247,22.9038678,0 
113.5718263,22.9038677,0 
113.5718280,22.9038676,0 
113.5718296,22.9038675,0 
113.5718313,22.9038674,0 
113.5718330,22.9038673,0 
113.5718348,22.9038673,0 
113.5718365,22.9038672,0 
113.5718383,22.9038672,0 
113.5718400,22.9038671,0 
113.5718418,22.9038671,0 
113.5718436,22.9038671,0 
113.5718454,22.9038671,0 
113.5718472,22.9038671,0 
113.5718490,22.9038671,0 
113.5718509,22.9038671,0 
113.5718527,22.9038671,0 
113.5718546,22.9038672,0 
113.5718564,22.9038672,0 
113.5718583,22.9038673,0 
113.5718601,22.9038673,0 
113.5718620,22.9038674,0 
113.5718639,22.9038675,0 
113.5718657,22.9038676,0 
113.5718676,22.9038677,0 
113.5718695,22.9038678,0 
113.5718713,22.9038679,0 
113.5718732,22.9038680,0 
113.5718751,22.9038681,0 
113.5718769,22.9038683,0 
113.5718788,22.9038684,0 
113.5718806,22.9038686,0 
113.5718825,22.9038687,0 
113.5718843,22.9038689,0 
113.5718862,22.9038691,0 
113.5718880,22.9038692,0 
113.5718898,22.9038694,0 
113.5718916,22.9038696,0 
113.5718934,22.9038698,0 
113.5718952,22.9038700,0 
113.5718970,22.9038703,0 
113.5718987,22.9038705,0 
113.5719005,22.9038707,0 
113.5719022,22.9038710,0 
113.5719039,22.9038712,0 
113.5719057,22.9038715,0 
113.5719073,22.9038717,0 
113.5719090,22.9038720,0 
113.5719107,22.9038723,0 
113.5719123,22.9038726,0 
113.5719139,22.9038729,0 
113.5719155,22.9038732,0 
113.5719171,22.9038735,0 
113.5719186,22.9038738,0 
113.5719202,22.9038741,0 
113.5719217,22.9038744,0 
113.5719232,22.9038747,0 
113.5719246,22.9038750,0 
113.5719261,22.9038754,0 
113.5719275,22.9038757,0 
113.5719289,22.9038761,0 
113.5719302,22.9038764,0 
113.5719315,22.9038768,0 
113.5719328,22.9038771,0 
113.5719341,22.9038775,0 
113.5719354,22.9038778,0 
113.5719366,22.9038782,0 
113.5719378,22.9038786,0 
113.5719389,22.9038790,0 
113.5719400,22.9038793,0 
113.5719411,22.9038797,0 
113.5719422,22.9038801,0 
113.5719432,22.9038805,0 
113.5719442,22.9038809,0 
113.5719452,22.9038813,0 
113.5719461,22.9038817,0 
113.5719470,22.9038821,0 
113.5719479,22.9038825,0 
113.5719487,22.9038829,0 
113.5719495,22.9038833,0 
113.5719502,22.9038837,0 
113.5719510,22.9038841,0 
113.5719516,22.9038845,0 
113.5719523,22.9038849,0 
113.5719529,22.9038853,0 
113.5719535,22.9038857,0 
113.5719540,22.9038861,0 
113.5719545,22.9038866,0 
113.5719549,22.9038870,0 
113.5719554,22.9038874,0 
113.5719557,22.9038878,0 
113.5719561,22.9038882,0 
113.5719564,22.9038886,0 
113.5719567,22.9038890,0 
113.5719569,22.9038894,0 
113.5719571,22.9038898,0 
113.5719572,22.9038902,0 
113.5719573,22.9038907,0 
113.5719574,22.9038911,0 
113.5719574,22.9038915,0 
113.5719574,22.9038919,0 
113.5719574,22.9038923,0 
113.5719573,22.9038926,0 
113.5719572,22.9038930,0 
113.5719570,22.9038934,0 
113.5719568,22.9038938,0 
113.5719566,22.9038942,0 
113.5719563,22.9038946,0 
113.5719560,22.9038950,0 
113.5719556,22.9038953,0 
113.5719552,22.9038957,0 
113.5719548,22.9038961,0 
113.5719543,22.9038964,0 
113.5719538,22.9038968,0 
113.5719533,22.9038971,0 
113.5719527,22.9038975,0 
113.5719520,22.9038978,0 
113.5719514,22.9038982,0 
113.5719507,22.9038985,0 
113.5719500,22.9038988,0 
113.5719492,22.9038991,0 
113.5719484,22.9038995,0 
113.5719476,22.9038998,0 
113.5719467,22.9039001,0 
113.5719458,22.9039004,0 
113.5719448,22.9039007,0 
113.5719439,22.9039010,0 
113.5719429,22.9039012,0 
113.5719418,22.9039015,0 
113.5719407,22.9039018,0 
113.5719396,22.9039020,0 
113.5719385,22.9039023,0 
113.5719373,22.9039026,0 
113.5719361,22.9039028,0 
113.5719349,22.9039030,0 
113.5719337,22.9039033,0 
113.5719324,22.9039035,0 
113.5719311,22.9039037,0 
113.5719297,22.9039039,0 
113.5719283,22.9039041,0 
113.5719270,22.9039043,0 
113.5719255,22.9039045,0 
113.5719241,22.9039046,0 
113.5719226,22.9039048,0 
113.5719211,22.9039050,0 
113.5719196,22.9039051,0 
113.5719181,22.9039053,0 
113.5719165,22.9039054,0 
113.5719149,22.9039055,0 
113.5719133,22.9039056,0 
113.5719117,22.9039058,0 
113.5719101,22.9039059,0 
113.5719084,22.9039060,0 
113.5719067,22.9039060,0 
113.5719050,22.9039061,0 
113.5719033,22.9039062,0 
113.5719016,22.9039062,0 
113.5718998,22.9039063,0 
113.5718981,22.9039063,0 
113.5718963,22.9039064,0 
113.5718945,22.9039064,0 
113.5718928,22.9039064,0 
113.5718910,22.9039064,0 
113.5718891,22.9039064,0 
113.5718873,22.9039064,0 
113.5718855,22.9039064,0 
113.5718836,22.9039064,0 
113.5718818,22.9039063,0 
113.5718800,22.9039063,0 
113.5718781,22.9039062,0 
113.5718762,22.9039062,0 
113.5718744,22.9039061,0 
113.5718725,22.9039060,0 
113.5718706,22.9039059,0 
113.5718688,22.9039059,0 
113.5718669,22.9039058,0 
113.5718650,22.9039056,0 
113.5718632,22.9039055,0 
113.5718613,22.9039054,0 
113.5718594,22.9039053,0 
113.5718576,22.9039051,0 
113.5718557,22.9039050,0 
113.5718539,22.9039048,0 
113.5718520,22.9039046,0 
113.5718502,22.9039045,0 
113.5718484,22.9039043,0 
113.5718466,22.9039041,0 
113.5718447,22.9039039,0 
113.5718429,22.9039037,0 
113.5718412,22.9039035,0 
113.5718394,22.9039032,0 
113.5718376,22.9039030,0 
113.5718359,22.9039028,0 
113.5718341,22.9039025,0 
113.5718324,22.9039023,0 
113.5718307,22.9039020,0 
113.5718290,22.9039018,0 
113.5718274,22.9039015,0 
113.5718257,22.9039012,0 
113.5718241,22.9039009,0 
113.5718224,22.9039007,0 
113.5718209,22.9039004,0 
113.5718193,22.9039001,0 
113.5718177,22.9038998,0 
113.5718162,22.9038994,0 
113.5718147,22.9038991,0 
113.5718132,22.9038988,0 
113.5718117,22.9038985,0 
113.5718103,22.9038981,0 
113.5718089,22.9038978,0 
113.5718075,22.9038975,0 
113.5718062,22.9038971,0 
113.5718048,22.9038968,0 
113.5718035,22.9038964,0 
113.5718022,22.9038960,0 
113.5718010,22.9038957,0 
113.5717998,22.9038953,0 
113.5717986,22.9038949,0 
113.5717974,22.9038946,0 
113.5717963,22.9038942,0 
113.5717952,22.9038938,0 
113.5717942,22.9038934,0 
113.5717931,22.9038930,0 
113.5717921,22.9038926,0 
113.5717912,22.9038922,0 
113.5717903,22.9038918,0 
113.5717894,22.9038914,0 
113.5717885,22.9038910,0 
113.5717877,22.9038906,0 
113.5717869,22.9038902,0 
113.5717861,22.9038898,0 
113.5717854,22.9038894,0 
113.5717847,22.9038890,0 
113.5717841,22.9038886,0 
113.5717835,22.9038882,0 
113.5717829,22.9038878,0 
113.5717824,22.9038874,0 
113.5717819,22.9038870,0 
113.5717814,22.9038865,0 
113.5717810,22.9038861,0 
113.5717806,22.9038857,0 
113.5717803,22.9038853,0 
113.5717800,22.9038849,0 
113.5717797,22.9038845,0 
113.5717795,22.9038841,0 
113.5717793,22.9038837,0 
113.5717791,22.9038833,0 
113.5717790,22.9038829,0 
113.5717790,22.9038825,0 
113.5717789,22.9038821,0 
113.5717789,22.9038817,0 
</coordinates>
</LineString>
</Placemark>
</Folder>