<Folder>
<name>SV  4 188.358468 11.200314</name>
<visibility>1</visibility>
<Placemark>
<name>circle</name>
<visibility>1</visibility>
<Style>
<geomColor></geomColor>
<geomScale>2</geomScale></Style>
<LineString>
<coordinates>
113.5720379,22.9035106,0 
113.5720384,22.9035106,0 
113.5720390,22.9035106,0 
113.5720396,22.9035106,0 
113.5720401,22.9035107,0 
113.5720407,22.9035109,0 
113.5720413,22.9035111,0 
113.5720419,22.9035114,0 
113.5720425,22.9035117,0 
113.5720431,22.9035121,0 
113.5720438,22.9035126,0 
113.5720444,22.9035131,0 
113.5720450,22.9035136,0 
113.5720456,22.9035142,0 
113.5720463,22.9035149,0 
113.5720469,22.9035156,0 
113.5720476,22.9035163,0 
113.5720482,22.9035171,0 
113.5720489,22.9035180,0 
113.5720496,22.9035189,0 
113.5720502,22.9035199,0 
113.5720509,22.9035209,0 
113.5720516,22.9035220,0 
113.5720522,22.9035231,0 
113.5720529,22.9035242,0 
113.5720536,22.9035254,0 
113.5720543,22.9035267,0 
113.5720550,22.9035280,0 
113.5720556,22.9035293,0 
113.5720563,22.9035307,0 
113.5720570,22.9035322,0 
113.5720577,22.9035337,0 
113.5720584,22.9035352,0 
113.5720591,22.9035368,0 
113.5720598,22.9035384,0 
113.5720604,22.9035401,0 
113.5720611,22.9035418,0 
113.5720618,22.9035435,0 
113.5720625,22.9035453,0 
113.5720632,22.9035471,0 
113.5720638,22.9035490,0 
113.5720645,22.9035509,0 
113.5720652,22.9035528,0 
113.5720658,22.9035548,0 
113.5720665,22.9035568,0 
113.5720672,22.9035588,0 
113.5720678,22.9035609,0 
113.5720685,22.9035630,0 
113.5720691,22.9035651,0 
113.5720698,22.9035673,0 
113.5720704,22.9035695,0 
113.5720710,22.9035717,0 
113.5720716,22.9035740,0 
113.5720723,22.9035762,0 
113.5720729,22.9035785,0 
113.5720735,22.9035809,0 
113.5720741,22.9035832,0 
113.5720747,22.9035856,0 
113.5720752,22.9035880,0 
113.5720758,22.9035904,0 
113.5720764,22.9035928,0 
113.5720769,22.9035953,0 
113.5720775,22.9035978,0 
113.5720780,22.9036003,0 
113.5720786,22.9036028,0 
113.5720791,22.9036053,0 
113.5720796,22.9036078,0 
113.5720801,22.9036103,0 
113.5720806,22.9036129,0 
113.5720811,22.9036155,0 
113.5720816,22.9036180,0 
113.5720820,22.9036206,0 
113.5720825,22.9036232,0 
113.5720829,22.9036258,0 
113.5720834,22.9036284,0 
113.5720838,22.9036310,0 
113.5720842,22.9036335,0 
113.5720846,22.9036361,0 
113.5720850,22.9036387,0 
113.5720853,22.9036413,0 
113.5720857,22.9036439,0 
113.5720860,22.9036465,0 
113.5720864,22.9036491,0 
113.5720867,22.9036517,0 
113.5720870,22.9036542,0 
113.5720873,22.9036568,0 
113.5720876,22.9036593,0 
113.5720879,22.9036619,0 
113.5720881,22.9036644,0 
113.5720884,22.9036669,0 
113.5720886,22.9036694,0 
113.5720888,22.9036719,0 
113.5720890,22.9036744,0 
113.5720892,22.9036768,0 
113.5720894,22.9036792,0 
113.5720896,22.9036816,0 
113.5720897,22.9036840,0 
113.5720898,22.9036864,0 
113.5720900,22.9036887,0 
113.5720901,22.9036911,0 
113.5720902,22.9036934,0 
113.5720902,22.9036956,0 
113.5720903,22.9036979,0 
113.5720903,22.9037001,0 
113.5720904,22.9037023,0 
113.5720904,22.9037044,0 
113.5720904,22.9037066,0 
113.5720904,22.9037087,0 
113.5720904,22.9037107,0 
113.5720903,22.9037128,0 
113.5720903,22.9037148,0 
113.5720902,22.9037167,0 
113.5720901,22.9037186,0 
113.5720900,22.9037205,0 
113.5720899,22.9037224,0 
113.5720898,22.9037242,0 
113.5720897,22.9037260,0 
113.5720895,22.9037277,0 
113.5720894,22.9037294,0 
113.5720892,22.9037310,0 
113.5720890,22.9037326,0 
113.5720888,22.9037342,0 
113.5720886,22.9037357,0 
113.5720883,22.9037372,0 
113.5720881,22.9037386,0 
113.5720878,22.9037400,0 
113.5720876,22.9037413,0 
113.5720873,22.9037426,0 
113.5720870,22.9037439,0 
113.5720867,22.9037451,0 
113.5720863,22.9037462,0 
113.5720860,22.9037473,0 
113.5720856,22.9037484,0 
113.5720853,22.9037494,0 
113.5720849,22.9037503,0 
113.5720845,22.9037512,0 
113.5720841,22.9037521,0 
113.5720837,22.9037529,0 
113.5720833,22.9037536,0 
113.5720829,22.9037543,0 
113.5720824,22.9037549,0 
113.5720820,22.9037555,0 
113.5720815,22.9037560,0 
113.5720810,22.9037565,0 
113.5720805,22.9037570,0 
113.5720800,22.9037573,0 
113.5720795,22.9037576,0 
113.5720790,22.9037579,0 
113.5720785,22.9037581,0 
113.5720780,22.9037583,0 
113.5720774,22.9037584,0 
113.5720769,22.9037584,0 
113.5720763,22.9037584,0 
113.5720757,22.9037583,0 
113.5720752,22.9037582,0 
113.5720746,22.9037581,0 
113.5720740,22.9037578,0 
113.5720734,22.9037576,0 
113.5720728,22.9037572,0 
113.5720722,22.9037568,0 
113.5720715,22.9037564,0 
113.5720709,22.9037559,0 
113.5720703,22.9037554,0 
113.5720697,22.9037548,0 
113.5720690,22.9037541,0 
113.5720684,22.9037534,0 
113.5720677,22.9037526,0 
113.5720671,22.9037518,0 
113.5720664,22.9037510,0 
113.5720657,22.9037501,0 
113.5720651,22.9037491,0 
113.5720644,22.9037481,0 
113.5720637,22.9037470,0 
113.5720631,22.9037459,0 
113.5720624,22.9037448,0 
113.5720617,22.9037435,0 
113.5720610,22.9037423,0 
113.5720603,22.9037410,0 
113.5720597,22.9037396,0 
113.5720590,22.9037382,0 
113.5720583,22.9037368,0 
113.5720576,22.9037353,0 
113.5720569,22.9037338,0 
113.5720562,22.9037322,0 
113.5720555,22.9037306,0 
113.5720549,22.9037289,0 
113.5720542,22.9037272,0 
113.5720535,22.9037255,0 
113.5720528,22.9037237,0 
113.5720521,22.9037219,0 
113.5720515,22.9037200,0 
113.5720508,22.9037181,0 
113.5720501,22.9037162,0 
113.5720495,22.9037142,0 
113.5720488,22.9037122,0 
113.5720481,22.9037102,0 
113.5720475,22.9037081,0 
113.5720468,22.9037060,0 
113.5720462,22.9037039,0 
113.5720455,22.9037017,0 
113.5720449,22.9036995,0 
113.5720443,22.9036973,0 
113.5720437,22.9036950,0 
113.5720430,22.9036927,0 
113.5720424,22.9036904,0 
113.5720418,22.9036881,0 
113.5720412,22.9036858,0 
113.5720406,22.9036834,0 
113.5720401,22.9036810,0 
113.5720395,22.9036786,0 
113.5720389,22.9036761,0 
113.5720384,22.9036737,0 
113.5720378,22.9036712,0 
113.5720373,22.9036687,0 
113.5720367,22.9036662,0 
113.5720362,22.9036637,0 
113.5720357,22.9036612,0 
113.5720352,22.9036586,0 
113.5720347,22.9036561,0 
113.5720342,22.9036535,0 
113.5720337,22.9036510,0 
113.5720333,22.9036484,0 
113.5720328,22.9036458,0 
113.5720324,22.9036432,0 
113.5720319,22.9036406,0 
113.5720315,22.9036380,0 
113.5720311,22.9036354,0 
113.5720307,22.9036328,0 
113.5720303,22.9036302,0 
113.5720300,22.9036276,0 
113.5720296,22.9036251,0 
113.5720293,22.9036225,0 
113.5720289,22.9036199,0 
113.5720286,22.9036173,0 
113.5720283,22.9036147,0 
113.5720280,22.9036122,0 
113.5720277,22.9036096,0 
113.5720274,22.9036071,0 
113.5720272,22.9036046,0 
113.5720269,22.9036021,0 
113.5720267,22.9035996,0 
113.5720265,22.9035971,0 
113.5720263,22.9035946,0 
113.5720261,22.9035922,0 
113.5720259,22.9035897,0 
113.5720257,22.9035873,0 
113.5720256,22.9035849,0 
113.5720255,22.9035826,0 
113.5720253,22.9035802,0 
113.5720252,22.9035779,0 
113.5720251,22.9035756,0 
113.5720251,22.9035733,0 
113.5720250,22.9035711,0 
113.5720250,22.9035689,0 
113.5720249,22.9035667,0 
113.5720249,22.9035645,0 
113.5720249,22.9035624,0 
113.5720249,22.9035603,0 
113.5720249,22.9035582,0 
113.5720250,22.9035562,0 
113.5720250,22.9035542,0 
113.5720251,22.9035523,0 
113.5720252,22.9035503,0 
113.5720253,22.9035485,0 
113.5720254,22.9035466,0 
113.5720255,22.9035448,0 
113.5720256,22.9035430,0 
113.5720258,22.9035413,0 
113.5720259,22.9035396,0 
113.5720261,22.9035379,0 
113.5720263,22.9035363,0 
113.5720265,22.9035348,0 
113.5720267,22.9035333,0 
113.5720270,22.9035318,0 
113.5720272,22.9035304,0 
113.5720275,22.9035290,0 
113.5720278,22.9035276,0 
113.5720280,22.9035263,0 
113.5720283,22.9035251,0 
113.5720286,22.9035239,0 
113.5720290,22.9035228,0 
113.5720293,22.9035217,0 
113.5720297,22.9035206,0 
113.5720300,22.9035196,0 
113.5720304,22.9035187,0 
113.5720308,22.9035178,0 
113.5720312,22.9035169,0 
113.5720316,22.9035161,0 
113.5720320,22.9035154,0 
113.5720324,22.9035147,0 
113.5720329,22.9035140,0 
113.5720333,22.9035135,0 
113.5720338,22.9035129,0 
113.5720343,22.9035124,0 
113.5720348,22.9035120,0 
113.5720353,22.9035117,0 
113.5720358,22.9035113,0 
113.5720363,22.9035111,0 
113.5720368,22.9035109,0 
113.5720373,22.9035107,0 
113.5720379,22.9035106,0 
</coordinates>
</LineString>
</Placemark>
</Folder>