<Folder>
<name>SV  2 172.670836 14.945642</name>
<visibility>1</visibility>
<Placemark>
<name>circle</name>
<visibility>1</visibility>
<Style>
<geomColor></geomColor>
<geomScale>2</geomScale></Style>
<LineString>
<coordinates>
113.5721384,22.9036249,0 
113.5721389,22.9036250,0 
113.5721393,22.9036251,0 
113.5721398,22.9036252,0 
113.5721402,22.9036254,0 
113.5721407,22.9036256,0 
113.5721411,22.9036258,0 
113.5721416,22.9036261,0 
113.5721420,22.9036264,0 
113.5721424,22.9036268,0 
113.5721428,22.9036272,0 
113.5721432,22.9036276,0 
113.5721436,22.9036280,0 
113.5721440,22.9036285,0 
113.5721444,22.9036290,0 
113.5721448,22.9036296,0 
113.5721451,22.9036302,0 
113.5721455,22.9036308,0 
113.5721458,22.9036314,0 
113.5721462,22.9036321,0 
113.5721465,22.9036328,0 
113.5721469,22.9036336,0 
113.5721472,22.9036344,0 
113.5721475,22.9036352,0 
113.5721478,22.9036360,0 
113.5721481,22.9036369,0 
113.5721484,22.9036378,0 
113.5721486,22.9036387,0 
113.5721489,22.9036397,0 
113.5721492,22.9036406,0 
113.5721494,22.9036416,0 
113.5721496,22.9036427,0 
113.5721499,22.9036438,0 
113.5721501,22.9036448,0 
113.5721503,22.9036460,0 
113.5721505,22.9036471,0 
113.5721507,22.9036483,0 
113.5721508,22.9036495,0 
113.5721510,22.9036507,0 
113.5721512,22.9036519,0 
113.5721513,22.9036532,0 
113.5721514,22.9036545,0 
113.5721516,22.9036558,0 
113.5721517,22.9036571,0 
113.5721518,22.9036585,0 
113.5721519,22.9036599,0 
113.5721520,22.9036613,0 
113.5721520,22.9036627,0 
113.5721521,22.9036641,0 
113.5721521,22.9036655,0 
113.5721522,22.9036670,0 
113.5721522,22.9036685,0 
113.5721522,22.9036700,0 
113.5721522,22.9036715,0 
113.5721522,22.9036730,0 
113.5721522,22.9036746,0 
113.5721522,22.9036761,0 
113.5721521,22.9036777,0 
113.5721521,22.9036793,0 
113.5721520,22.9036809,0 
113.5721519,22.9036825,0 
113.5721519,22.9036841,0 
113.5721518,22.9036857,0 
113.5721517,22.9036873,0 
113.5721515,22.9036889,0 
113.5721514,22.9036906,0 
113.5721513,22.9036922,0 
113.5721511,22.9036939,0 
113.5721510,22.9036955,0 
113.5721508,22.9036972,0 
113.5721506,22.9036989,0 
113.5721505,22.9037005,0 
113.5721503,22.9037022,0 
113.5721500,22.9037039,0 
113.5721498,22.9037055,0 
113.5721496,22.9037072,0 
113.5721494,22.9037089,0 
113.5721491,22.9037105,0 
113.5721489,22.9037122,0 
113.5721486,22.9037139,0 
113.5721483,22.9037155,0 
113.5721480,22.9037172,0 
113.5721477,22.9037188,0 
113.5721474,22.9037205,0 
113.5721471,22.9037221,0 
113.5721468,22.9037237,0 
113.5721465,22.9037253,0 
113.5721461,22.9037269,0 
113.5721458,22.9037285,0 
113.5721454,22.9037301,0 
113.5721451,22.9037317,0 
113.5721447,22.9037333,0 
113.5721443,22.9037348,0 
113.5721439,22.9037364,0 
113.5721435,22.9037379,0 
113.5721431,22.9037394,0 
113.5721427,22.9037409,0 
113.5721423,22.9037424,0 
113.5721419,22.9037438,0 
113.5721415,22.9037453,0 
113.5721410,22.9037467,0 
113.5721406,22.9037481,0 
113.5721402,22.9037495,0 
113.5721397,22.9037509,0 
113.5721393,22.9037522,0 
113.5721388,22.9037535,0 
113.5721383,22.9037548,0 
113.5721379,22.9037561,0 
113.5721374,22.9037574,0 
113.5721369,22.9037586,0 
113.5721364,22.9037598,0 
113.5721359,22.9037610,0 
113.5721354,22.9037622,0 
113.5721349,22.9037633,0 
113.5721345,22.9037645,0 
113.5721339,22.9037655,0 
113.5721334,22.9037666,0 
113.5721329,22.9037676,0 
113.5721324,22.9037687,0 
113.5721319,22.9037696,0 
113.5721314,22.9037706,0 
113.5721309,22.9037715,0 
113.5721304,22.9037724,0 
113.5721298,22.9037733,0 
113.5721293,22.9037741,0 
113.5721288,22.9037749,0 
113.5721283,22.9037757,0 
113.5721278,22.9037764,0 
113.5721272,22.9037771,0 
113.5721267,22.9037778,0 
113.5721262,22.9037784,0 
113.5721257,22.9037790,0 
113.5721252,22.9037796,0 
113.5721246,22.9037802,0 
113.5721241,22.9037807,0 
113.5721236,22.9037812,0 
113.5721231,22.9037816,0 
113.5721226,22.9037820,0 
113.5721221,22.9037824,0 
113.5721216,22.9037827,0 
113.5721210,22.9037831,0 
113.5721205,22.9037833,0 
113.5721200,22.9037836,0 
113.5721195,22.9037838,0 
113.5721190,22.9037840,0 
113.5721186,22.9037841,0 
113.5721181,22.9037842,0 
113.5721176,22.9037843,0 
113.5721171,22.9037843,0 
113.5721166,22.9037843,0 
113.5721162,22.9037842,0 
113.5721157,22.9037842,0 
113.5721152,22.9037841,0 
113.5721148,22.9037839,0 
113.5721143,22.9037837,0 
113.5721139,22.9037835,0 
113.5721135,22.9037833,0 
113.5721130,22.9037830,0 
113.5721126,22.9037827,0 
113.5721122,22.9037823,0 
113.5721118,22.9037820,0 
113.5721114,22.9037815,0 
113.5721110,22.9037811,0 
113.5721106,22.9037806,0 
113.5721102,22.9037801,0 
113.5721098,22.9037795,0 
113.5721094,22.9037789,0 
113.5721091,22.9037783,0 
113.5721087,22.9037777,0 
113.5721084,22.9037770,0 
113.5721081,22.9037763,0 
113.5721077,22.9037755,0 
113.5721074,22.9037748,0 
113.5721071,22.9037740,0 
113.5721068,22.9037731,0 
113.5721065,22.9037722,0 
113.5721062,22.9037714,0 
113.5721059,22.9037704,0 
113.5721057,22.9037695,0 
113.5721054,22.9037685,0 
113.5721052,22.9037675,0 
113.5721049,22.9037664,0 
113.5721047,22.9037654,0 
113.5721045,22.9037643,0 
113.5721043,22.9037632,0 
113.5721041,22.9037620,0 
113.5721039,22.9037608,0 
113.5721037,22.9037596,0 
113.5721036,22.9037584,0 
113.5721034,22.9037572,0 
113.5721033,22.9037559,0 
113.5721031,22.9037546,0 
113.5721030,22.9037533,0 
113.5721029,22.9037520,0 
113.5721028,22.9037506,0 
113.5721027,22.9037493,0 
113.5721026,22.9037479,0 
113.5721025,22.9037465,0 
113.5721025,22.9037450,0 
113.5721024,22.9037436,0 
113.5721024,22.9037421,0 
113.5721024,22.9037406,0 
113.5721024,22.9037391,0 
113.5721024,22.9037376,0 
113.5721024,22.9037361,0 
113.5721024,22.9037346,0 
113.5721024,22.9037330,0 
113.5721024,22.9037314,0 
113.5721025,22.9037299,0 
113.5721026,22.9037283,0 
113.5721026,22.9037267,0 
113.5721027,22.9037251,0 
113.5721028,22.9037234,0 
113.5721029,22.9037218,0 
113.5721030,22.9037202,0 
113.5721032,22.9037185,0 
113.5721033,22.9037169,0 
113.5721034,22.9037152,0 
113.5721036,22.9037136,0 
113.5721038,22.9037119,0 
113.5721039,22.9037103,0 
113.5721041,22.9037086,0 
113.5721043,22.9037069,0 
113.5721045,22.9037053,0 
113.5721048,22.9037036,0 
113.5721050,22.9037019,0 
113.5721052,22.9037003,0 
113.5721055,22.9036986,0 
113.5721057,22.9036969,0 
113.5721060,22.9036953,0 
113.5721063,22.9036936,0 
113.5721065,22.9036920,0 
113.5721068,22.9036903,0 
113.5721071,22.9036887,0 
113.5721075,22.9036870,0 
113.5721078,22.9036854,0 
113.5721081,22.9036838,0 
113.5721084,22.9036822,0 
113.5721088,22.9036806,0 
113.5721091,22.9036790,0 
113.5721095,22.9036774,0 
113.5721099,22.9036759,0 
113.5721103,22.9036743,0 
113.5721106,22.9036728,0 
113.5721110,22.9036712,0 
113.5721114,22.9036697,0 
113.5721118,22.9036682,0 
113.5721123,22.9036668,0 
113.5721127,22.9036653,0 
113.5721131,22.9036639,0 
113.5721135,22.9036624,0 
113.5721140,22.9036610,0 
113.5721144,22.9036596,0 
113.5721149,22.9036583,0 
113.5721153,22.9036569,0 
113.5721158,22.9036556,0 
113.5721162,22.9036543,0 
113.5721167,22.9036530,0 
113.5721172,22.9036517,0 
113.5721177,22.9036505,0 
113.5721182,22.9036493,0 
113.5721186,22.9036481,0 
113.5721191,22.9036469,0 
113.5721196,22.9036458,0 
113.5721201,22.9036447,0 
113.5721206,22.9036436,0 
113.5721211,22.9036425,0 
113.5721216,22.9036415,0 
113.5721222,22.9036405,0 
113.5721227,22.9036395,0 
113.5721232,22.9036385,0 
113.5721237,22.9036376,0 
113.5721242,22.9036367,0 
113.5721247,22.9036359,0 
113.5721252,22.9036350,0 
113.5721258,22.9036342,0 
113.5721263,22.9036335,0 
113.5721268,22.9036327,0 
113.5721273,22.9036320,0 
113.5721279,22.9036313,0 
113.5721284,22.9036307,0 
113.5721289,22.9036301,0 
113.5721294,22.9036295,0 
113.5721299,22.9036290,0 
113.5721305,22.9036284,0 
113.5721310,22.9036280,0 
113.5721315,22.9036275,0 
113.5721320,22.9036271,0 
113.5721325,22.9036267,0 
113.5721330,22.9036264,0 
113.5721335,22.9036261,0 
113.5721340,22.9036258,0 
113.5721345,22.9036256,0 
113.5721350,22.9036253,0 
113.5721355,22.9036252,0 
113.5721360,22.9036250,0 
113.5721365,22.9036249,0 
113.5721370,22.9036249,0 
113.5721375,22.9036248,0 
113.5721379,22.9036248,0 
113.5721384,22.9036249,0 
</coordinates>
</LineString>
</Placemark>
</Folder>