<Folder>
<name>SV  2 175.426633 11.369634</name>
<visibility>1</visibility>
<Placemark>
<name>circle</name>
<visibility>1</visibility>
<Style>
<geomColor></geomColor>
<geomScale>2</geomScale></Style>
<LineString>
<coordinates>
113.5721337,22.9035121,0 
113.5721342,22.9035122,0 
113.5721348,22.9035123,0 
113.5721353,22.9035125,0 
113.5721358,22.9035127,0 
113.5721363,22.9035130,0 
113.5721368,22.9035133,0 
113.5721373,22.9035137,0 
113.5721378,22.9035142,0 
113.5721383,22.9035146,0 
113.5721388,22.9035152,0 
113.5721393,22.9035158,0 
113.5721398,22.9035164,0 
113.5721402,22.9035171,0 
113.5721407,22.9035178,0 
113.5721411,22.9035186,0 
113.5721416,22.9035195,0 
113.5721420,22.9035204,0 
113.5721424,22.9035213,0 
113.5721429,22.9035223,0 
113.5721433,22.9035234,0 
113.5721437,22.9035244,0 
113.5721441,22.9035256,0 
113.5721444,22.9035268,0 
113.5721448,22.9035280,0 
113.5721452,22.9035293,0 
113.5721455,22.9035306,0 
113.5721459,22.9035319,0 
113.5721462,22.9035334,0 
113.5721465,22.9035348,0 
113.5721469,22.9035363,0 
113.5721472,22.9035378,0 
113.5721474,22.9035394,0 
113.5721477,22.9035410,0 
113.5721480,22.9035427,0 
113.5721483,22.9035444,0 
113.5721485,22.9035461,0 
113.5721487,22.9035479,0 
113.5721490,22.9035497,0 
113.5721492,22.9035516,0 
113.5721494,22.9035535,0 
113.5721496,22.9035554,0 
113.5721498,22.9035573,0 
113.5721499,22.9035593,0 
113.5721501,22.9035614,0 
113.5721502,22.9035634,0 
113.5721504,22.9035655,0 
113.5721505,22.9035676,0 
113.5721506,22.9035697,0 
113.5721507,22.9035719,0 
113.5721508,22.9035741,0 
113.5721509,22.9035763,0 
113.5721509,22.9035786,0 
113.5721510,22.9035808,0 
113.5721510,22.9035831,0 
113.5721510,22.9035854,0 
113.5721511,22.9035878,0 
113.5721511,22.9035901,0 
113.5721510,22.9035925,0 
113.5721510,22.9035949,0 
113.5721510,22.9035973,0 
113.5721509,22.9035997,0 
113.5721509,22.9036022,0 
113.5721508,22.9036046,0 
113.5721507,22.9036071,0 
113.5721506,22.9036095,0 
113.5721505,22.9036120,0 
113.5721504,22.9036145,0 
113.5721503,22.9036170,0 
113.5721501,22.9036195,0 
113.5721500,22.9036220,0 
113.5721498,22.9036246,0 
113.5721496,22.9036271,0 
113.5721494,22.9036296,0 
113.5721492,22.9036321,0 
113.5721490,22.9036347,0 
113.5721488,22.9036372,0 
113.5721486,22.9036397,0 
113.5721483,22.9036422,0 
113.5721481,22.9036447,0 
113.5721478,22.9036473,0 
113.5721475,22.9036498,0 
113.5721472,22.9036523,0 
113.5721469,22.9036547,0 
113.5721466,22.9036572,0 
113.5721463,22.9036597,0 
113.5721459,22.9036622,0 
113.5721456,22.9036646,0 
113.5721453,22.9036670,0 
113.5721449,22.9036694,0 
113.5721445,22.9036718,0 
113.5721441,22.9036742,0 
113.5721437,22.9036766,0 
113.5721433,22.9036789,0 
113.5721429,22.9036813,0 
113.5721425,22.9036836,0 
113.5721421,22.9036858,0 
113.5721417,22.9036881,0 
113.5721412,22.9036903,0 
113.5721408,22.9036925,0 
113.5721403,22.9036947,0 
113.5721399,22.9036969,0 
113.5721394,22.9036990,0 
113.5721389,22.9037011,0 
113.5721384,22.9037032,0 
113.5721379,22.9037052,0 
113.5721374,22.9037072,0 
113.5721369,22.9037092,0 
113.5721364,22.9037111,0 
113.5721359,22.9037130,0 
113.5721354,22.9037149,0 
113.5721349,22.9037167,0 
113.5721343,22.9037185,0 
113.5721338,22.9037203,0 
113.5721332,22.9037220,0 
113.5721327,22.9037237,0 
113.5721321,22.9037253,0 
113.5721316,22.9037269,0 
113.5721310,22.9037285,0 
113.5721305,22.9037300,0 
113.5721299,22.9037315,0 
113.5721293,22.9037329,0 
113.5721288,22.9037343,0 
113.5721282,22.9037356,0 
113.5721276,22.9037369,0 
113.5721270,22.9037382,0 
113.5721265,22.9037394,0 
113.5721259,22.9037405,0 
113.5721253,22.9037416,0 
113.5721247,22.9037427,0 
113.5721241,22.9037437,0 
113.5721236,22.9037447,0 
113.5721230,22.9037456,0 
113.5721224,22.9037465,0 
113.5721218,22.9037473,0 
113.5721212,22.9037481,0 
113.5721206,22.9037488,0 
113.5721201,22.9037494,0 
113.5721195,22.9037501,0 
113.5721189,22.9037506,0 
113.5721183,22.9037511,0 
113.5721178,22.9037516,0 
113.5721172,22.9037520,0 
113.5721166,22.9037524,0 
113.5721161,22.9037527,0 
113.5721155,22.9037529,0 
113.5721149,22.9037531,0 
113.5721144,22.9037533,0 
113.5721138,22.9037533,0 
113.5721133,22.9037534,0 
113.5721127,22.9037534,0 
113.5721122,22.9037533,0 
113.5721117,22.9037532,0 
113.5721111,22.9037530,0 
113.5721106,22.9037528,0 
113.5721101,22.9037525,0 
113.5721096,22.9037522,0 
113.5721091,22.9037518,0 
113.5721086,22.9037514,0 
113.5721081,22.9037509,0 
113.5721076,22.9037503,0 
113.5721071,22.9037497,0 
113.5721066,22.9037491,0 
113.5721062,22.9037484,0 
113.5721057,22.9037477,0 
113.5721053,22.9037469,0 
113.5721048,22.9037460,0 
113.5721044,22.9037451,0 
113.5721040,22.9037442,0 
113.5721035,22.9037432,0 
113.5721031,22.9037422,0 
113.5721027,22.9037411,0 
113.5721023,22.9037399,0 
113.5721020,22.9037388,0 
113.5721016,22.9037375,0 
113.5721012,22.9037363,0 
113.5721009,22.9037349,0 
113.5721005,22.9037336,0 
113.5721002,22.9037322,0 
113.5720999,22.9037307,0 
113.5720996,22.9037292,0 
113.5720993,22.9037277,0 
113.5720990,22.9037261,0 
113.5720987,22.9037245,0 
113.5720984,22.9037228,0 
113.5720982,22.9037211,0 
113.5720979,22.9037194,0 
113.5720977,22.9037176,0 
113.5720974,22.9037158,0 
113.5720972,22.9037139,0 
113.5720970,22.9037121,0 
113.5720968,22.9037101,0 
113.5720966,22.9037082,0 
113.5720965,22.9037062,0 
113.5720963,22.9037042,0 
113.5720962,22.9037021,0 
113.5720960,22.9037000,0 
113.5720959,22.9036979,0 
113.5720958,22.9036958,0 
113.5720957,22.9036936,0 
113.5720956,22.9036914,0 
113.5720955,22.9036892,0 
113.5720955,22.9036870,0 
113.5720954,22.9036847,0 
113.5720954,22.9036824,0 
113.5720954,22.9036801,0 
113.5720954,22.9036777,0 
113.5720954,22.9036754,0 
113.5720954,22.9036730,0 
113.5720954,22.9036706,0 
113.5720954,22.9036682,0 
113.5720955,22.9036658,0 
113.5720955,22.9036634,0 
113.5720956,22.9036609,0 
113.5720957,22.9036584,0 
113.5720958,22.9036560,0 
113.5720959,22.9036535,0 
113.5720960,22.9036510,0 
113.5720961,22.9036485,0 
113.5720963,22.9036460,0 
113.5720964,22.9036435,0 
113.5720966,22.9036410,0 
113.5720968,22.9036384,0 
113.5720970,22.9036359,0 
113.5720972,22.9036334,0 
113.5720974,22.9036309,0 
113.5720976,22.9036283,0 
113.5720979,22.9036258,0 
113.5720981,22.9036233,0 
113.5720984,22.9036208,0 
113.5720986,22.9036183,0 
113.5720989,22.9036158,0 
113.5720992,22.9036133,0 
113.5720995,22.9036108,0 
113.5720998,22.9036083,0 
113.5721001,22.9036058,0 
113.5721005,22.9036034,0 
113.5721008,22.9036009,0 
113.5721012,22.9035985,0 
113.5721015,22.9035961,0 
113.5721019,22.9035937,0 
113.5721023,22.9035913,0 
113.5721027,22.9035889,0 
113.5721031,22.9035866,0 
113.5721035,22.9035843,0 
113.5721039,22.9035820,0 
113.5721043,22.9035797,0 
113.5721047,22.9035774,0 
113.5721052,22.9035752,0 
113.5721056,22.9035730,0 
113.5721061,22.9035708,0 
113.5721066,22.9035687,0 
113.5721070,22.9035665,0 
113.5721075,22.9035644,0 
113.5721080,22.9035624,0 
113.5721085,22.9035603,0 
113.5721090,22.9035583,0 
113.5721095,22.9035564,0 
113.5721100,22.9035544,0 
113.5721105,22.9035525,0 
113.5721110,22.9035506,0 
113.5721116,22.9035488,0 
113.5721121,22.9035470,0 
113.5721126,22.9035453,0 
113.5721132,22.9035435,0 
113.5721137,22.9035419,0 
113.5721143,22.9035402,0 
113.5721148,22.9035386,0 
113.5721154,22.9035371,0 
113.5721159,22.9035355,0 
113.5721165,22.9035341,0 
113.5721171,22.9035326,0 
113.5721176,22.9035312,0 
113.5721182,22.9035299,0 
113.5721188,22.9035286,0 
113.5721194,22.9035274,0 
113.5721199,22.9035262,0 
113.5721205,22.9035250,0 
113.5721211,22.9035239,0 
113.5721217,22.9035228,0 
113.5721223,22.9035218,0 
113.5721229,22.9035208,0 
113.5721234,22.9035199,0 
113.5721240,22.9035191,0 
113.5721246,22.9035182,0 
113.5721252,22.9035175,0 
113.5721258,22.9035167,0 
113.5721264,22.9035161,0 
113.5721269,22.9035155,0 
113.5721275,22.9035149,0 
113.5721281,22.9035144,0 
113.5721287,22.9035139,0 
113.5721292,22.9035135,0 
113.5721298,22.9035132,0 
113.5721304,22.9035129,0 
113.5721309,22.9035126,0 
113.5721315,22.9035124,0 
113.5721320,22.9035123,0 
113.5721326,22.9035122,0 
113.5721331,22.9035121,0 
113.5721337,22.9035121,0 
</coordinates>
</LineString>
</Placemark>
</Folder>