<Folder>
<name>SV 25 258.226682 10.825782</name>
<visibility>1</visibility>
<Placemark>
<name>circle</name>
<visibility>1</visibility>
<Style>
<geomColor>FFFF007A</geomColor>
<geomScale>2</geomScale></Style>
<LineString>
<coordinates>
113.5716546,22.9038145,0 
113.5716548,22.9038140,0 
113.5716550,22.9038135,0 
113.5716553,22.9038130,0 
113.5716556,22.9038125,0 
113.5716560,22.9038121,0 
113.5716565,22.9038116,0 
113.5716570,22.9038112,0 
113.5716576,22.9038108,0 
113.5716582,22.9038104,0 
113.5716589,22.9038100,0 
113.5716597,22.9038096,0 
113.5716605,22.9038092,0 
113.5716614,22.9038089,0 
113.5716623,22.9038086,0 
113.5716633,22.9038082,0 
113.5716644,22.9038079,0 
113.5716655,22.9038076,0 
113.5716666,22.9038074,0 
113.5716679,22.9038071,0 
113.5716692,22.9038069,0 
113.5716705,22.9038066,0 
113.5716719,22.9038064,0 
113.5716734,22.9038062,0 
113.5716749,22.9038060,0 
113.5716764,22.9038059,0 
113.5716780,22.9038057,0 
113.5716797,22.9038056,0 
113.5716814,22.9038055,0 
113.5716832,22.9038054,0 
113.5716850,22.9038053,0 
113.5716869,22.9038052,0 
113.5716888,22.9038051,0 
113.5716907,22.9038051,0 
113.5716927,22.9038051,0 
113.5716948,22.9038051,0 
113.5716969,22.9038051,0 
113.5716990,22.9038051,0 
113.5717012,22.9038051,0 
113.5717034,22.9038052,0 
113.5717057,22.9038053,0 
113.5717080,22.9038054,0 
113.5717104,22.9038055,0 
113.5717127,22.9038056,0 
113.5717152,22.9038057,0 
113.5717176,22.9038059,0 
113.5717201,22.9038060,0 
113.5717226,22.9038062,0 
113.5717252,22.9038064,0 
113.5717278,22.9038066,0 
113.5717304,22.9038069,0 
113.5717330,22.9038071,0 
113.5717357,22.9038074,0 
113.5717384,22.9038076,0 
113.5717411,22.9038079,0 
113.5717439,22.9038082,0 
113.5717466,22.9038085,0 
113.5717494,22.9038089,0 
113.5717522,22.9038092,0 
113.5717551,22.9038096,0 
113.5717579,22.9038100,0 
113.5717608,22.9038104,0 
113.5717637,22.9038108,0 
113.5717666,22.9038112,0 
113.5717695,22.9038116,0 
113.5717724,22.9038121,0 
113.5717754,22.9038125,0 
113.5717783,22.9038130,0 
113.5717813,22.9038135,0 
113.5717842,22.9038140,0 
113.5717872,22.9038145,0 
113.5717902,22.9038150,0 
113.5717931,22.9038155,0 
113.5717961,22.9038161,0 
113.5717991,22.9038166,0 
113.5718020,22.9038172,0 
113.5718050,22.9038178,0 
113.5718080,22.9038183,0 
113.5718109,22.9038189,0 
113.5718139,22.9038196,0 
113.5718168,22.9038202,0 
113.5718198,22.9038208,0 
113.5718227,22.9038214,0 
113.5718256,22.9038221,0 
113.5718285,22.9038227,0 
113.5718314,22.9038234,0 
113.5718343,22.9038241,0 
113.5718371,22.9038247,0 
113.5718400,22.9038254,0 
113.5718428,22.9038261,0 
113.5718456,22.9038268,0 
113.5718484,22.9038275,0 
113.5718511,22.9038282,0 
113.5718539,22.9038289,0 
113.5718566,22.9038297,0 
113.5718593,22.9038304,0 
113.5718619,22.9038311,0 
113.5718645,22.9038319,0 
113.5718671,22.9038326,0 
113.5718697,22.9038333,0 
113.5718722,22.9038341,0 
113.5718747,22.9038348,0 
113.5718772,22.9038356,0 
113.5718796,22.9038364,0 
113.5718820,22.9038371,0 
113.5718844,22.9038379,0 
113.5718867,22.9038386,0 
113.5718889,22.9038394,0 
113.5718912,22.9038402,0 
113.5718934,22.9038409,0 
113.5718955,22.9038417,0 
113.5718976,22.9038425,0 
113.5718997,22.9038432,0 
113.5719017,22.9038440,0 
113.5719037,22.9038448,0 
113.5719056,22.9038455,0 
113.5719075,22.9038463,0 
113.5719093,22.9038471,0 
113.5719111,22.9038478,0 
113.5719128,22.9038486,0 
113.5719145,22.9038493,0 
113.5719161,22.9038501,0 
113.5719177,22.9038508,0 
113.5719192,22.9038516,0 
113.5719207,22.9038523,0 
113.5719221,22.9038530,0 
113.5719235,22.9038538,0 
113.5719248,22.9038545,0 
113.5719260,22.9038552,0 
113.5719272,22.9038559,0 
113.5719283,22.9038566,0 
113.5719294,22.9038573,0 
113.5719304,22.9038580,0 
113.5719314,22.9038587,0 
113.5719323,22.9038594,0 
113.5719331,22.9038600,0 
113.5719339,22.9038607,0 
113.5719346,22.9038614,0 
113.5719353,22.9038620,0 
113.5719359,22.9038626,0 
113.5719364,22.9038633,0 
113.5719369,22.9038639,0 
113.5719373,22.9038645,0 
113.5719376,22.9038651,0 
113.5719379,22.9038657,0 
113.5719381,22.9038662,0 
113.5719383,22.9038668,0 
113.5719384,22.9038674,0 
113.5719384,22.9038679,0 
113.5719384,22.9038684,0 
113.5719383,22.9038690,0 
113.5719382,22.9038695,0 
113.5719380,22.9038700,0 
113.5719377,22.9038704,0 
113.5719374,22.9038709,0 
113.5719370,22.9038714,0 
113.5719365,22.9038718,0 
113.5719360,22.9038723,0 
113.5719354,22.9038727,0 
113.5719348,22.9038731,0 
113.5719341,22.9038735,0 
113.5719333,22.9038738,0 
113.5719325,22.9038742,0 
113.5719316,22.9038746,0 
113.5719307,22.9038749,0 
113.5719297,22.9038752,0 
113.5719286,22.9038755,0 
113.5719275,22.9038758,0 
113.5719263,22.9038761,0 
113.5719251,22.9038763,0 
113.5719238,22.9038766,0 
113.5719225,22.9038768,0 
113.5719211,22.9038770,0 
113.5719196,22.9038772,0 
113.5719181,22.9038774,0 
113.5719166,22.9038776,0 
113.5719149,22.9038777,0 
113.5719133,22.9038779,0 
113.5719116,22.9038780,0 
113.5719098,22.9038781,0 
113.5719080,22.9038782,0 
113.5719061,22.9038783,0 
113.5719042,22.9038783,0 
113.5719022,22.9038784,0 
113.5719002,22.9038784,0 
113.5718982,22.9038784,0 
113.5718961,22.9038784,0 
113.5718940,22.9038784,0 
113.5718918,22.9038783,0 
113.5718895,22.9038783,0 
113.5718873,22.9038782,0 
113.5718850,22.9038781,0 
113.5718826,22.9038780,0 
113.5718802,22.9038779,0 
113.5718778,22.9038777,0 
113.5718754,22.9038776,0 
113.5718729,22.9038774,0 
113.5718704,22.9038772,0 
113.5718678,22.9038770,0 
113.5718652,22.9038768,0 
113.5718626,22.9038766,0 
113.5718600,22.9038764,0 
113.5718573,22.9038761,0 
113.5718546,22.9038758,0 
113.5718519,22.9038755,0 
113.5718491,22.9038752,0 
113.5718463,22.9038749,0 
113.5718435,22.9038746,0 
113.5718407,22.9038742,0 
113.5718379,22.9038739,0 
113.5718350,22.9038735,0 
113.5718322,22.9038731,0 
113.5718293,22.9038727,0 
113.5718264,22.9038723,0 
113.5718235,22.9038718,0 
113.5718205,22.9038714,0 
113.5718176,22.9038709,0 
113.5718147,22.9038705,0 
113.5718117,22.9038700,0 
113.5718088,22.9038695,0 
113.5718058,22.9038690,0 
113.5718028,22.9038685,0 
113.5717999,22.9038679,0 
113.5717969,22.9038674,0 
113.5717939,22.9038668,0 
113.5717909,22.9038663,0 
113.5717880,22.9038657,0 
113.5717850,22.9038651,0 
113.5717820,22.9038645,0 
113.5717791,22.9038639,0 
113.5717761,22.9038633,0 
113.5717732,22.9038627,0 
113.5717703,22.9038620,0 
113.5717674,22.9038614,0 
113.5717645,22.9038607,0 
113.5717616,22.9038601,0 
113.5717587,22.9038594,0 
113.5717558,22.9038587,0 
113.5717530,22.9038580,0 
113.5717502,22.9038574,0 
113.5717474,22.9038567,0 
113.5717446,22.9038559,0 
113.5717418,22.9038552,0 
113.5717391,22.9038545,0 
113.5717364,22.9038538,0 
113.5717337,22.9038531,0 
113.5717311,22.9038523,0 
113.5717284,22.9038516,0 
113.5717259,22.9038509,0 
113.5717233,22.9038501,0 
113.5717208,22.9038494,0 
113.5717183,22.9038486,0 
113.5717158,22.9038479,0 
113.5717134,22.9038471,0 
113.5717110,22.9038463,0 
113.5717086,22.9038456,0 
113.5717063,22.9038448,0 
113.5717040,22.9038440,0 
113.5717018,22.9038433,0 
113.5716996,22.9038425,0 
113.5716974,22.9038417,0 
113.5716953,22.9038410,0 
113.5716933,22.9038402,0 
113.5716913,22.9038394,0 
113.5716893,22.9038387,0 
113.5716874,22.9038379,0 
113.5716855,22.9038371,0 
113.5716837,22.9038364,0 
113.5716819,22.9038356,0 
113.5716801,22.9038349,0 
113.5716785,22.9038341,0 
113.5716768,22.9038334,0 
113.5716753,22.9038326,0 
113.5716737,22.9038319,0 
113.5716723,22.9038311,0 
113.5716709,22.9038304,0 
113.5716695,22.9038297,0 
113.5716682,22.9038290,0 
113.5716670,22.9038282,0 
113.5716658,22.9038275,0 
113.5716646,22.9038268,0 
113.5716636,22.9038261,0 
113.5716626,22.9038254,0 
113.5716616,22.9038248,0 
113.5716607,22.9038241,0 
113.5716599,22.9038234,0 
113.5716591,22.9038227,0 
113.5716584,22.9038221,0 
113.5716577,22.9038215,0 
113.5716571,22.9038208,0 
113.5716566,22.9038202,0 
113.5716561,22.9038196,0 
113.5716557,22.9038190,0 
113.5716554,22.9038184,0 
113.5716551,22.9038178,0 
113.5716548,22.9038172,0 
113.5716547,22.9038166,0 
113.5716546,22.9038161,0 
113.5716545,22.9038155,0 
113.5716546,22.9038150,0 
113.5716546,22.9038145,0 
</coordinates>
</LineString>
</Placemark>
</Folder>