<Folder>
<name>SV 25 252.480055 8.712837</name>
<visibility>1</visibility>
<Placemark>
<name>circle</name>
<visibility>1</visibility>
<Style>
<geomColor>FFFF007A</geomColor>
<geomScale>2</geomScale></Style>
<LineString>
<coordinates>
113.5715291,22.9037340,0 
113.5715293,22.9037334,0 
113.5715296,22.9037329,0 
113.5715300,22.9037324,0 
113.5715305,22.9037319,0 
113.5715311,22.9037315,0 
113.5715318,22.9037311,0 
113.5715325,22.9037307,0 
113.5715333,22.9037303,0 
113.5715342,22.9037299,0 
113.5715352,22.9037296,0 
113.5715363,22.9037293,0 
113.5715374,22.9037291,0 
113.5715386,22.9037288,0 
113.5715399,22.9037286,0 
113.5715413,22.9037284,0 
113.5715428,22.9037283,0 
113.5715443,22.9037281,0 
113.5715460,22.9037280,0 
113.5715477,22.9037280,0 
113.5715494,22.9037279,0 
113.5715513,22.9037279,0 
113.5715532,22.9037279,0 
113.5715552,22.9037279,0 
113.5715573,22.9037280,0 
113.5715594,22.9037281,0 
113.5715616,22.9037282,0 
113.5715639,22.9037283,0 
113.5715663,22.9037285,0 
113.5715687,22.9037287,0 
113.5715712,22.9037289,0 
113.5715737,22.9037291,0 
113.5715764,22.9037294,0 
113.5715790,22.9037297,0 
113.5715818,22.9037300,0 
113.5715846,22.9037304,0 
113.5715875,22.9037308,0 
113.5715904,22.9037312,0 
113.5715934,22.9037316,0 
113.5715964,22.9037321,0 
113.5715995,22.9037325,0 
113.5716026,22.9037331,0 
113.5716058,22.9037336,0 
113.5716091,22.9037341,0 
113.5716124,22.9037347,0 
113.5716157,22.9037353,0 
113.5716191,22.9037360,0 
113.5716225,22.9037366,0 
113.5716260,22.9037373,0 
113.5716295,22.9037380,0 
113.5716331,22.9037387,0 
113.5716367,22.9037394,0 
113.5716403,22.9037402,0 
113.5716440,22.9037410,0 
113.5716477,22.9037418,0 
113.5716515,22.9037426,0 
113.5716552,22.9037435,0 
113.5716590,22.9037444,0 
113.5716629,22.9037452,0 
113.5716667,22.9037462,0 
113.5716706,22.9037471,0 
113.5716745,22.9037480,0 
113.5716784,22.9037490,0 
113.5716823,22.9037500,0 
113.5716863,22.9037510,0 
113.5716903,22.9037520,0 
113.5716942,22.9037530,0 
113.5716982,22.9037541,0 
113.5717022,22.9037552,0 
113.5717062,22.9037563,0 
113.5717103,22.9037573,0 
113.5717143,22.9037585,0 
113.5717183,22.9037596,0 
113.5717223,22.9037607,0 
113.5717264,22.9037619,0 
113.5717304,22.9037630,0 
113.5717344,22.9037642,0 
113.5717384,22.9037654,0 
113.5717424,22.9037666,0 
113.5717464,22.9037678,0 
113.5717504,22.9037690,0 
113.5717544,22.9037703,0 
113.5717584,22.9037715,0 
113.5717623,22.9037727,0 
113.5717662,22.9037740,0 
113.5717701,22.9037752,0 
113.5717740,22.9037765,0 
113.5717779,22.9037778,0 
113.5717817,22.9037791,0 
113.5717855,22.9037803,0 
113.5717893,22.9037816,0 
113.5717931,22.9037829,0 
113.5717968,22.9037842,0 
113.5718005,22.9037855,0 
113.5718041,22.9037868,0 
113.5718077,22.9037881,0 
113.5718113,22.9037894,0 
113.5718149,22.9037907,0 
113.5718184,22.9037920,0 
113.5718218,22.9037933,0 
113.5718252,22.9037946,0 
113.5718286,22.9037959,0 
113.5718319,22.9037972,0 
113.5718352,22.9037984,0 
113.5718384,22.9037997,0 
113.5718416,22.9038010,0 
113.5718447,22.9038023,0 
113.5718477,22.9038035,0 
113.5718507,22.9038048,0 
113.5718537,22.9038061,0 
113.5718566,22.9038073,0 
113.5718594,22.9038086,0 
113.5718622,22.9038098,0 
113.5718649,22.9038110,0 
113.5718675,22.9038122,0 
113.5718701,22.9038134,0 
113.5718726,22.9038146,0 
113.5718751,22.9038158,0 
113.5718775,22.9038170,0 
113.5718798,22.9038181,0 
113.5718820,22.9038193,0 
113.5718842,22.9038204,0 
113.5718863,22.9038215,0 
113.5718883,22.9038227,0 
113.5718903,22.9038237,0 
113.5718922,22.9038248,0 
113.5718940,22.9038259,0 
113.5718957,22.9038269,0 
113.5718974,22.9038280,0 
113.5718990,22.9038290,0 
113.5719005,22.9038300,0 
113.5719019,22.9038310,0 
113.5719032,22.9038319,0 
113.5719045,22.9038329,0 
113.5719057,22.9038338,0 
113.5719068,22.9038347,0 
113.5719078,22.9038356,0 
113.5719087,22.9038364,0 
113.5719096,22.9038373,0 
113.5719104,22.9038381,0 
113.5719110,22.9038389,0 
113.5719116,22.9038397,0 
113.5719122,22.9038405,0 
113.5719126,22.9038412,0 
113.5719130,22.9038419,0 
113.5719132,22.9038426,0 
113.5719134,22.9038433,0 
113.5719135,22.9038439,0 
113.5719135,22.9038445,0 
113.5719135,22.9038451,0 
113.5719133,22.9038457,0 
113.5719131,22.9038463,0 
113.5719128,22.9038468,0 
113.5719124,22.9038473,0 
113.5719119,22.9038478,0 
113.5719113,22.9038482,0 
113.5719107,22.9038486,0 
113.5719099,22.9038490,0 
113.5719091,22.9038494,0 
113.5719082,22.9038498,0 
113.5719072,22.9038501,0 
113.5719062,22.9038504,0 
113.5719050,22.9038506,0 
113.5719038,22.9038509,0 
113.5719025,22.9038511,0 
113.5719011,22.9038513,0 
113.5718996,22.9038514,0 
113.5718981,22.9038516,0 
113.5718965,22.9038517,0 
113.5718948,22.9038517,0 
113.5718930,22.9038518,0 
113.5718911,22.9038518,0 
113.5718892,22.9038518,0 
113.5718872,22.9038518,0 
113.5718851,22.9038517,0 
113.5718830,22.9038516,0 
113.5718808,22.9038515,0 
113.5718785,22.9038514,0 
113.5718761,22.9038512,0 
113.5718737,22.9038510,0 
113.5718712,22.9038508,0 
113.5718687,22.9038506,0 
113.5718661,22.9038503,0 
113.5718634,22.9038500,0 
113.5718606,22.9038497,0 
113.5718578,22.9038493,0 
113.5718550,22.9038489,0 
113.5718520,22.9038485,0 
113.5718491,22.9038481,0 
113.5718460,22.9038476,0 
113.5718429,22.9038472,0 
113.5718398,22.9038466,0 
113.5718366,22.9038461,0 
113.5718333,22.9038456,0 
113.5718300,22.9038450,0 
113.5718267,22.9038444,0 
113.5718233,22.9038437,0 
113.5718199,22.9038431,0 
113.5718164,22.9038424,0 
113.5718129,22.9038417,0 
113.5718093,22.9038410,0 
113.5718057,22.9038403,0 
113.5718021,22.9038395,0 
113.5717984,22.9038387,0 
113.5717947,22.9038379,0 
113.5717910,22.9038371,0 
113.5717872,22.9038362,0 
113.5717834,22.9038353,0 
113.5717796,22.9038345,0 
113.5717757,22.9038335,0 
113.5717718,22.9038326,0 
113.5717679,22.9038317,0 
113.5717640,22.9038307,0 
113.5717601,22.9038297,0 
113.5717561,22.9038287,0 
113.5717522,22.9038277,0 
113.5717482,22.9038267,0 
113.5717442,22.9038256,0 
113.5717402,22.9038245,0 
113.5717362,22.9038234,0 
113.5717322,22.9038224,0 
113.5717281,22.9038212,0 
113.5717241,22.9038201,0 
113.5717201,22.9038190,0 
113.5717160,22.9038178,0 
113.5717120,22.9038167,0 
113.5717080,22.9038155,0 
113.5717040,22.9038143,0 
113.5717000,22.9038131,0 
113.5716960,22.9038119,0 
113.5716920,22.9038107,0 
113.5716880,22.9038094,0 
113.5716841,22.9038082,0 
113.5716801,22.9038070,0 
113.5716762,22.9038057,0 
113.5716723,22.9038045,0 
113.5716684,22.9038032,0 
113.5716645,22.9038019,0 
113.5716607,22.9038006,0 
113.5716569,22.9037994,0 
113.5716531,22.9037981,0 
113.5716494,22.9037968,0 
113.5716456,22.9037955,0 
113.5716419,22.9037942,0 
113.5716383,22.9037929,0 
113.5716347,22.9037916,0 
113.5716311,22.9037903,0 
113.5716276,22.9037890,0 
113.5716241,22.9037877,0 
113.5716206,22.9037864,0 
113.5716172,22.9037851,0 
113.5716138,22.9037838,0 
113.5716105,22.9037825,0 
113.5716072,22.9037813,0 
113.5716040,22.9037800,0 
113.5716009,22.9037787,0 
113.5715977,22.9037774,0 
113.5715947,22.9037762,0 
113.5715917,22.9037749,0 
113.5715887,22.9037736,0 
113.5715858,22.9037724,0 
113.5715830,22.9037711,0 
113.5715802,22.9037699,0 
113.5715775,22.9037687,0 
113.5715749,22.9037675,0 
113.5715723,22.9037663,0 
113.5715698,22.9037651,0 
113.5715673,22.9037639,0 
113.5715649,22.9037627,0 
113.5715626,22.9037616,0 
113.5715604,22.9037604,0 
113.5715582,22.9037593,0 
113.5715561,22.9037582,0 
113.5715541,22.9037570,0 
113.5715521,22.9037560,0 
113.5715502,22.9037549,0 
113.5715484,22.9037538,0 
113.5715467,22.9037528,0 
113.5715450,22.9037517,0 
113.5715435,22.9037507,0 
113.5715420,22.9037497,0 
113.5715405,22.9037487,0 
113.5715392,22.9037478,0 
113.5715379,22.9037468,0 
113.5715368,22.9037459,0 
113.5715357,22.9037450,0 
113.5715346,22.9037441,0 
113.5715337,22.9037433,0 
113.5715328,22.9037424,0 
113.5715321,22.9037416,0 
113.5715314,22.9037408,0 
113.5715308,22.9037400,0 
113.5715303,22.9037392,0 
113.5715298,22.9037385,0 
113.5715295,22.9037378,0 
113.5715292,22.9037371,0 
113.5715290,22.9037364,0 
113.5715289,22.9037358,0 
113.5715289,22.9037352,0 
113.5715289,22.9037346,0 
113.5715291,22.9037340,0 
</coordinates>
</LineString>
</Placemark>
</Folder>