<Folder>
<name>SV 32 249.285667 8.729243</name>
<visibility>1</visibility>
<Placemark>
<name>circle</name>
<visibility>1</visibility>
<Style>
<geomColor></geomColor>
<geomScale>2</geomScale></Style>
<LineString>
<coordinates>
113.5715210,22.9036983,0 
113.5715213,22.9036978,0 
113.5715216,22.9036972,0 
113.5715221,22.9036968,0 
113.5715226,22.9036963,0 
113.5715232,22.9036959,0 
113.5715239,22.9036955,0 
113.5715247,22.9036951,0 
113.5715255,22.9036948,0 
113.5715265,22.9036945,0 
113.5715275,22.9036942,0 
113.5715286,22.9036939,0 
113.5715298,22.9036937,0 
113.5715310,22.9036936,0 
113.5715324,22.9036934,0 
113.5715338,22.9036933,0 
113.5715353,22.9036932,0 
113.5715369,22.9036931,0 
113.5715386,22.9036931,0 
113.5715403,22.9036931,0 
113.5715421,22.9036932,0 
113.5715440,22.9036932,0 
113.5715460,22.9036933,0 
113.5715480,22.9036935,0 
113.5715501,22.9036936,0 
113.5715523,22.9036938,0 
113.5715545,22.9036941,0 
113.5715568,22.9036943,0 
113.5715592,22.9036946,0 
113.5715617,22.9036949,0 
113.5715642,22.9036953,0 
113.5715668,22.9036957,0 
113.5715694,22.9036961,0 
113.5715721,22.9036965,0 
113.5715749,22.9036970,0 
113.5715778,22.9036975,0 
113.5715806,22.9036981,0 
113.5715836,22.9036986,0 
113.5715866,22.9036992,0 
113.5715897,22.9036998,0 
113.5715928,22.9037005,0 
113.5715960,22.9037012,0 
113.5715992,22.9037019,0 
113.5716025,22.9037026,0 
113.5716058,22.9037034,0 
113.5716092,22.9037042,0 
113.5716126,22.9037050,0 
113.5716160,22.9037058,0 
113.5716195,22.9037067,0 
113.5716231,22.9037076,0 
113.5716267,22.9037085,0 
113.5716303,22.9037095,0 
113.5716339,22.9037104,0 
113.5716376,22.9037114,0 
113.5716414,22.9037124,0 
113.5716451,22.9037135,0 
113.5716489,22.9037145,0 
113.5716527,22.9037156,0 
113.5716566,22.9037167,0 
113.5716604,22.9037179,0 
113.5716643,22.9037190,0 
113.5716682,22.9037202,0 
113.5716721,22.9037214,0 
113.5716761,22.9037226,0 
113.5716801,22.9037238,0 
113.5716840,22.9037251,0 
113.5716880,22.9037263,0 
113.5716920,22.9037276,0 
113.5716960,22.9037289,0 
113.5717001,22.9037302,0 
113.5717041,22.9037315,0 
113.5717081,22.9037329,0 
113.5717122,22.9037342,0 
113.5717162,22.9037356,0 
113.5717202,22.9037370,0 
113.5717242,22.9037384,0 
113.5717283,22.9037398,0 
113.5717323,22.9037412,0 
113.5717363,22.9037427,0 
113.5717403,22.9037441,0 
113.5717443,22.9037455,0 
113.5717482,22.9037470,0 
113.5717522,22.9037485,0 
113.5717561,22.9037499,0 
113.5717601,22.9037514,0 
113.5717640,22.9037529,0 
113.5717678,22.9037544,0 
113.5717717,22.9037559,0 
113.5717755,22.9037574,0 
113.5717793,22.9037589,0 
113.5717831,22.9037604,0 
113.5717868,22.9037619,0 
113.5717906,22.9037634,0 
113.5717942,22.9037649,0 
113.5717979,22.9037664,0 
113.5718015,22.9037680,0 
113.5718050,22.9037695,0 
113.5718086,22.9037710,0 
113.5718120,22.9037725,0 
113.5718155,22.9037740,0 
113.5718189,22.9037755,0 
113.5718222,22.9037770,0 
113.5718255,22.9037785,0 
113.5718288,22.9037799,0 
113.5718320,22.9037814,0 
113.5718351,22.9037829,0 
113.5718382,22.9037843,0 
113.5718413,22.9037858,0 
113.5718442,22.9037872,0 
113.5718472,22.9037887,0 
113.5718500,22.9037901,0 
113.5718528,22.9037915,0 
113.5718556,22.9037929,0 
113.5718583,22.9037943,0 
113.5718609,22.9037957,0 
113.5718634,22.9037970,0 
113.5718659,22.9037984,0 
113.5718683,22.9037997,0 
113.5718707,22.9038010,0 
113.5718730,22.9038024,0 
113.5718752,22.9038036,0 
113.5718773,22.9038049,0 
113.5718794,22.9038062,0 
113.5718814,22.9038074,0 
113.5718833,22.9038086,0 
113.5718852,22.9038098,0 
113.5718870,22.9038110,0 
113.5718887,22.9038122,0 
113.5718903,22.9038133,0 
113.5718918,22.9038144,0 
113.5718933,22.9038155,0 
113.5718947,22.9038166,0 
113.5718960,22.9038176,0 
113.5718972,22.9038187,0 
113.5718984,22.9038197,0 
113.5718994,22.9038206,0 
113.5719004,22.9038216,0 
113.5719013,22.9038225,0 
113.5719021,22.9038234,0 
113.5719029,22.9038243,0 
113.5719035,22.9038252,0 
113.5719041,22.9038260,0 
113.5719046,22.9038268,0 
113.5719050,22.9038276,0 
113.5719053,22.9038283,0 
113.5719055,22.9038290,0 
113.5719057,22.9038297,0 
113.5719057,22.9038304,0 
113.5719057,22.9038310,0 
113.5719056,22.9038316,0 
113.5719054,22.9038322,0 
113.5719052,22.9038328,0 
113.5719048,22.9038333,0 
113.5719044,22.9038338,0 
113.5719038,22.9038342,0 
113.5719032,22.9038347,0 
113.5719025,22.9038351,0 
113.5719018,22.9038354,0 
113.5719009,22.9038358,0 
113.5719000,22.9038361,0 
113.5718989,22.9038363,0 
113.5718978,22.9038366,0 
113.5718966,22.9038368,0 
113.5718954,22.9038370,0 
113.5718940,22.9038371,0 
113.5718926,22.9038372,0 
113.5718911,22.9038373,0 
113.5718895,22.9038374,0 
113.5718879,22.9038374,0 
113.5718861,22.9038374,0 
113.5718843,22.9038374,0 
113.5718824,22.9038373,0 
113.5718805,22.9038372,0 
113.5718784,22.9038371,0 
113.5718763,22.9038369,0 
113.5718742,22.9038367,0 
113.5718719,22.9038365,0 
113.5718696,22.9038362,0 
113.5718672,22.9038359,0 
113.5718648,22.9038356,0 
113.5718622,22.9038352,0 
113.5718596,22.9038348,0 
113.5718570,22.9038344,0 
113.5718543,22.9038340,0 
113.5718515,22.9038335,0 
113.5718487,22.9038330,0 
113.5718458,22.9038325,0 
113.5718428,22.9038319,0 
113.5718398,22.9038313,0 
113.5718368,22.9038307,0 
113.5718336,22.9038300,0 
113.5718305,22.9038294,0 
113.5718272,22.9038286,0 
113.5718240,22.9038279,0 
113.5718206,22.9038272,0 
113.5718173,22.9038264,0 
113.5718139,22.9038255,0 
113.5718104,22.9038247,0 
113.5718069,22.9038238,0 
113.5718033,22.9038229,0 
113.5717998,22.9038220,0 
113.5717961,22.9038211,0 
113.5717925,22.9038201,0 
113.5717888,22.9038191,0 
113.5717851,22.9038181,0 
113.5717813,22.9038170,0 
113.5717775,22.9038160,0 
113.5717737,22.9038149,0 
113.5717699,22.9038138,0 
113.5717660,22.9038127,0 
113.5717621,22.9038115,0 
113.5717582,22.9038103,0 
113.5717543,22.9038092,0 
113.5717503,22.9038079,0 
113.5717464,22.9038067,0 
113.5717424,22.9038055,0 
113.5717384,22.9038042,0 
113.5717344,22.9038029,0 
113.5717304,22.9038016,0 
113.5717264,22.9038003,0 
113.5717223,22.9037990,0 
113.5717183,22.9037976,0 
113.5717143,22.9037963,0 
113.5717102,22.9037949,0 
113.5717062,22.9037935,0 
113.5717022,22.9037921,0 
113.5716982,22.9037907,0 
113.5716941,22.9037893,0 
113.5716901,22.9037879,0 
113.5716861,22.9037864,0 
113.5716822,22.9037850,0 
113.5716782,22.9037835,0 
113.5716742,22.9037821,0 
113.5716703,22.9037806,0 
113.5716664,22.9037791,0 
113.5716625,22.9037776,0 
113.5716586,22.9037761,0 
113.5716547,22.9037746,0 
113.5716509,22.9037731,0 
113.5716471,22.9037716,0 
113.5716433,22.9037701,0 
113.5716396,22.9037686,0 
113.5716359,22.9037671,0 
113.5716322,22.9037656,0 
113.5716286,22.9037641,0 
113.5716250,22.9037626,0 
113.5716214,22.9037611,0 
113.5716179,22.9037596,0 
113.5716144,22.9037581,0 
113.5716109,22.9037566,0 
113.5716076,22.9037551,0 
113.5716042,22.9037536,0 
113.5716009,22.9037521,0 
113.5715977,22.9037506,0 
113.5715945,22.9037491,0 
113.5715913,22.9037476,0 
113.5715882,22.9037462,0 
113.5715852,22.9037447,0 
113.5715822,22.9037433,0 
113.5715793,22.9037419,0 
113.5715764,22.9037404,0 
113.5715736,22.9037390,0 
113.5715708,22.9037376,0 
113.5715682,22.9037362,0 
113.5715655,22.9037349,0 
113.5715630,22.9037335,0 
113.5715605,22.9037321,0 
113.5715581,22.9037308,0 
113.5715557,22.9037295,0 
113.5715534,22.9037282,0 
113.5715512,22.9037269,0 
113.5715491,22.9037256,0 
113.5715470,22.9037244,0 
113.5715450,22.9037231,0 
113.5715431,22.9037219,0 
113.5715412,22.9037207,0 
113.5715395,22.9037195,0 
113.5715378,22.9037184,0 
113.5715361,22.9037172,0 
113.5715346,22.9037161,0 
113.5715331,22.9037150,0 
113.5715317,22.9037140,0 
113.5715304,22.9037129,0 
113.5715292,22.9037119,0 
113.5715281,22.9037109,0 
113.5715270,22.9037099,0 
113.5715260,22.9037089,0 
113.5715251,22.9037080,0 
113.5715243,22.9037071,0 
113.5715236,22.9037062,0 
113.5715229,22.9037054,0 
113.5715223,22.9037045,0 
113.5715219,22.9037037,0 
113.5715215,22.9037030,0 
113.5715211,22.9037022,0 
113.5715209,22.9037015,0 
113.5715208,22.9037008,0 
113.5715207,22.9037001,0 
113.5715207,22.9036995,0 
113.5715208,22.9036989,0 
113.5715210,22.9036983,0 
</coordinates>
</LineString>
</Placemark>
</Folder>