<Folder>
<name>SV 12 221.674116 13.005564</name>
<visibility>1</visibility>
<Placemark>
<name>circle</name>
<visibility>1</visibility>
<Style>
<geomColor>FF00FF00</geomColor>
<geomScale>2</geomScale></Style>
<LineString>
<coordinates>
113.5718530,22.9036444,0 
113.5718534,22.9036441,0 
113.5718539,22.9036438,0 
113.5718543,22.9036436,0 
113.5718548,22.9036434,0 
113.5718553,22.9036432,0 
113.5718559,22.9036431,0 
113.5718565,22.9036430,0 
113.5718571,22.9036429,0 
113.5718578,22.9036429,0 
113.5718584,22.9036429,0 
113.5718592,22.9036430,0 
113.5718599,22.9036430,0 
113.5718607,22.9036431,0 
113.5718615,22.9036433,0 
113.5718623,22.9036434,0 
113.5718632,22.9036436,0 
113.5718640,22.9036439,0 
113.5718649,22.9036441,0 
113.5718659,22.9036444,0 
113.5718668,22.9036448,0 
113.5718678,22.9036452,0 
113.5718688,22.9036456,0 
113.5718699,22.9036460,0 
113.5718709,22.9036465,0 
113.5718720,22.9036470,0 
113.5718731,22.9036475,0 
113.5718743,22.9036481,0 
113.5718754,22.9036487,0 
113.5718766,22.9036493,0 
113.5718778,22.9036499,0 
113.5718790,22.9036506,0 
113.5718803,22.9036514,0 
113.5718816,22.9036521,0 
113.5718828,22.9036529,0 
113.5718841,22.9036537,0 
113.5718855,22.9036545,0 
113.5718868,22.9036554,0 
113.5718881,22.9036563,0 
113.5718895,22.9036572,0 
113.5718909,22.9036582,0 
113.5718923,22.9036591,0 
113.5718937,22.9036602,0 
113.5718952,22.9036612,0 
113.5718966,22.9036622,0 
113.5718981,22.9036633,0 
113.5718995,22.9036644,0 
113.5719010,22.9036656,0 
113.5719025,22.9036667,0 
113.5719040,22.9036679,0 
113.5719055,22.9036691,0 
113.5719071,22.9036703,0 
113.5719086,22.9036716,0 
113.5719101,22.9036728,0 
113.5719117,22.9036741,0 
113.5719132,22.9036754,0 
113.5719148,22.9036768,0 
113.5719163,22.9036781,0 
113.5719179,22.9036795,0 
113.5719195,22.9036808,0 
113.5719211,22.9036822,0 
113.5719226,22.9036837,0 
113.5719242,22.9036851,0 
113.5719258,22.9036865,0 
113.5719274,22.9036880,0 
113.5719289,22.9036895,0 
113.5719305,22.9036910,0 
113.5719321,22.9036925,0 
113.5719337,22.9036940,0 
113.5719352,22.9036955,0 
113.5719368,22.9036970,0 
113.5719384,22.9036986,0 
113.5719399,22.9037001,0 
113.5719415,22.9037017,0 
113.5719430,22.9037033,0 
113.5719445,22.9037049,0 
113.5719461,22.9037065,0 
113.5719476,22.9037080,0 
113.5719491,22.9037096,0 
113.5719506,22.9037112,0 
113.5719521,22.9037129,0 
113.5719535,22.9037145,0 
113.5719550,22.9037161,0 
113.5719565,22.9037177,0 
113.5719579,22.9037193,0 
113.5719593,22.9037209,0 
113.5719607,22.9037225,0 
113.5719621,22.9037241,0 
113.5719635,22.9037258,0 
113.5719649,22.9037274,0 
113.5719662,22.9037290,0 
113.5719675,22.9037306,0 
113.5719688,22.9037322,0 
113.5719701,22.9037338,0 
113.5719714,22.9037353,0 
113.5719727,22.9037369,0 
113.5719739,22.9037385,0 
113.5719751,22.9037401,0 
113.5719763,22.9037416,0 
113.5719774,22.9037432,0 
113.5719786,22.9037447,0 
113.5719797,22.9037462,0 
113.5719808,22.9037477,0 
113.5719819,22.9037492,0 
113.5719829,22.9037507,0 
113.5719839,22.9037522,0 
113.5719849,22.9037537,0 
113.5719859,22.9037551,0 
113.5719869,22.9037565,0 
113.5719878,22.9037579,0 
113.5719887,22.9037593,0 
113.5719895,22.9037607,0 
113.5719904,22.9037621,0 
113.5719912,22.9037634,0 
113.5719920,22.9037648,0 
113.5719927,22.9037661,0 
113.5719934,22.9037673,0 
113.5719941,22.9037686,0 
113.5719948,22.9037698,0 
113.5719954,22.9037711,0 
113.5719960,22.9037723,0 
113.5719966,22.9037734,0 
113.5719971,22.9037746,0 
113.5719976,22.9037757,0 
113.5719981,22.9037768,0 
113.5719986,22.9037779,0 
113.5719990,22.9037790,0 
113.5719994,22.9037800,0 
113.5719997,22.9037810,0 
113.5720000,22.9037820,0 
113.5720003,22.9037829,0 
113.5720006,22.9037838,0 
113.5720008,22.9037847,0 
113.5720010,22.9037856,0 
113.5720011,22.9037864,0 
113.5720013,22.9037872,0 
113.5720013,22.9037880,0 
113.5720014,22.9037888,0 
113.5720014,22.9037895,0 
113.5720014,22.9037902,0 
113.5720014,22.9037908,0 
113.5720013,22.9037914,0 
113.5720012,22.9037920,0 
113.5720010,22.9037926,0 
113.5720009,22.9037931,0 
113.5720007,22.9037936,0 
113.5720004,22.9037941,0 
113.5720001,22.9037945,0 
113.5719998,22.9037949,0 
113.5719995,22.9037953,0 
113.5719991,22.9037956,0 
113.5719987,22.9037959,0 
113.5719983,22.9037962,0 
113.5719978,22.9037964,0 
113.5719973,22.9037966,0 
113.5719968,22.9037968,0 
113.5719962,22.9037969,0 
113.5719956,22.9037970,0 
113.5719950,22.9037971,0 
113.5719944,22.9037971,0 
113.5719937,22.9037971,0 
113.5719930,22.9037971,0 
113.5719922,22.9037970,0 
113.5719915,22.9037969,0 
113.5719907,22.9037968,0 
113.5719898,22.9037966,0 
113.5719890,22.9037964,0 
113.5719881,22.9037961,0 
113.5719872,22.9037959,0 
113.5719863,22.9037956,0 
113.5719853,22.9037952,0 
113.5719843,22.9037949,0 
113.5719833,22.9037945,0 
113.5719823,22.9037940,0 
113.5719812,22.9037936,0 
113.5719801,22.9037931,0 
113.5719790,22.9037925,0 
113.5719779,22.9037920,0 
113.5719767,22.9037914,0 
113.5719755,22.9037907,0 
113.5719743,22.9037901,0 
113.5719731,22.9037894,0 
113.5719718,22.9037887,0 
113.5719706,22.9037879,0 
113.5719693,22.9037871,0 
113.5719680,22.9037863,0 
113.5719667,22.9037855,0 
113.5719653,22.9037846,0 
113.5719640,22.9037837,0 
113.5719626,22.9037828,0 
113.5719612,22.9037818,0 
113.5719598,22.9037809,0 
113.5719584,22.9037799,0 
113.5719570,22.9037788,0 
113.5719555,22.9037778,0 
113.5719541,22.9037767,0 
113.5719526,22.9037756,0 
113.5719511,22.9037745,0 
113.5719496,22.9037733,0 
113.5719481,22.9037721,0 
113.5719466,22.9037709,0 
113.5719451,22.9037697,0 
113.5719435,22.9037685,0 
113.5719420,22.9037672,0 
113.5719405,22.9037659,0 
113.5719389,22.9037646,0 
113.5719374,22.9037633,0 
113.5719358,22.9037619,0 
113.5719342,22.9037606,0 
113.5719327,22.9037592,0 
113.5719311,22.9037578,0 
113.5719295,22.9037564,0 
113.5719279,22.9037549,0 
113.5719263,22.9037535,0 
113.5719248,22.9037520,0 
113.5719232,22.9037505,0 
113.5719216,22.9037491,0 
113.5719200,22.9037475,0 
113.5719185,22.9037460,0 
113.5719169,22.9037445,0 
113.5719153,22.9037430,0 
113.5719138,22.9037414,0 
113.5719122,22.9037399,0 
113.5719107,22.9037383,0 
113.5719091,22.9037367,0 
113.5719076,22.9037352,0 
113.5719061,22.9037336,0 
113.5719046,22.9037320,0 
113.5719030,22.9037304,0 
113.5719015,22.9037288,0 
113.5719001,22.9037272,0 
113.5718986,22.9037256,0 
113.5718971,22.9037239,0 
113.5718957,22.9037223,0 
113.5718942,22.9037207,0 
113.5718928,22.9037191,0 
113.5718914,22.9037175,0 
113.5718900,22.9037159,0 
113.5718886,22.9037143,0 
113.5718873,22.9037127,0 
113.5718859,22.9037111,0 
113.5718846,22.9037094,0 
113.5718833,22.9037079,0 
113.5718820,22.9037063,0 
113.5718807,22.9037047,0 
113.5718795,22.9037031,0 
113.5718783,22.9037015,0 
113.5718770,22.9037000,0 
113.5718759,22.9036984,0 
113.5718747,22.9036969,0 
113.5718735,22.9036953,0 
113.5718724,22.9036938,0 
113.5718713,22.9036923,0 
113.5718703,22.9036908,0 
113.5718692,22.9036893,0 
113.5718682,22.9036878,0 
113.5718672,22.9036864,0 
113.5718662,22.9036849,0 
113.5718653,22.9036835,0 
113.5718644,22.9036821,0 
113.5718635,22.9036807,0 
113.5718626,22.9036793,0 
113.5718618,22.9036779,0 
113.5718610,22.9036766,0 
113.5718602,22.9036753,0 
113.5718594,22.9036740,0 
113.5718587,22.9036727,0 
113.5718580,22.9036714,0 
113.5718573,22.9036702,0 
113.5718567,22.9036689,0 
113.5718561,22.9036678,0 
113.5718555,22.9036666,0 
113.5718550,22.9036654,0 
113.5718545,22.9036643,0 
113.5718540,22.9036632,0 
113.5718536,22.9036621,0 
113.5718532,22.9036611,0 
113.5718528,22.9036600,0 
113.5718524,22.9036590,0 
113.5718521,22.9036581,0 
113.5718518,22.9036571,0 
113.5718516,22.9036562,0 
113.5718513,22.9036553,0 
113.5718512,22.9036544,0 
113.5718510,22.9036536,0 
113.5718509,22.9036528,0 
113.5718508,22.9036520,0 
113.5718507,22.9036513,0 
113.5718507,22.9036506,0 
113.5718507,22.9036499,0 
113.5718508,22.9036492,0 
113.5718508,22.9036486,0 
113.5718510,22.9036480,0 
113.5718511,22.9036474,0 
113.5718513,22.9036469,0 
113.5718515,22.9036464,0 
113.5718517,22.9036459,0 
113.5718520,22.9036455,0 
113.5718523,22.9036451,0 
113.5718526,22.9036447,0 
113.5718530,22.9036444,0 
</coordinates>
</LineString>
</Placemark>
</Folder>