<Folder>
<name>SV 12 224.731993 14.908368</name>
<visibility>1</visibility>
<Placemark>
<name>circle</name>
<visibility>1</visibility>
<Style>
<geomColor>FF00FF00</geomColor>
<geomScale>2</geomScale></Style>
<LineString>
<coordinates>
113.5718789,22.9036945,0 
113.5718793,22.9036942,0 
113.5718797,22.9036939,0 
113.5718801,22.9036936,0 
113.5718805,22.9036934,0 
113.5718810,22.9036932,0 
113.5718815,22.9036931,0 
113.5718820,22.9036929,0 
113.5718826,22.9036928,0 
113.5718831,22.9036927,0 
113.5718837,22.9036926,0 
113.5718844,22.9036926,0 
113.5718850,22.9036926,0 
113.5718857,22.9036926,0 
113.5718864,22.9036926,0 
113.5718871,22.9036927,0 
113.5718878,22.9036928,0 
113.5718886,22.9036929,0 
113.5718894,22.9036931,0 
113.5718902,22.9036933,0 
113.5718911,22.9036935,0 
113.5718919,22.9036937,0 
113.5718928,22.9036939,0 
113.5718937,22.9036942,0 
113.5718946,22.9036945,0 
113.5718956,22.9036948,0 
113.5718966,22.9036952,0 
113.5718975,22.9036956,0 
113.5718986,22.9036960,0 
113.5718996,22.9036964,0 
113.5719006,22.9036969,0 
113.5719017,22.9036974,0 
113.5719028,22.9036979,0 
113.5719039,22.9036984,0 
113.5719050,22.9036989,0 
113.5719061,22.9036995,0 
113.5719073,22.9037001,0 
113.5719084,22.9037008,0 
113.5719096,22.9037014,0 
113.5719108,22.9037021,0 
113.5719120,22.9037028,0 
113.5719132,22.9037035,0 
113.5719144,22.9037042,0 
113.5719157,22.9037050,0 
113.5719169,22.9037057,0 
113.5719182,22.9037065,0 
113.5719195,22.9037074,0 
113.5719208,22.9037082,0 
113.5719221,22.9037091,0 
113.5719234,22.9037099,0 
113.5719247,22.9037108,0 
113.5719260,22.9037118,0 
113.5719273,22.9037127,0 
113.5719287,22.9037136,0 
113.5719300,22.9037146,0 
113.5719313,22.9037156,0 
113.5719327,22.9037166,0 
113.5719340,22.9037176,0 
113.5719354,22.9037187,0 
113.5719368,22.9037197,0 
113.5719381,22.9037208,0 
113.5719395,22.9037219,0 
113.5719408,22.9037229,0 
113.5719422,22.9037241,0 
113.5719436,22.9037252,0 
113.5719449,22.9037263,0 
113.5719463,22.9037274,0 
113.5719477,22.9037286,0 
113.5719490,22.9037298,0 
113.5719504,22.9037309,0 
113.5719517,22.9037321,0 
113.5719531,22.9037333,0 
113.5719544,22.9037345,0 
113.5719558,22.9037357,0 
113.5719571,22.9037369,0 
113.5719584,22.9037382,0 
113.5719597,22.9037394,0 
113.5719610,22.9037406,0 
113.5719623,22.9037419,0 
113.5719636,22.9037431,0 
113.5719649,22.9037444,0 
113.5719662,22.9037456,0 
113.5719675,22.9037469,0 
113.5719687,22.9037482,0 
113.5719699,22.9037494,0 
113.5719712,22.9037507,0 
113.5719724,22.9037520,0 
113.5719736,22.9037532,0 
113.5719748,22.9037545,0 
113.5719759,22.9037558,0 
113.5719771,22.9037570,0 
113.5719782,22.9037583,0 
113.5719794,22.9037596,0 
113.5719805,22.9037608,0 
113.5719816,22.9037621,0 
113.5719827,22.9037633,0 
113.5719837,22.9037646,0 
113.5719848,22.9037658,0 
113.5719858,22.9037670,0 
113.5719868,22.9037683,0 
113.5719878,22.9037695,0 
113.5719887,22.9037707,0 
113.5719897,22.9037719,0 
113.5719906,22.9037731,0 
113.5719915,22.9037743,0 
113.5719924,22.9037755,0 
113.5719932,22.9037767,0 
113.5719941,22.9037778,0 
113.5719949,22.9037790,0 
113.5719957,22.9037801,0 
113.5719964,22.9037813,0 
113.5719972,22.9037824,0 
113.5719979,22.9037835,0 
113.5719986,22.9037846,0 
113.5719992,22.9037856,0 
113.5719999,22.9037867,0 
113.5720005,22.9037877,0 
113.5720011,22.9037888,0 
113.5720016,22.9037898,0 
113.5720022,22.9037908,0 
113.5720027,22.9037918,0 
113.5720032,22.9037927,0 
113.5720036,22.9037937,0 
113.5720041,22.9037946,0 
113.5720045,22.9037955,0 
113.5720049,22.9037964,0 
113.5720052,22.9037973,0 
113.5720055,22.9037982,0 
113.5720058,22.9037990,0 
113.5720061,22.9037998,0 
113.5720063,22.9038006,0 
113.5720065,22.9038014,0 
113.5720067,22.9038021,0 
113.5720069,22.9038029,0 
113.5720070,22.9038036,0 
113.5720071,22.9038043,0 
113.5720072,22.9038049,0 
113.5720072,22.9038056,0 
113.5720072,22.9038062,0 
113.5720072,22.9038068,0 
113.5720071,22.9038074,0 
113.5720071,22.9038079,0 
113.5720070,22.9038085,0 
113.5720068,22.9038090,0 
113.5720067,22.9038094,0 
113.5720065,22.9038099,0 
113.5720063,22.9038103,0 
113.5720060,22.9038107,0 
113.5720057,22.9038111,0 
113.5720054,22.9038114,0 
113.5720051,22.9038118,0 
113.5720048,22.9038121,0 
113.5720044,22.9038123,0 
113.5720040,22.9038126,0 
113.5720035,22.9038128,0 
113.5720031,22.9038130,0 
113.5720026,22.9038132,0 
113.5720020,22.9038133,0 
113.5720015,22.9038134,0 
113.5720009,22.9038135,0 
113.5720003,22.9038136,0 
113.5719997,22.9038136,0 
113.5719991,22.9038136,0 
113.5719984,22.9038136,0 
113.5719977,22.9038136,0 
113.5719970,22.9038135,0 
113.5719962,22.9038134,0 
113.5719954,22.9038133,0 
113.5719947,22.9038132,0 
113.5719938,22.9038130,0 
113.5719930,22.9038128,0 
113.5719921,22.9038126,0 
113.5719912,22.9038123,0 
113.5719903,22.9038120,0 
113.5719894,22.9038117,0 
113.5719885,22.9038114,0 
113.5719875,22.9038110,0 
113.5719865,22.9038107,0 
113.5719855,22.9038102,0 
113.5719845,22.9038098,0 
113.5719834,22.9038094,0 
113.5719824,22.9038089,0 
113.5719813,22.9038084,0 
113.5719802,22.9038078,0 
113.5719791,22.9038073,0 
113.5719779,22.9038067,0 
113.5719768,22.9038061,0 
113.5719756,22.9038055,0 
113.5719745,22.9038048,0 
113.5719733,22.9038042,0 
113.5719721,22.9038035,0 
113.5719708,22.9038028,0 
113.5719696,22.9038020,0 
113.5719684,22.9038013,0 
113.5719671,22.9038005,0 
113.5719659,22.9037997,0 
113.5719646,22.9037989,0 
113.5719633,22.9037980,0 
113.5719620,22.9037972,0 
113.5719607,22.9037963,0 
113.5719594,22.9037954,0 
113.5719581,22.9037945,0 
113.5719567,22.9037935,0 
113.5719554,22.9037926,0 
113.5719541,22.9037916,0 
113.5719527,22.9037906,0 
113.5719514,22.9037896,0 
113.5719500,22.9037886,0 
113.5719487,22.9037876,0 
113.5719473,22.9037865,0 
113.5719459,22.9037855,0 
113.5719446,22.9037844,0 
113.5719432,22.9037833,0 
113.5719419,22.9037822,0 
113.5719405,22.9037811,0 
113.5719391,22.9037799,0 
113.5719378,22.9037788,0 
113.5719364,22.9037776,0 
113.5719350,22.9037765,0 
113.5719337,22.9037753,0 
113.5719323,22.9037741,0 
113.5719310,22.9037729,0 
113.5719296,22.9037717,0 
113.5719283,22.9037705,0 
113.5719270,22.9037693,0 
113.5719256,22.9037681,0 
113.5719243,22.9037668,0 
113.5719230,22.9037656,0 
113.5719217,22.9037644,0 
113.5719204,22.9037631,0 
113.5719191,22.9037619,0 
113.5719179,22.9037606,0 
113.5719166,22.9037593,0 
113.5719154,22.9037581,0 
113.5719141,22.9037568,0 
113.5719129,22.9037555,0 
113.5719117,22.9037543,0 
113.5719105,22.9037530,0 
113.5719093,22.9037517,0 
113.5719081,22.9037505,0 
113.5719070,22.9037492,0 
113.5719058,22.9037479,0 
113.5719047,22.9037467,0 
113.5719036,22.9037454,0 
113.5719025,22.9037442,0 
113.5719014,22.9037429,0 
113.5719003,22.9037417,0 
113.5718993,22.9037404,0 
113.5718983,22.9037392,0 
113.5718973,22.9037380,0 
113.5718963,22.9037367,0 
113.5718953,22.9037355,0 
113.5718944,22.9037343,0 
113.5718935,22.9037331,0 
113.5718926,22.9037319,0 
113.5718917,22.9037307,0 
113.5718908,22.9037296,0 
113.5718900,22.9037284,0 
113.5718892,22.9037272,0 
113.5718884,22.9037261,0 
113.5718876,22.9037250,0 
113.5718869,22.9037239,0 
113.5718862,22.9037228,0 
113.5718855,22.9037217,0 
113.5718848,22.9037206,0 
113.5718842,22.9037195,0 
113.5718836,22.9037185,0 
113.5718830,22.9037175,0 
113.5718824,22.9037164,0 
113.5718819,22.9037154,0 
113.5718814,22.9037145,0 
113.5718809,22.9037135,0 
113.5718804,22.9037125,0 
113.5718800,22.9037116,0 
113.5718796,22.9037107,0 
113.5718792,22.9037098,0 
113.5718789,22.9037089,0 
113.5718785,22.9037081,0 
113.5718782,22.9037072,0 
113.5718780,22.9037064,0 
113.5718777,22.9037056,0 
113.5718775,22.9037048,0 
113.5718773,22.9037041,0 
113.5718772,22.9037034,0 
113.5718771,22.9037026,0 
113.5718770,22.9037020,0 
113.5718769,22.9037013,0 
113.5718769,22.9037006,0 
113.5718769,22.9037000,0 
113.5718769,22.9036994,0 
113.5718769,22.9036989,0 
113.5718770,22.9036983,0 
113.5718771,22.9036978,0 
113.5718772,22.9036973,0 
113.5718774,22.9036968,0 
113.5718776,22.9036963,0 
113.5718778,22.9036959,0 
113.5718780,22.9036955,0 
113.5718783,22.9036951,0 
113.5718786,22.9036948,0 
113.5718789,22.9036945,0 
</coordinates>
</LineString>
</Placemark>
</Folder>