<Folder>
<name>SV 32 246.780010 6.992479</name>
<visibility>1</visibility>
<Placemark>
<name>circle</name>
<visibility>1</visibility>
<Style>
<geomColor></geomColor>
<geomScale>2</geomScale></Style>
<LineString>
<coordinates>
113.5713440,22.9036013,0 
113.5713444,22.9036007,0 
113.5713449,22.9036001,0 
113.5713454,22.9035996,0 
113.5713461,22.9035991,0 
113.5713469,22.9035987,0 
113.5713479,22.9035984,0 
113.5713489,22.9035980,0 
113.5713501,22.9035978,0 
113.5713513,22.9035975,0 
113.5713527,22.9035974,0 
113.5713542,22.9035972,0 
113.5713558,22.9035971,0 
113.5713575,22.9035971,0 
113.5713594,22.9035971,0 
113.5713613,22.9035972,0 
113.5713633,22.9035973,0 
113.5713655,22.9035975,0 
113.5713678,22.9035977,0 
113.5713701,22.9035979,0 
113.5713726,22.9035982,0 
113.5713752,22.9035986,0 
113.5713778,22.9035990,0 
113.5713806,22.9035994,0 
113.5713835,22.9035999,0 
113.5713865,22.9036004,0 
113.5713896,22.9036010,0 
113.5713927,22.9036016,0 
113.5713960,22.9036023,0 
113.5713994,22.9036030,0 
113.5714028,22.9036038,0 
113.5714064,22.9036046,0 
113.5714100,22.9036054,0 
113.5714137,22.9036063,0 
113.5714175,22.9036073,0 
113.5714214,22.9036083,0 
113.5714254,22.9036093,0 
113.5714294,22.9036104,0 
113.5714335,22.9036115,0 
113.5714378,22.9036126,0 
113.5714420,22.9036138,0 
113.5714464,22.9036151,0 
113.5714508,22.9036163,0 
113.5714553,22.9036176,0 
113.5714599,22.9036190,0 
113.5714645,22.9036204,0 
113.5714692,22.9036218,0 
113.5714740,22.9036233,0 
113.5714788,22.9036248,0 
113.5714837,22.9036263,0 
113.5714886,22.9036279,0 
113.5714936,22.9036295,0 
113.5714986,22.9036311,0 
113.5715037,22.9036328,0 
113.5715088,22.9036345,0 
113.5715140,22.9036362,0 
113.5715192,22.9036380,0 
113.5715244,22.9036398,0 
113.5715297,22.9036416,0 
113.5715350,22.9036435,0 
113.5715404,22.9036454,0 
113.5715458,22.9036473,0 
113.5715512,22.9036492,0 
113.5715566,22.9036512,0 
113.5715621,22.9036531,0 
113.5715676,22.9036552,0 
113.5715731,22.9036572,0 
113.5715786,22.9036592,0 
113.5715841,22.9036613,0 
113.5715896,22.9036634,0 
113.5715952,22.9036655,0 
113.5716007,22.9036676,0 
113.5716063,22.9036698,0 
113.5716119,22.9036719,0 
113.5716174,22.9036741,0 
113.5716230,22.9036763,0 
113.5716285,22.9036785,0 
113.5716341,22.9036807,0 
113.5716396,22.9036829,0 
113.5716451,22.9036852,0 
113.5716506,22.9036874,0 
113.5716561,22.9036896,0 
113.5716616,22.9036919,0 
113.5716670,22.9036942,0 
113.5716724,22.9036964,0 
113.5716778,22.9036987,0 
113.5716831,22.9037010,0 
113.5716885,22.9037033,0 
113.5716938,22.9037056,0 
113.5716990,22.9037078,0 
113.5717042,22.9037101,0 
113.5717094,22.9037124,0 
113.5717145,22.9037147,0 
113.5717196,22.9037169,0 
113.5717246,22.9037192,0 
113.5717296,22.9037215,0 
113.5717345,22.9037237,0 
113.5717394,22.9037260,0 
113.5717442,22.9037282,0 
113.5717490,22.9037304,0 
113.5717537,22.9037326,0 
113.5717583,22.9037349,0 
113.5717629,22.9037370,0 
113.5717674,22.9037392,0 
113.5717718,22.9037414,0 
113.5717761,22.9037435,0 
113.5717804,22.9037457,0 
113.5717846,22.9037478,0 
113.5717888,22.9037499,0 
113.5717928,22.9037520,0 
113.5717968,22.9037540,0 
113.5718007,22.9037561,0 
113.5718045,22.9037581,0 
113.5718082,22.9037601,0 
113.5718118,22.9037620,0 
113.5718154,22.9037640,0 
113.5718188,22.9037659,0 
113.5718222,22.9037678,0 
113.5718255,22.9037696,0 
113.5718287,22.9037715,0 
113.5718317,22.9037733,0 
113.5718347,22.9037751,0 
113.5718376,22.9037768,0 
113.5718404,22.9037785,0 
113.5718430,22.9037802,0 
113.5718456,22.9037819,0 
113.5718481,22.9037835,0 
113.5718505,22.9037851,0 
113.5718527,22.9037866,0 
113.5718549,22.9037881,0 
113.5718569,22.9037896,0 
113.5718589,22.9037911,0 
113.5718607,22.9037925,0 
113.5718624,22.9037938,0 
113.5718640,22.9037952,0 
113.5718655,22.9037965,0 
113.5718669,22.9037977,0 
113.5718682,22.9037989,0 
113.5718693,22.9038001,0 
113.5718704,22.9038012,0 
113.5718713,22.9038023,0 
113.5718721,22.9038033,0 
113.5718728,22.9038043,0 
113.5718734,22.9038053,0 
113.5718739,22.9038062,0 
113.5718742,22.9038071,0 
113.5718744,22.9038079,0 
113.5718746,22.9038087,0 
113.5718746,22.9038094,0 
113.5718745,22.9038101,0 
113.5718742,22.9038108,0 
113.5718739,22.9038114,0 
113.5718734,22.9038119,0 
113.5718728,22.9038124,0 
113.5718721,22.9038129,0 
113.5718713,22.9038133,0 
113.5718704,22.9038137,0 
113.5718694,22.9038140,0 
113.5718682,22.9038143,0 
113.5718669,22.9038145,0 
113.5718655,22.9038147,0 
113.5718641,22.9038148,0 
113.5718624,22.9038149,0 
113.5718607,22.9038149,0 
113.5718589,22.9038149,0 
113.5718570,22.9038148,0 
113.5718549,22.9038147,0 
113.5718528,22.9038146,0 
113.5718505,22.9038144,0 
113.5718481,22.9038141,0 
113.5718457,22.9038138,0 
113.5718431,22.9038135,0 
113.5718404,22.9038131,0 
113.5718376,22.9038126,0 
113.5718348,22.9038121,0 
113.5718318,22.9038116,0 
113.5718287,22.9038110,0 
113.5718255,22.9038104,0 
113.5718223,22.9038097,0 
113.5718189,22.9038090,0 
113.5718155,22.9038082,0 
113.5718119,22.9038074,0 
113.5718083,22.9038066,0 
113.5718046,22.9038057,0 
113.5718008,22.9038047,0 
113.5717969,22.9038038,0 
113.5717929,22.9038027,0 
113.5717888,22.9038017,0 
113.5717847,22.9038005,0 
113.5717805,22.9037994,0 
113.5717762,22.9037982,0 
113.5717719,22.9037970,0 
113.5717674,22.9037957,0 
113.5717629,22.9037944,0 
113.5717584,22.9037930,0 
113.5717537,22.9037916,0 
113.5717491,22.9037902,0 
113.5717443,22.9037887,0 
113.5717395,22.9037872,0 
113.5717346,22.9037857,0 
113.5717297,22.9037841,0 
113.5717247,22.9037825,0 
113.5717197,22.9037809,0 
113.5717146,22.9037792,0 
113.5717095,22.9037775,0 
113.5717043,22.9037758,0 
113.5716991,22.9037740,0 
113.5716938,22.9037722,0 
113.5716886,22.9037704,0 
113.5716832,22.9037685,0 
113.5716779,22.9037667,0 
113.5716725,22.9037648,0 
113.5716671,22.9037628,0 
113.5716616,22.9037609,0 
113.5716562,22.9037589,0 
113.5716507,22.9037569,0 
113.5716452,22.9037548,0 
113.5716397,22.9037528,0 
113.5716342,22.9037507,0 
113.5716286,22.9037486,0 
113.5716231,22.9037465,0 
113.5716175,22.9037444,0 
113.5716120,22.9037423,0 
113.5716064,22.9037401,0 
113.5716008,22.9037379,0 
113.5715953,22.9037357,0 
113.5715897,22.9037335,0 
113.5715842,22.9037313,0 
113.5715787,22.9037291,0 
113.5715732,22.9037269,0 
113.5715677,22.9037246,0 
113.5715622,22.9037224,0 
113.5715567,22.9037201,0 
113.5715513,22.9037179,0 
113.5715459,22.9037156,0 
113.5715405,22.9037133,0 
113.5715351,22.9037110,0 
113.5715298,22.9037088,0 
113.5715245,22.9037065,0 
113.5715193,22.9037042,0 
113.5715140,22.9037019,0 
113.5715089,22.9036996,0 
113.5715038,22.9036974,0 
113.5714987,22.9036951,0 
113.5714936,22.9036928,0 
113.5714887,22.9036906,0 
113.5714837,22.9036883,0 
113.5714789,22.9036861,0 
113.5714740,22.9036838,0 
113.5714693,22.9036816,0 
113.5714646,22.9036794,0 
113.5714600,22.9036772,0 
113.5714554,22.9036750,0 
113.5714509,22.9036728,0 
113.5714465,22.9036706,0 
113.5714421,22.9036685,0 
113.5714378,22.9036664,0 
113.5714336,22.9036642,0 
113.5714295,22.9036621,0 
113.5714254,22.9036601,0 
113.5714215,22.9036580,0 
113.5714176,22.9036560,0 
113.5714138,22.9036540,0 
113.5714100,22.9036520,0 
113.5714064,22.9036500,0 
113.5714029,22.9036481,0 
113.5713994,22.9036461,0 
113.5713961,22.9036442,0 
113.5713928,22.9036424,0 
113.5713896,22.9036405,0 
113.5713865,22.9036387,0 
113.5713836,22.9036370,0 
113.5713807,22.9036352,0 
113.5713779,22.9036335,0 
113.5713752,22.9036318,0 
113.5713726,22.9036301,0 
113.5713702,22.9036285,0 
113.5713678,22.9036269,0 
113.5713655,22.9036254,0 
113.5713634,22.9036239,0 
113.5713613,22.9036224,0 
113.5713594,22.9036210,0 
113.5713576,22.9036196,0 
113.5713558,22.9036182,0 
113.5713542,22.9036169,0 
113.5713527,22.9036156,0 
113.5713514,22.9036143,0 
113.5713501,22.9036131,0 
113.5713489,22.9036119,0 
113.5713479,22.9036108,0 
113.5713470,22.9036097,0 
113.5713461,22.9036087,0 
113.5713454,22.9036077,0 
113.5713449,22.9036067,0 
113.5713444,22.9036058,0 
113.5713440,22.9036049,0 
113.5713438,22.9036041,0 
113.5713437,22.9036033,0 
113.5713437,22.9036026,0 
113.5713438,22.9036019,0 
113.5713440,22.9036013,0 
</coordinates>
</LineString>
</Placemark>
</Folder>