<Folder>
<name>SV 36 232.533862 13.317057</name>
<visibility>1</visibility>
<Placemark>
<name>circle</name>
<visibility>1</visibility>
<Style>
<geomColor></geomColor>
<geomScale>2</geomScale></Style>
<LineString>
<coordinates>
113.5718130,22.9036974,0 
113.5718133,22.9036970,0 
113.5718137,22.9036967,0 
113.5718141,22.9036964,0 
113.5718145,22.9036961,0 
113.5718150,22.9036958,0 
113.5718155,22.9036956,0 
113.5718161,22.9036954,0 
113.5718167,22.9036952,0 
113.5718173,22.9036951,0 
113.5718180,22.9036950,0 
113.5718187,22.9036949,0 
113.5718194,22.9036948,0 
113.5718201,22.9036947,0 
113.5718209,22.9036947,0 
113.5718218,22.9036948,0 
113.5718226,22.9036948,0 
113.5718235,22.9036949,0 
113.5718245,22.9036950,0 
113.5718254,22.9036951,0 
113.5718264,22.9036952,0 
113.5718274,22.9036954,0 
113.5718285,22.9036956,0 
113.5718296,22.9036959,0 
113.5718307,22.9036961,0 
113.5718319,22.9036964,0 
113.5718330,22.9036967,0 
113.5718342,22.9036971,0 
113.5718355,22.9036974,0 
113.5718367,22.9036978,0 
113.5718380,22.9036982,0 
113.5718393,22.9036987,0 
113.5718407,22.9036992,0 
113.5718420,22.9036997,0 
113.5718434,22.9037002,0 
113.5718448,22.9037007,0 
113.5718462,22.9037013,0 
113.5718477,22.9037019,0 
113.5718492,22.9037025,0 
113.5718507,22.9037032,0 
113.5718522,22.9037038,0 
113.5718537,22.9037045,0 
113.5718553,22.9037052,0 
113.5718569,22.9037060,0 
113.5718585,22.9037067,0 
113.5718601,22.9037075,0 
113.5718617,22.9037083,0 
113.5718634,22.9037091,0 
113.5718650,22.9037100,0 
113.5718667,22.9037109,0 
113.5718684,22.9037117,0 
113.5718701,22.9037127,0 
113.5718718,22.9037136,0 
113.5718735,22.9037145,0 
113.5718753,22.9037155,0 
113.5718770,22.9037165,0 
113.5718788,22.9037175,0 
113.5718805,22.9037185,0 
113.5718823,22.9037195,0 
113.5718841,22.9037206,0 
113.5718859,22.9037217,0 
113.5718877,22.9037227,0 
113.5718895,22.9037238,0 
113.5718912,22.9037249,0 
113.5718930,22.9037261,0 
113.5718949,22.9037272,0 
113.5718967,22.9037284,0 
113.5718985,22.9037295,0 
113.5719003,22.9037307,0 
113.5719021,22.9037319,0 
113.5719039,22.9037331,0 
113.5719057,22.9037343,0 
113.5719075,22.9037356,0 
113.5719093,22.9037368,0 
113.5719110,22.9037380,0 
113.5719128,22.9037393,0 
113.5719146,22.9037405,0 
113.5719164,22.9037418,0 
113.5719181,22.9037431,0 
113.5719199,22.9037444,0 
113.5719216,22.9037456,0 
113.5719233,22.9037469,0 
113.5719251,22.9037482,0 
113.5719268,22.9037495,0 
113.5719285,22.9037508,0 
113.5719301,22.9037521,0 
113.5719318,22.9037534,0 
113.5719334,22.9037547,0 
113.5719351,22.9037561,0 
113.5719367,22.9037574,0 
113.5719383,22.9037587,0 
113.5719399,22.9037600,0 
113.5719415,22.9037613,0 
113.5719430,22.9037626,0 
113.5719445,22.9037639,0 
113.5719460,22.9037652,0 
113.5719475,22.9037665,0 
113.5719490,22.9037678,0 
113.5719504,22.9037691,0 
113.5719518,22.9037704,0 
113.5719532,22.9037716,0 
113.5719546,22.9037729,0 
113.5719559,22.9037742,0 
113.5719573,22.9037754,0 
113.5719586,22.9037767,0 
113.5719598,22.9037779,0 
113.5719611,22.9037792,0 
113.5719623,22.9037804,0 
113.5719635,22.9037816,0 
113.5719646,22.9037828,0 
113.5719657,22.9037840,0 
113.5719668,22.9037852,0 
113.5719679,22.9037863,0 
113.5719689,22.9037875,0 
113.5719699,22.9037886,0 
113.5719709,22.9037897,0 
113.5719719,22.9037909,0 
113.5719728,22.9037920,0 
113.5719736,22.9037930,0 
113.5719745,22.9037941,0 
113.5719753,22.9037952,0 
113.5719761,22.9037962,0 
113.5719768,22.9037972,0 
113.5719775,22.9037982,0 
113.5719782,22.9037992,0 
113.5719788,22.9038002,0 
113.5719794,22.9038011,0 
113.5719800,22.9038020,0 
113.5719805,22.9038029,0 
113.5719810,22.9038038,0 
113.5719814,22.9038047,0 
113.5719819,22.9038055,0 
113.5719822,22.9038063,0 
113.5719826,22.9038071,0 
113.5719829,22.9038079,0 
113.5719832,22.9038087,0 
113.5719834,22.9038094,0 
113.5719836,22.9038101,0 
113.5719837,22.9038108,0 
113.5719839,22.9038115,0 
113.5719839,22.9038121,0 
113.5719840,22.9038127,0 
113.5719840,22.9038133,0 
113.5719840,22.9038139,0 
113.5719839,22.9038145,0 
113.5719838,22.9038150,0 
113.5719836,22.9038155,0 
113.5719835,22.9038159,0 
113.5719832,22.9038164,0 
113.5719830,22.9038168,0 
113.5719827,22.9038172,0 
113.5719824,22.9038175,0 
113.5719820,22.9038179,0 
113.5719816,22.9038182,0 
113.5719811,22.9038185,0 
113.5719807,22.9038187,0 
113.5719801,22.9038190,0 
113.5719796,22.9038192,0 
113.5719790,22.9038193,0 
113.5719784,22.9038195,0 
113.5719777,22.9038196,0 
113.5719770,22.9038197,0 
113.5719763,22.9038198,0 
113.5719755,22.9038198,0 
113.5719747,22.9038198,0 
113.5719739,22.9038198,0 
113.5719730,22.9038198,0 
113.5719721,22.9038197,0 
113.5719712,22.9038196,0 
113.5719703,22.9038195,0 
113.5719693,22.9038193,0 
113.5719682,22.9038191,0 
113.5719672,22.9038189,0 
113.5719661,22.9038187,0 
113.5719650,22.9038184,0 
113.5719638,22.9038182,0 
113.5719627,22.9038178,0 
113.5719615,22.9038175,0 
113.5719602,22.9038171,0 
113.5719590,22.9038167,0 
113.5719577,22.9038163,0 
113.5719564,22.9038159,0 
113.5719550,22.9038154,0 
113.5719537,22.9038149,0 
113.5719523,22.9038144,0 
113.5719509,22.9038138,0 
113.5719494,22.9038133,0 
113.5719480,22.9038127,0 
113.5719465,22.9038121,0 
113.5719450,22.9038114,0 
113.5719435,22.9038107,0 
113.5719419,22.9038100,0 
113.5719404,22.9038093,0 
113.5719388,22.9038086,0 
113.5719372,22.9038078,0 
113.5719356,22.9038071,0 
113.5719340,22.9038062,0 
113.5719323,22.9038054,0 
113.5719307,22.9038046,0 
113.5719290,22.9038037,0 
113.5719273,22.9038028,0 
113.5719256,22.9038019,0 
113.5719239,22.9038010,0 
113.5719222,22.9038000,0 
113.5719204,22.9037991,0 
113.5719187,22.9037981,0 
113.5719169,22.9037971,0 
113.5719151,22.9037961,0 
113.5719134,22.9037950,0 
113.5719116,22.9037940,0 
113.5719098,22.9037929,0 
113.5719080,22.9037918,0 
113.5719062,22.9037907,0 
113.5719044,22.9037896,0 
113.5719026,22.9037885,0 
113.5719008,22.9037873,0 
113.5718990,22.9037862,0 
113.5718972,22.9037850,0 
113.5718954,22.9037838,0 
113.5718936,22.9037826,0 
113.5718918,22.9037814,0 
113.5718900,22.9037802,0 
113.5718882,22.9037790,0 
113.5718864,22.9037778,0 
113.5718846,22.9037765,0 
113.5718829,22.9037753,0 
113.5718811,22.9037740,0 
113.5718793,22.9037728,0 
113.5718776,22.9037715,0 
113.5718758,22.9037702,0 
113.5718741,22.9037689,0 
113.5718723,22.9037676,0 
113.5718706,22.9037663,0 
113.5718689,22.9037650,0 
113.5718672,22.9037637,0 
113.5718656,22.9037624,0 
113.5718639,22.9037611,0 
113.5718622,22.9037598,0 
113.5718606,22.9037585,0 
113.5718590,22.9037572,0 
113.5718574,22.9037559,0 
113.5718558,22.9037546,0 
113.5718542,22.9037533,0 
113.5718527,22.9037520,0 
113.5718512,22.9037507,0 
113.5718496,22.9037494,0 
113.5718482,22.9037481,0 
113.5718467,22.9037468,0 
113.5718453,22.9037455,0 
113.5718438,22.9037442,0 
113.5718424,22.9037429,0 
113.5718411,22.9037417,0 
113.5718397,22.9037404,0 
113.5718384,22.9037391,0 
113.5718371,22.9037379,0 
113.5718359,22.9037366,0 
113.5718346,22.9037354,0 
113.5718334,22.9037342,0 
113.5718322,22.9037330,0 
113.5718311,22.9037318,0 
113.5718299,22.9037306,0 
113.5718288,22.9037294,0 
113.5718278,22.9037282,0 
113.5718267,22.9037271,0 
113.5718257,22.9037259,0 
113.5718248,22.9037248,0 
113.5718238,22.9037237,0 
113.5718229,22.9037226,0 
113.5718220,22.9037215,0 
113.5718212,22.9037205,0 
113.5718204,22.9037194,0 
113.5718196,22.9037184,0 
113.5718189,22.9037174,0 
113.5718182,22.9037164,0 
113.5718175,22.9037154,0 
113.5718169,22.9037144,0 
113.5718163,22.9037135,0 
113.5718157,22.9037125,0 
113.5718152,22.9037116,0 
113.5718147,22.9037107,0 
113.5718142,22.9037099,0 
113.5718138,22.9037090,0 
113.5718134,22.9037082,0 
113.5718131,22.9037074,0 
113.5718128,22.9037066,0 
113.5718125,22.9037059,0 
113.5718123,22.9037051,0 
113.5718121,22.9037044,0 
113.5718119,22.9037037,0 
113.5718118,22.9037031,0 
113.5718117,22.9037024,0 
113.5718117,22.9037018,0 
113.5718117,22.9037012,0 
113.5718117,22.9037007,0 
113.5718118,22.9037001,0 
113.5718119,22.9036996,0 
113.5718120,22.9036991,0 
113.5718122,22.9036986,0 
113.5718124,22.9036982,0 
113.5718127,22.9036978,0 
113.5718130,22.9036974,0 
</coordinates>
</LineString>
</Placemark>
</Folder>