<Folder>
<name>SV 21 274.486793 13.081616</name>
<visibility>1</visibility>
<Placemark>
<name>circle</name>
<visibility>1</visibility>
<Style>
<geomColor></geomColor>
<geomScale>2</geomScale></Style>
<LineString>
<coordinates>
113.5717507,22.9039252,0 
113.5717507,22.9039248,0 
113.5717507,22.9039244,0 
113.5717508,22.9039240,0 
113.5717509,22.9039236,0 
113.5717510,22.9039231,0 
113.5717512,22.9039227,0 
113.5717515,22.9039223,0 
113.5717517,22.9039218,0 
113.5717521,22.9039214,0 
113.5717524,22.9039210,0 
113.5717528,22.9039205,0 
113.5717533,22.9039201,0 
113.5717537,22.9039196,0 
113.5717543,22.9039192,0 
113.5717548,22.9039188,0 
113.5717554,22.9039183,0 
113.5717561,22.9039179,0 
113.5717568,22.9039174,0 
113.5717575,22.9039170,0 
113.5717582,22.9039166,0 
113.5717590,22.9039161,0 
113.5717599,22.9039157,0 
113.5717608,22.9039153,0 
113.5717617,22.9039148,0 
113.5717626,22.9039144,0 
113.5717636,22.9039140,0 
113.5717646,22.9039135,0 
113.5717657,22.9039131,0 
113.5717668,22.9039127,0 
113.5717679,22.9039122,0 
113.5717691,22.9039118,0 
113.5717703,22.9039114,0 
113.5717715,22.9039110,0 
113.5717728,22.9039106,0 
113.5717740,22.9039102,0 
113.5717754,22.9039098,0 
113.5717767,22.9039094,0 
113.5717781,22.9039090,0 
113.5717795,22.9039086,0 
113.5717810,22.9039082,0 
113.5717825,22.9039078,0 
113.5717840,22.9039074,0 
113.5717855,22.9039071,0 
113.5717870,22.9039067,0 
113.5717886,22.9039063,0 
113.5717902,22.9039060,0 
113.5717919,22.9039056,0 
113.5717935,22.9039053,0 
113.5717952,22.9039049,0 
113.5717969,22.9039046,0 
113.5717986,22.9039043,0 
113.5718004,22.9039039,0 
113.5718021,22.9039036,0 
113.5718039,22.9039033,0 
113.5718057,22.9039030,0 
113.5718075,22.9039027,0 
113.5718094,22.9039024,0 
113.5718112,22.9039021,0 
113.5718131,22.9039019,0 
113.5718150,22.9039016,0 
113.5718169,22.9039013,0 
113.5718188,22.9039011,0 
113.5718207,22.9039008,0 
113.5718226,22.9039006,0 
113.5718246,22.9039003,0 
113.5718265,22.9039001,0 
113.5718285,22.9038999,0 
113.5718304,22.9038997,0 
113.5718324,22.9038995,0 
113.5718344,22.9038993,0 
113.5718364,22.9038991,0 
113.5718384,22.9038990,0 
113.5718403,22.9038988,0 
113.5718423,22.9038986,0 
113.5718443,22.9038985,0 
113.5718463,22.9038983,0 
113.5718483,22.9038982,0 
113.5718503,22.9038981,0 
113.5718523,22.9038980,0 
113.5718543,22.9038979,0 
113.5718563,22.9038978,0 
113.5718583,22.9038977,0 
113.5718603,22.9038976,0 
113.5718622,22.9038975,0 
113.5718642,22.9038975,0 
113.5718662,22.9038974,0 
113.5718681,22.9038974,0 
113.5718700,22.9038974,0 
113.5718720,22.9038973,0 
113.5718739,22.9038973,0 
113.5718758,22.9038973,0 
113.5718777,22.9038973,0 
113.5718796,22.9038973,0 
113.5718814,22.9038974,0 
113.5718833,22.9038974,0 
113.5718851,22.9038974,0 
113.5718869,22.9038975,0 
113.5718887,22.9038975,0 
113.5718905,22.9038976,0 
113.5718922,22.9038977,0 
113.5718940,22.9038978,0 
113.5718957,22.9038979,0 
113.5718974,22.9038980,0 
113.5718991,22.9038981,0 
113.5719007,22.9038982,0 
113.5719023,22.9038984,0 
113.5719039,22.9038985,0 
113.5719055,22.9038986,0 
113.5719070,22.9038988,0 
113.5719086,22.9038990,0 
113.5719101,22.9038991,0 
113.5719115,22.9038993,0 
113.5719130,22.9038995,0 
113.5719144,22.9038997,0 
113.5719157,22.9038999,0 
113.5719171,22.9039002,0 
113.5719184,22.9039004,0 
113.5719197,22.9039006,0 
113.5719209,22.9039008,0 
113.5719222,22.9039011,0 
113.5719234,22.9039014,0 
113.5719245,22.9039016,0 
113.5719256,22.9039019,0 
113.5719267,22.9039022,0 
113.5719278,22.9039025,0 
113.5719288,22.9039027,0 
113.5719297,22.9039030,0 
113.5719307,22.9039033,0 
113.5719316,22.9039037,0 
113.5719324,22.9039040,0 
113.5719333,22.9039043,0 
113.5719341,22.9039046,0 
113.5719348,22.9039050,0 
113.5719355,22.9039053,0 
113.5719362,22.9039057,0 
113.5719368,22.9039060,0 
113.5719374,22.9039064,0 
113.5719380,22.9039067,0 
113.5719385,22.9039071,0 
113.5719389,22.9039075,0 
113.5719394,22.9039079,0 
113.5719398,22.9039082,0 
113.5719401,22.9039086,0 
113.5719404,22.9039090,0 
113.5719407,22.9039094,0 
113.5719409,22.9039098,0 
113.5719411,22.9039102,0 
113.5719412,22.9039106,0 
113.5719413,22.9039111,0 
113.5719414,22.9039115,0 
113.5719414,22.9039119,0 
113.5719414,22.9039123,0 
113.5719413,22.9039127,0 
113.5719412,22.9039132,0 
113.5719410,22.9039136,0 
113.5719408,22.9039140,0 
113.5719406,22.9039144,0 
113.5719403,22.9039149,0 
113.5719400,22.9039153,0 
113.5719396,22.9039157,0 
113.5719392,22.9039162,0 
113.5719388,22.9039166,0 
113.5719383,22.9039171,0 
113.5719378,22.9039175,0 
113.5719372,22.9039179,0 
113.5719366,22.9039184,0 
113.5719360,22.9039188,0 
113.5719353,22.9039193,0 
113.5719346,22.9039197,0 
113.5719338,22.9039201,0 
113.5719330,22.9039206,0 
113.5719322,22.9039210,0 
113.5719313,22.9039215,0 
113.5719304,22.9039219,0 
113.5719294,22.9039223,0 
113.5719285,22.9039228,0 
113.5719274,22.9039232,0 
113.5719264,22.9039236,0 
113.5719253,22.9039240,0 
113.5719242,22.9039245,0 
113.5719230,22.9039249,0 
113.5719218,22.9039253,0 
113.5719206,22.9039257,0 
113.5719193,22.9039261,0 
113.5719180,22.9039265,0 
113.5719167,22.9039269,0 
113.5719153,22.9039273,0 
113.5719139,22.9039277,0 
113.5719125,22.9039281,0 
113.5719111,22.9039285,0 
113.5719096,22.9039289,0 
113.5719081,22.9039293,0 
113.5719066,22.9039297,0 
113.5719050,22.9039300,0 
113.5719034,22.9039304,0 
113.5719018,22.9039307,0 
113.5719002,22.9039311,0 
113.5718985,22.9039314,0 
113.5718969,22.9039318,0 
113.5718952,22.9039321,0 
113.5718934,22.9039325,0 
113.5718917,22.9039328,0 
113.5718899,22.9039331,0 
113.5718882,22.9039334,0 
113.5718864,22.9039337,0 
113.5718845,22.9039340,0 
113.5718827,22.9039343,0 
113.5718809,22.9039346,0 
113.5718790,22.9039349,0 
113.5718771,22.9039351,0 
113.5718752,22.9039354,0 
113.5718733,22.9039357,0 
113.5718714,22.9039359,0 
113.5718695,22.9039361,0 
113.5718675,22.9039364,0 
113.5718656,22.9039366,0 
113.5718636,22.9039368,0 
113.5718616,22.9039370,0 
113.5718597,22.9039372,0 
113.5718577,22.9039374,0 
113.5718557,22.9039376,0 
113.5718537,22.9039378,0 
113.5718517,22.9039379,0 
113.5718497,22.9039381,0 
113.5718477,22.9039382,0 
113.5718457,22.9039384,0 
113.5718437,22.9039385,0 
113.5718417,22.9039386,0 
113.5718397,22.9039387,0 
113.5718377,22.9039388,0 
113.5718358,22.9039389,0 
113.5718338,22.9039390,0 
113.5718318,22.9039391,0 
113.5718298,22.9039392,0 
113.5718279,22.9039392,0 
113.5718259,22.9039393,0 
113.5718240,22.9039393,0 
113.5718220,22.9039394,0 
113.5718201,22.9039394,0 
113.5718182,22.9039394,0 
113.5718163,22.9039394,0 
113.5718144,22.9039394,0 
113.5718125,22.9039394,0 
113.5718106,22.9039394,0 
113.5718088,22.9039393,0 
113.5718070,22.9039393,0 
113.5718052,22.9039392,0 
113.5718034,22.9039392,0 
113.5718016,22.9039391,0 
113.5717998,22.9039390,0 
113.5717981,22.9039389,0 
113.5717964,22.9039388,0 
113.5717947,22.9039387,0 
113.5717930,22.9039386,0 
113.5717914,22.9039385,0 
113.5717897,22.9039384,0 
113.5717881,22.9039382,0 
113.5717866,22.9039381,0 
113.5717850,22.9039379,0 
113.5717835,22.9039377,0 
113.5717820,22.9039376,0 
113.5717805,22.9039374,0 
113.5717791,22.9039372,0 
113.5717777,22.9039370,0 
113.5717763,22.9039368,0 
113.5717750,22.9039366,0 
113.5717736,22.9039363,0 
113.5717724,22.9039361,0 
113.5717711,22.9039359,0 
113.5717699,22.9039356,0 
113.5717687,22.9039354,0 
113.5717676,22.9039351,0 
113.5717664,22.9039348,0 
113.5717654,22.9039345,0 
113.5717643,22.9039343,0 
113.5717633,22.9039340,0 
113.5717623,22.9039337,0 
113.5717614,22.9039334,0 
113.5717605,22.9039331,0 
113.5717596,22.9039327,0 
113.5717588,22.9039324,0 
113.5717580,22.9039321,0 
113.5717573,22.9039317,0 
113.5717565,22.9039314,0 
113.5717559,22.9039311,0 
113.5717552,22.9039307,0 
113.5717547,22.9039303,0 
113.5717541,22.9039300,0 
113.5717536,22.9039296,0 
113.5717531,22.9039292,0 
113.5717527,22.9039289,0 
113.5717523,22.9039285,0 
113.5717520,22.9039281,0 
113.5717517,22.9039277,0 
113.5717514,22.9039273,0 
113.5717512,22.9039269,0 
113.5717510,22.9039265,0 
113.5717508,22.9039261,0 
113.5717507,22.9039257,0 
113.5717507,22.9039252,0 
</coordinates>
</LineString>
</Placemark>
</Folder>