<Folder>
<name>SV 36 234.564728 14.906542</name>
<visibility>1</visibility>
<Placemark>
<name>circle</name>
<visibility>1</visibility>
<Style>
<geomColor></geomColor>
<geomScale>2</geomScale></Style>
<LineString>
<coordinates>
113.5718435,22.9037319,0 
113.5718438,22.9037315,0 
113.5718442,22.9037312,0 
113.5718445,22.9037309,0 
113.5718449,22.9037306,0 
113.5718453,22.9037303,0 
113.5718458,22.9037301,0 
113.5718463,22.9037299,0 
113.5718468,22.9037297,0 
113.5718474,22.9037295,0 
113.5718479,22.9037293,0 
113.5718486,22.9037292,0 
113.5718492,22.9037291,0 
113.5718499,22.9037290,0 
113.5718506,22.9037289,0 
113.5718513,22.9037289,0 
113.5718521,22.9037288,0 
113.5718528,22.9037288,0 
113.5718537,22.9037289,0 
113.5718545,22.9037289,0 
113.5718554,22.9037290,0 
113.5718563,22.9037291,0 
113.5718572,22.9037292,0 
113.5718582,22.9037293,0 
113.5718591,22.9037295,0 
113.5718601,22.9037296,0 
113.5718612,22.9037298,0 
113.5718622,22.9037301,0 
113.5718633,22.9037303,0 
113.5718644,22.9037306,0 
113.5718655,22.9037309,0 
113.5718667,22.9037312,0 
113.5718678,22.9037315,0 
113.5718690,22.9037318,0 
113.5718702,22.9037322,0 
113.5718715,22.9037326,0 
113.5718727,22.9037330,0 
113.5718740,22.9037335,0 
113.5718753,22.9037339,0 
113.5718766,22.9037344,0 
113.5718779,22.9037349,0 
113.5718793,22.9037354,0 
113.5718806,22.9037359,0 
113.5718820,22.9037365,0 
113.5718834,22.9037371,0 
113.5718848,22.9037377,0 
113.5718862,22.9037383,0 
113.5718876,22.9037389,0 
113.5718891,22.9037396,0 
113.5718905,22.9037402,0 
113.5718920,22.9037409,0 
113.5718935,22.9037416,0 
113.5718950,22.9037423,0 
113.5718965,22.9037431,0 
113.5718980,22.9037438,0 
113.5718995,22.9037446,0 
113.5719010,22.9037454,0 
113.5719026,22.9037462,0 
113.5719041,22.9037470,0 
113.5719057,22.9037478,0 
113.5719072,22.9037486,0 
113.5719088,22.9037495,0 
113.5719103,22.9037504,0 
113.5719119,22.9037512,0 
113.5719135,22.9037521,0 
113.5719150,22.9037531,0 
113.5719166,22.9037540,0 
113.5719182,22.9037549,0 
113.5719197,22.9037558,0 
113.5719213,22.9037568,0 
113.5719229,22.9037578,0 
113.5719244,22.9037587,0 
113.5719260,22.9037597,0 
113.5719275,22.9037607,0 
113.5719291,22.9037617,0 
113.5719306,22.9037627,0 
113.5719322,22.9037637,0 
113.5719337,22.9037647,0 
113.5719352,22.9037658,0 
113.5719367,22.9037668,0 
113.5719383,22.9037678,0 
113.5719398,22.9037689,0 
113.5719412,22.9037699,0 
113.5719427,22.9037710,0 
113.5719442,22.9037721,0 
113.5719456,22.9037731,0 
113.5719471,22.9037742,0 
113.5719485,22.9037753,0 
113.5719499,22.9037763,0 
113.5719513,22.9037774,0 
113.5719527,22.9037785,0 
113.5719541,22.9037795,0 
113.5719554,22.9037806,0 
113.5719568,22.9037817,0 
113.5719581,22.9037828,0 
113.5719594,22.9037838,0 
113.5719607,22.9037849,0 
113.5719620,22.9037860,0 
113.5719632,22.9037870,0 
113.5719644,22.9037881,0 
113.5719656,22.9037892,0 
113.5719668,22.9037902,0 
113.5719680,22.9037913,0 
113.5719691,22.9037923,0 
113.5719702,22.9037934,0 
113.5719713,22.9037944,0 
113.5719724,22.9037954,0 
113.5719734,22.9037965,0 
113.5719745,22.9037975,0 
113.5719755,22.9037985,0 
113.5719764,22.9037995,0 
113.5719774,22.9038005,0 
113.5719783,22.9038014,0 
113.5719792,22.9038024,0 
113.5719800,22.9038034,0 
113.5719809,22.9038043,0 
113.5719817,22.9038053,0 
113.5719825,22.9038062,0 
113.5719832,22.9038071,0 
113.5719839,22.9038080,0 
113.5719846,22.9038089,0 
113.5719853,22.9038098,0 
113.5719859,22.9038107,0 
113.5719865,22.9038115,0 
113.5719871,22.9038124,0 
113.5719877,22.9038132,0 
113.5719882,22.9038140,0 
113.5719886,22.9038148,0 
113.5719891,22.9038156,0 
113.5719895,22.9038164,0 
113.5719899,22.9038171,0 
113.5719902,22.9038179,0 
113.5719906,22.9038186,0 
113.5719909,22.9038193,0 
113.5719911,22.9038200,0 
113.5719913,22.9038207,0 
113.5719915,22.9038213,0 
113.5719917,22.9038219,0 
113.5719918,22.9038226,0 
113.5719919,22.9038231,0 
113.5719920,22.9038237,0 
113.5719920,22.9038243,0 
113.5719920,22.9038248,0 
113.5719920,22.9038253,0 
113.5719919,22.9038258,0 
113.5719918,22.9038263,0 
113.5719916,22.9038268,0 
113.5719915,22.9038272,0 
113.5719913,22.9038276,0 
113.5719910,22.9038280,0 
113.5719908,22.9038284,0 
113.5719905,22.9038288,0 
113.5719901,22.9038291,0 
113.5719898,22.9038294,0 
113.5719894,22.9038297,0 
113.5719890,22.9038300,0 
113.5719885,22.9038302,0 
113.5719880,22.9038304,0 
113.5719875,22.9038306,0 
113.5719869,22.9038308,0 
113.5719864,22.9038310,0 
113.5719858,22.9038311,0 
113.5719851,22.9038312,0 
113.5719844,22.9038313,0 
113.5719837,22.9038314,0 
113.5719830,22.9038314,0 
113.5719822,22.9038315,0 
113.5719815,22.9038315,0 
113.5719806,22.9038314,0 
113.5719798,22.9038314,0 
113.5719789,22.9038313,0 
113.5719780,22.9038312,0 
113.5719771,22.9038311,0 
113.5719762,22.9038310,0 
113.5719752,22.9038308,0 
113.5719742,22.9038307,0 
113.5719731,22.9038305,0 
113.5719721,22.9038302,0 
113.5719710,22.9038300,0 
113.5719699,22.9038297,0 
113.5719688,22.9038294,0 
113.5719676,22.9038291,0 
113.5719665,22.9038288,0 
113.5719653,22.9038285,0 
113.5719641,22.9038281,0 
113.5719628,22.9038277,0 
113.5719616,22.9038273,0 
113.5719603,22.9038268,0 
113.5719590,22.9038264,0 
113.5719577,22.9038259,0 
113.5719564,22.9038254,0 
113.5719551,22.9038249,0 
113.5719537,22.9038243,0 
113.5719523,22.9038238,0 
113.5719509,22.9038232,0 
113.5719495,22.9038226,0 
113.5719481,22.9038220,0 
113.5719467,22.9038214,0 
113.5719452,22.9038207,0 
113.5719438,22.9038201,0 
113.5719423,22.9038194,0 
113.5719408,22.9038187,0 
113.5719393,22.9038180,0 
113.5719378,22.9038172,0 
113.5719363,22.9038165,0 
113.5719348,22.9038157,0 
113.5719333,22.9038149,0 
113.5719317,22.9038141,0 
113.5719302,22.9038133,0 
113.5719286,22.9038125,0 
113.5719271,22.9038117,0 
113.5719255,22.9038108,0 
113.5719240,22.9038099,0 
113.5719224,22.9038090,0 
113.5719208,22.9038082,0 
113.5719193,22.9038072,0 
113.5719177,22.9038063,0 
113.5719161,22.9038054,0 
113.5719146,22.9038045,0 
113.5719130,22.9038035,0 
113.5719114,22.9038025,0 
113.5719099,22.9038016,0 
113.5719083,22.9038006,0 
113.5719068,22.9037996,0 
113.5719052,22.9037986,0 
113.5719037,22.9037976,0 
113.5719021,22.9037966,0 
113.5719006,22.9037956,0 
113.5718991,22.9037945,0 
113.5718976,22.9037935,0 
113.5718961,22.9037925,0 
113.5718946,22.9037914,0 
113.5718931,22.9037904,0 
113.5718916,22.9037893,0 
113.5718901,22.9037882,0 
113.5718887,22.9037872,0 
113.5718872,22.9037861,0 
113.5718858,22.9037850,0 
113.5718844,22.9037840,0 
113.5718830,22.9037829,0 
113.5718816,22.9037818,0 
113.5718802,22.9037808,0 
113.5718789,22.9037797,0 
113.5718775,22.9037786,0 
113.5718762,22.9037775,0 
113.5718749,22.9037765,0 
113.5718736,22.9037754,0 
113.5718724,22.9037743,0 
113.5718711,22.9037732,0 
113.5718699,22.9037722,0 
113.5718687,22.9037711,0 
113.5718675,22.9037701,0 
113.5718663,22.9037690,0 
113.5718652,22.9037680,0 
113.5718641,22.9037669,0 
113.5718630,22.9037659,0 
113.5718619,22.9037649,0 
113.5718609,22.9037638,0 
113.5718598,22.9037628,0 
113.5718588,22.9037618,0 
113.5718579,22.9037608,0 
113.5718569,22.9037598,0 
113.5718560,22.9037588,0 
113.5718551,22.9037579,0 
113.5718543,22.9037569,0 
113.5718534,22.9037560,0 
113.5718526,22.9037550,0 
113.5718518,22.9037541,0 
113.5718511,22.9037532,0 
113.5718504,22.9037523,0 
113.5718497,22.9037514,0 
113.5718490,22.9037505,0 
113.5718484,22.9037496,0 
113.5718478,22.9037487,0 
113.5718472,22.9037479,0 
113.5718467,22.9037471,0 
113.5718461,22.9037463,0 
113.5718457,22.9037455,0 
113.5718452,22.9037447,0 
113.5718448,22.9037439,0 
113.5718444,22.9037432,0 
113.5718441,22.9037424,0 
113.5718437,22.9037417,0 
113.5718435,22.9037410,0 
113.5718432,22.9037403,0 
113.5718430,22.9037396,0 
113.5718428,22.9037390,0 
113.5718426,22.9037384,0 
113.5718425,22.9037377,0 
113.5718424,22.9037371,0 
113.5718423,22.9037366,0 
113.5718423,22.9037360,0 
113.5718423,22.9037355,0 
113.5718424,22.9037350,0 
113.5718424,22.9037345,0 
113.5718425,22.9037340,0 
113.5718427,22.9037335,0 
113.5718428,22.9037331,0 
113.5718430,22.9037327,0 
113.5718433,22.9037323,0 
113.5718435,22.9037319,0 
</coordinates>
</LineString>
</Placemark>
</Folder>