<Folder>
<name>SV 21 279.614022 14.501443</name>
<visibility>1</visibility>
<Placemark>
<name>circle</name>
<visibility>1</visibility>
<Style>
<geomColor></geomColor>
<geomScale>2</geomScale></Style>
<LineString>
<coordinates>
113.5717950,22.9039476,0 
113.5717949,22.9039472,0 
113.5717949,22.9039468,0 
113.5717949,22.9039464,0 
113.5717950,22.9039460,0 
113.5717950,22.9039456,0 
113.5717952,22.9039452,0 
113.5717953,22.9039447,0 
113.5717955,22.9039443,0 
113.5717957,22.9039439,0 
113.5717960,22.9039434,0 
113.5717963,22.9039430,0 
113.5717966,22.9039426,0 
113.5717970,22.9039421,0 
113.5717974,22.9039417,0 
113.5717979,22.9039412,0 
113.5717983,22.9039408,0 
113.5717988,22.9039403,0 
113.5717994,22.9039398,0 
113.5717999,22.9039394,0 
113.5718006,22.9039389,0 
113.5718012,22.9039385,0 
113.5718019,22.9039380,0 
113.5718026,22.9039375,0 
113.5718033,22.9039370,0 
113.5718041,22.9039366,0 
113.5718049,22.9039361,0 
113.5718057,22.9039356,0 
113.5718066,22.9039352,0 
113.5718075,22.9039347,0 
113.5718084,22.9039342,0 
113.5718093,22.9039337,0 
113.5718103,22.9039333,0 
113.5718113,22.9039328,0 
113.5718124,22.9039323,0 
113.5718134,22.9039319,0 
113.5718145,22.9039314,0 
113.5718157,22.9039309,0 
113.5718168,22.9039305,0 
113.5718180,22.9039300,0 
113.5718192,22.9039296,0 
113.5718204,22.9039291,0 
113.5718216,22.9039286,0 
113.5718229,22.9039282,0 
113.5718242,22.9039277,0 
113.5718255,22.9039273,0 
113.5718269,22.9039269,0 
113.5718282,22.9039264,0 
113.5718296,22.9039260,0 
113.5718310,22.9039256,0 
113.5718324,22.9039251,0 
113.5718339,22.9039247,0 
113.5718353,22.9039243,0 
113.5718368,22.9039239,0 
113.5718383,22.9039235,0 
113.5718398,22.9039231,0 
113.5718413,22.9039227,0 
113.5718429,22.9039223,0 
113.5718444,22.9039219,0 
113.5718460,22.9039215,0 
113.5718476,22.9039211,0 
113.5718492,22.9039208,0 
113.5718508,22.9039204,0 
113.5718524,22.9039200,0 
113.5718540,22.9039197,0 
113.5718557,22.9039193,0 
113.5718573,22.9039190,0 
113.5718590,22.9039187,0 
113.5718606,22.9039184,0 
113.5718623,22.9039180,0 
113.5718640,22.9039177,0 
113.5718657,22.9039174,0 
113.5718673,22.9039171,0 
113.5718690,22.9039169,0 
113.5718707,22.9039166,0 
113.5718724,22.9039163,0 
113.5718741,22.9039161,0 
113.5718758,22.9039158,0 
113.5718775,22.9039156,0 
113.5718792,22.9039153,0 
113.5718809,22.9039151,0 
113.5718826,22.9039149,0 
113.5718843,22.9039147,0 
113.5718860,22.9039145,0 
113.5718876,22.9039143,0 
113.5718893,22.9039141,0 
113.5718910,22.9039139,0 
113.5718926,22.9039138,0 
113.5718943,22.9039136,0 
113.5718959,22.9039135,0 
113.5718976,22.9039133,0 
113.5718992,22.9039132,0 
113.5719008,22.9039131,0 
113.5719024,22.9039130,0 
113.5719040,22.9039129,0 
113.5719056,22.9039128,0 
113.5719072,22.9039127,0 
113.5719087,22.9039127,0 
113.5719103,22.9039126,0 
113.5719118,22.9039125,0 
113.5719133,22.9039125,0 
113.5719148,22.9039125,0 
113.5719163,22.9039125,0 
113.5719178,22.9039124,0 
113.5719192,22.9039125,0 
113.5719206,22.9039125,0 
113.5719220,22.9039125,0 
113.5719234,22.9039125,0 
113.5719248,22.9039126,0 
113.5719261,22.9039126,0 
113.5719274,22.9039127,0 
113.5719287,22.9039127,0 
113.5719300,22.9039128,0 
113.5719312,22.9039129,0 
113.5719325,22.9039130,0 
113.5719337,22.9039131,0 
113.5719348,22.9039132,0 
113.5719360,22.9039134,0 
113.5719371,22.9039135,0 
113.5719382,22.9039136,0 
113.5719393,22.9039138,0 
113.5719403,22.9039140,0 
113.5719413,22.9039141,0 
113.5719423,22.9039143,0 
113.5719433,22.9039145,0 
113.5719442,22.9039147,0 
113.5719451,22.9039149,0 
113.5719459,22.9039151,0 
113.5719468,22.9039154,0 
113.5719476,22.9039156,0 
113.5719483,22.9039159,0 
113.5719491,22.9039161,0 
113.5719498,22.9039164,0 
113.5719505,22.9039166,0 
113.5719511,22.9039169,0 
113.5719517,22.9039172,0 
113.5719523,22.9039175,0 
113.5719528,22.9039178,0 
113.5719533,22.9039181,0 
113.5719538,22.9039184,0 
113.5719543,22.9039188,0 
113.5719547,22.9039191,0 
113.5719550,22.9039194,0 
113.5719554,22.9039198,0 
113.5719557,22.9039201,0 
113.5719559,22.9039205,0 
113.5719562,22.9039208,0 
113.5719564,22.9039212,0 
113.5719565,22.9039216,0 
113.5719566,22.9039220,0 
113.5719567,22.9039224,0 
113.5719568,22.9039227,0 
113.5719568,22.9039231,0 
113.5719568,22.9039236,0 
113.5719567,22.9039240,0 
113.5719567,22.9039244,0 
113.5719565,22.9039248,0 
113.5719564,22.9039252,0 
113.5719562,22.9039256,0 
113.5719559,22.9039261,0 
113.5719557,22.9039265,0 
113.5719554,22.9039269,0 
113.5719550,22.9039274,0 
113.5719547,22.9039278,0 
113.5719543,22.9039283,0 
113.5719538,22.9039287,0 
113.5719534,22.9039292,0 
113.5719529,22.9039296,0 
113.5719523,22.9039301,0 
113.5719517,22.9039306,0 
113.5719511,22.9039310,0 
113.5719505,22.9039315,0 
113.5719498,22.9039320,0 
113.5719491,22.9039324,0 
113.5719484,22.9039329,0 
113.5719476,22.9039334,0 
113.5719468,22.9039338,0 
113.5719460,22.9039343,0 
113.5719451,22.9039348,0 
113.5719442,22.9039353,0 
113.5719433,22.9039357,0 
113.5719424,22.9039362,0 
113.5719414,22.9039367,0 
113.5719404,22.9039371,0 
113.5719393,22.9039376,0 
113.5719383,22.9039381,0 
113.5719372,22.9039385,0 
113.5719360,22.9039390,0 
113.5719349,22.9039395,0 
113.5719337,22.9039399,0 
113.5719325,22.9039404,0 
113.5719313,22.9039409,0 
113.5719301,22.9039413,0 
113.5719288,22.9039418,0 
113.5719275,22.9039422,0 
113.5719262,22.9039427,0 
113.5719248,22.9039431,0 
113.5719235,22.9039435,0 
113.5719221,22.9039440,0 
113.5719207,22.9039444,0 
113.5719193,22.9039448,0 
113.5719178,22.9039452,0 
113.5719164,22.9039457,0 
113.5719149,22.9039461,0 
113.5719134,22.9039465,0 
113.5719119,22.9039469,0 
113.5719104,22.9039473,0 
113.5719088,22.9039477,0 
113.5719073,22.9039481,0 
113.5719057,22.9039484,0 
113.5719041,22.9039488,0 
113.5719025,22.9039492,0 
113.5719009,22.9039496,0 
113.5718993,22.9039499,0 
113.5718977,22.9039503,0 
113.5718960,22.9039506,0 
113.5718944,22.9039509,0 
113.5718927,22.9039513,0 
113.5718911,22.9039516,0 
113.5718894,22.9039519,0 
113.5718877,22.9039522,0 
113.5718860,22.9039525,0 
113.5718843,22.9039528,0 
113.5718827,22.9039531,0 
113.5718810,22.9039534,0 
113.5718793,22.9039536,0 
113.5718776,22.9039539,0 
113.5718759,22.9039541,0 
113.5718742,22.9039544,0 
113.5718725,22.9039546,0 
113.5718708,22.9039549,0 
113.5718691,22.9039551,0 
113.5718674,22.9039553,0 
113.5718657,22.9039555,0 
113.5718641,22.9039557,0 
113.5718624,22.9039559,0 
113.5718607,22.9039560,0 
113.5718591,22.9039562,0 
113.5718574,22.9039563,0 
113.5718558,22.9039565,0 
113.5718541,22.9039566,0 
113.5718525,22.9039567,0 
113.5718509,22.9039569,0 
113.5718493,22.9039570,0 
113.5718477,22.9039571,0 
113.5718461,22.9039572,0 
113.5718445,22.9039572,0 
113.5718430,22.9039573,0 
113.5718414,22.9039574,0 
113.5718399,22.9039574,0 
113.5718384,22.9039574,0 
113.5718369,22.9039575,0 
113.5718354,22.9039575,0 
113.5718339,22.9039575,0 
113.5718325,22.9039575,0 
113.5718311,22.9039575,0 
113.5718297,22.9039575,0 
113.5718283,22.9039574,0 
113.5718269,22.9039574,0 
113.5718256,22.9039573,0 
113.5718243,22.9039573,0 
113.5718230,22.9039572,0 
113.5718217,22.9039571,0 
113.5718205,22.9039570,0 
113.5718192,22.9039569,0 
113.5718180,22.9039568,0 
113.5718169,22.9039567,0 
113.5718157,22.9039566,0 
113.5718146,22.9039565,0 
113.5718135,22.9039563,0 
113.5718124,22.9039562,0 
113.5718114,22.9039560,0 
113.5718104,22.9039558,0 
113.5718094,22.9039556,0 
113.5718084,22.9039554,0 
113.5718075,22.9039552,0 
113.5718066,22.9039550,0 
113.5718057,22.9039548,0 
113.5718049,22.9039546,0 
113.5718041,22.9039543,0 
113.5718033,22.9039541,0 
113.5718026,22.9039538,0 
113.5718019,22.9039536,0 
113.5718012,22.9039533,0 
113.5718006,22.9039530,0 
113.5718000,22.9039527,0 
113.5717994,22.9039525,0 
113.5717989,22.9039521,0 
113.5717983,22.9039518,0 
113.5717979,22.9039515,0 
113.5717974,22.9039512,0 
113.5717970,22.9039509,0 
113.5717967,22.9039505,0 
113.5717963,22.9039502,0 
113.5717960,22.9039498,0 
113.5717958,22.9039495,0 
113.5717955,22.9039491,0 
113.5717953,22.9039487,0 
113.5717952,22.9039484,0 
113.5717950,22.9039480,0 
113.5717950,22.9039476,0 
</coordinates>
</LineString>
</Placemark>
</Folder>