<Folder>
<name>SV 23 286.799464 12.744355</name>
<visibility>1</visibility>
<Placemark>
<name>circle</name>
<visibility>1</visibility>
<Style>
<geomColor></geomColor>
<geomScale>2</geomScale></Style>
<LineString>
<coordinates>
113.5717307,22.9040027,0 
113.5717306,22.9040022,0 
113.5717305,22.9040018,0 
113.5717304,22.9040013,0 
113.5717305,22.9040007,0 
113.5717305,22.9040002,0 
113.5717306,22.9039997,0 
113.5717308,22.9039991,0 
113.5717310,22.9039986,0 
113.5717313,22.9039980,0 
113.5717316,22.9039974,0 
113.5717319,22.9039968,0 
113.5717323,22.9039962,0 
113.5717328,22.9039956,0 
113.5717332,22.9039950,0 
113.5717338,22.9039944,0 
113.5717344,22.9039937,0 
113.5717350,22.9039931,0 
113.5717357,22.9039924,0 
113.5717364,22.9039917,0 
113.5717372,22.9039910,0 
113.5717380,22.9039904,0 
113.5717388,22.9039897,0 
113.5717397,22.9039890,0 
113.5717407,22.9039883,0 
113.5717417,22.9039875,0 
113.5717427,22.9039868,0 
113.5717438,22.9039861,0 
113.5717449,22.9039853,0 
113.5717461,22.9039846,0 
113.5717473,22.9039839,0 
113.5717485,22.9039831,0 
113.5717498,22.9039823,0 
113.5717511,22.9039816,0 
113.5717525,22.9039808,0 
113.5717539,22.9039800,0 
113.5717553,22.9039793,0 
113.5717568,22.9039785,0 
113.5717583,22.9039777,0 
113.5717598,22.9039769,0 
113.5717614,22.9039762,0 
113.5717630,22.9039754,0 
113.5717647,22.9039746,0 
113.5717664,22.9039738,0 
113.5717681,22.9039730,0 
113.5717698,22.9039722,0 
113.5717716,22.9039714,0 
113.5717734,22.9039706,0 
113.5717753,22.9039699,0 
113.5717771,22.9039691,0 
113.5717790,22.9039683,0 
113.5717809,22.9039675,0 
113.5717829,22.9039667,0 
113.5717849,22.9039659,0 
113.5717868,22.9039652,0 
113.5717889,22.9039644,0 
113.5717909,22.9039636,0 
113.5717930,22.9039629,0 
113.5717950,22.9039621,0 
113.5717971,22.9039613,0 
113.5717993,22.9039606,0 
113.5718014,22.9039598,0 
113.5718036,22.9039591,0 
113.5718057,22.9039584,0 
113.5718079,22.9039576,0 
113.5718101,22.9039569,0 
113.5718123,22.9039562,0 
113.5718146,22.9039555,0 
113.5718168,22.9039548,0 
113.5718190,22.9039541,0 
113.5718213,22.9039534,0 
113.5718236,22.9039527,0 
113.5718258,22.9039521,0 
113.5718281,22.9039514,0 
113.5718304,22.9039508,0 
113.5718327,22.9039501,0 
113.5718350,22.9039495,0 
113.5718373,22.9039489,0 
113.5718396,22.9039482,0 
113.5718419,22.9039476,0 
113.5718441,22.9039471,0 
113.5718464,22.9039465,0 
113.5718487,22.9039459,0 
113.5718510,22.9039454,0 
113.5718533,22.9039448,0 
113.5718556,22.9039443,0 
113.5718578,22.9039438,0 
113.5718601,22.9039433,0 
113.5718623,22.9039428,0 
113.5718646,22.9039423,0 
113.5718668,22.9039418,0 
113.5718690,22.9039414,0 
113.5718712,22.9039409,0 
113.5718734,22.9039405,0 
113.5718756,22.9039401,0 
113.5718778,22.9039397,0 
113.5718799,22.9039393,0 
113.5718820,22.9039389,0 
113.5718841,22.9039386,0 
113.5718862,22.9039382,0 
113.5718883,22.9039379,0 
113.5718903,22.9039376,0 
113.5718924,22.9039373,0 
113.5718944,22.9039370,0 
113.5718964,22.9039367,0 
113.5718983,22.9039365,0 
113.5719002,22.9039363,0 
113.5719021,22.9039360,0 
113.5719040,22.9039358,0 
113.5719059,22.9039357,0 
113.5719077,22.9039355,0 
113.5719095,22.9039353,0 
113.5719112,22.9039352,0 
113.5719129,22.9039351,0 
113.5719146,22.9039350,0 
113.5719163,22.9039349,0 
113.5719179,22.9039348,0 
113.5719195,22.9039347,0 
113.5719211,22.9039347,0 
113.5719226,22.9039347,0 
113.5719241,22.9039347,0 
113.5719255,22.9039347,0 
113.5719270,22.9039347,0 
113.5719283,22.9039348,0 
113.5719297,22.9039348,0 
113.5719310,22.9039349,0 
113.5719322,22.9039350,0 
113.5719334,22.9039351,0 
113.5719346,22.9039352,0 
113.5719357,22.9039354,0 
113.5719368,22.9039355,0 
113.5719379,22.9039357,0 
113.5719389,22.9039359,0 
113.5719398,22.9039361,0 
113.5719408,22.9039363,0 
113.5719416,22.9039366,0 
113.5719425,22.9039368,0 
113.5719433,22.9039371,0 
113.5719440,22.9039374,0 
113.5719447,22.9039377,0 
113.5719453,22.9039380,0 
113.5719459,22.9039383,0 
113.5719465,22.9039386,0 
113.5719470,22.9039390,0 
113.5719475,22.9039394,0 
113.5719479,22.9039398,0 
113.5719482,22.9039402,0 
113.5719486,22.9039406,0 
113.5719488,22.9039410,0 
113.5719491,22.9039415,0 
113.5719492,22.9039419,0 
113.5719494,22.9039424,0 
113.5719494,22.9039429,0 
113.5719495,22.9039434,0 
113.5719495,22.9039439,0 
113.5719494,22.9039444,0 
113.5719493,22.9039450,0 
113.5719491,22.9039455,0 
113.5719489,22.9039461,0 
113.5719487,22.9039466,0 
113.5719484,22.9039472,0 
113.5719480,22.9039478,0 
113.5719476,22.9039484,0 
113.5719472,22.9039490,0 
113.5719467,22.9039496,0 
113.5719461,22.9039503,0 
113.5719456,22.9039509,0 
113.5719449,22.9039516,0 
113.5719442,22.9039522,0 
113.5719435,22.9039529,0 
113.5719428,22.9039536,0 
113.5719419,22.9039543,0 
113.5719411,22.9039550,0 
113.5719402,22.9039557,0 
113.5719392,22.9039564,0 
113.5719382,22.9039571,0 
113.5719372,22.9039578,0 
113.5719361,22.9039586,0 
113.5719350,22.9039593,0 
113.5719338,22.9039600,0 
113.5719326,22.9039608,0 
113.5719314,22.9039615,0 
113.5719301,22.9039623,0 
113.5719288,22.9039631,0 
113.5719274,22.9039638,0 
113.5719260,22.9039646,0 
113.5719246,22.9039654,0 
113.5719231,22.9039661,0 
113.5719216,22.9039669,0 
113.5719201,22.9039677,0 
113.5719185,22.9039685,0 
113.5719169,22.9039693,0 
113.5719152,22.9039701,0 
113.5719135,22.9039708,0 
113.5719118,22.9039716,0 
113.5719101,22.9039724,0 
113.5719083,22.9039732,0 
113.5719065,22.9039740,0 
113.5719047,22.9039748,0 
113.5719028,22.9039756,0 
113.5719009,22.9039764,0 
113.5718990,22.9039771,0 
113.5718970,22.9039779,0 
113.5718951,22.9039787,0 
113.5718931,22.9039795,0 
113.5718911,22.9039802,0 
113.5718890,22.9039810,0 
113.5718870,22.9039818,0 
113.5718849,22.9039825,0 
113.5718828,22.9039833,0 
113.5718807,22.9039840,0 
113.5718785,22.9039848,0 
113.5718764,22.9039855,0 
113.5718742,22.9039863,0 
113.5718720,22.9039870,0 
113.5718698,22.9039877,0 
113.5718676,22.9039884,0 
113.5718654,22.9039891,0 
113.5718631,22.9039898,0 
113.5718609,22.9039905,0 
113.5718586,22.9039912,0 
113.5718564,22.9039919,0 
113.5718541,22.9039926,0 
113.5718518,22.9039932,0 
113.5718495,22.9039939,0 
113.5718472,22.9039945,0 
113.5718449,22.9039952,0 
113.5718427,22.9039958,0 
113.5718404,22.9039964,0 
113.5718381,22.9039970,0 
113.5718358,22.9039976,0 
113.5718335,22.9039982,0 
113.5718312,22.9039987,0 
113.5718289,22.9039993,0 
113.5718266,22.9039998,0 
113.5718244,22.9040004,0 
113.5718221,22.9040009,0 
113.5718198,22.9040014,0 
113.5718176,22.9040019,0 
113.5718153,22.9040024,0 
113.5718131,22.9040028,0 
113.5718109,22.9040033,0 
113.5718087,22.9040037,0 
113.5718065,22.9040042,0 
113.5718043,22.9040046,0 
113.5718022,22.9040050,0 
113.5718000,22.9040054,0 
113.5717979,22.9040057,0 
113.5717958,22.9040061,0 
113.5717937,22.9040064,0 
113.5717916,22.9040067,0 
113.5717896,22.9040071,0 
113.5717876,22.9040074,0 
113.5717855,22.9040076,0 
113.5717836,22.9040079,0 
113.5717816,22.9040081,0 
113.5717797,22.9040084,0 
113.5717778,22.9040086,0 
113.5717759,22.9040088,0 
113.5717741,22.9040090,0 
113.5717722,22.9040092,0 
113.5717705,22.9040093,0 
113.5717687,22.9040094,0 
113.5717670,22.9040096,0 
113.5717653,22.9040097,0 
113.5717636,22.9040098,0 
113.5717620,22.9040098,0 
113.5717604,22.9040099,0 
113.5717588,22.9040099,0 
113.5717573,22.9040100,0 
113.5717558,22.9040100,0 
113.5717544,22.9040099,0 
113.5717530,22.9040099,0 
113.5717516,22.9040099,0 
113.5717503,22.9040098,0 
113.5717490,22.9040097,0 
113.5717477,22.9040096,0 
113.5717465,22.9040095,0 
113.5717453,22.9040094,0 
113.5717442,22.9040093,0 
113.5717431,22.9040091,0 
113.5717420,22.9040089,0 
113.5717410,22.9040087,0 
113.5717401,22.9040085,0 
113.5717392,22.9040083,0 
113.5717383,22.9040081,0 
113.5717375,22.9040078,0 
113.5717367,22.9040076,0 
113.5717359,22.9040073,0 
113.5717352,22.9040070,0 
113.5717346,22.9040067,0 
113.5717340,22.9040063,0 
113.5717334,22.9040060,0 
113.5717329,22.9040056,0 
113.5717325,22.9040053,0 
113.5717320,22.9040049,0 
113.5717317,22.9040045,0 
113.5717314,22.9040040,0 
113.5717311,22.9040036,0 
113.5717309,22.9040032,0 
113.5717307,22.9040027,0 
</coordinates>
</LineString>
</Placemark>
</Folder>