<Folder>
<name>SV 23 291.761872 14.966054</name>
<visibility>1</visibility>
<Placemark>
<name>circle</name>
<visibility>1</visibility>
<Style>
<geomColor></geomColor>
<geomScale>2</geomScale></Style>
<LineString>
<coordinates>
113.5718059,22.9040082,0 
113.5718057,22.9040077,0 
113.5718056,22.9040073,0 
113.5718055,22.9040069,0 
113.5718054,22.9040064,0 
113.5718054,22.9040059,0 
113.5718054,22.9040054,0 
113.5718055,22.9040049,0 
113.5718056,22.9040044,0 
113.5718057,22.9040039,0 
113.5718059,22.9040034,0 
113.5718061,22.9040028,0 
113.5718063,22.9040023,0 
113.5718066,22.9040017,0 
113.5718069,22.9040011,0 
113.5718073,22.9040005,0 
113.5718077,22.9039999,0 
113.5718081,22.9039993,0 
113.5718086,22.9039987,0 
113.5718091,22.9039981,0 
113.5718096,22.9039974,0 
113.5718101,22.9039968,0 
113.5718107,22.9039961,0 
113.5718114,22.9039955,0 
113.5718120,22.9039948,0 
113.5718127,22.9039941,0 
113.5718135,22.9039934,0 
113.5718142,22.9039928,0 
113.5718150,22.9039921,0 
113.5718159,22.9039913,0 
113.5718167,22.9039906,0 
113.5718176,22.9039899,0 
113.5718186,22.9039892,0 
113.5718195,22.9039885,0 
113.5718205,22.9039877,0 
113.5718215,22.9039870,0 
113.5718226,22.9039863,0 
113.5718237,22.9039855,0 
113.5718248,22.9039848,0 
113.5718259,22.9039840,0 
113.5718271,22.9039833,0 
113.5718283,22.9039825,0 
113.5718295,22.9039817,0 
113.5718307,22.9039810,0 
113.5718320,22.9039802,0 
113.5718333,22.9039795,0 
113.5718346,22.9039787,0 
113.5718360,22.9039779,0 
113.5718373,22.9039772,0 
113.5718387,22.9039764,0 
113.5718401,22.9039756,0 
113.5718416,22.9039749,0 
113.5718430,22.9039741,0 
113.5718445,22.9039733,0 
113.5718460,22.9039726,0 
113.5718475,22.9039718,0 
113.5718490,22.9039711,0 
113.5718506,22.9039703,0 
113.5718521,22.9039696,0 
113.5718537,22.9039688,0 
113.5718553,22.9039681,0 
113.5718569,22.9039674,0 
113.5718586,22.9039666,0 
113.5718602,22.9039659,0 
113.5718619,22.9039652,0 
113.5718635,22.9039645,0 
113.5718652,22.9039637,0 
113.5718669,22.9039630,0 
113.5718686,22.9039623,0 
113.5718703,22.9039616,0 
113.5718720,22.9039610,0 
113.5718737,22.9039603,0 
113.5718755,22.9039596,0 
113.5718772,22.9039589,0 
113.5718789,22.9039583,0 
113.5718807,22.9039576,0 
113.5718824,22.9039570,0 
113.5718842,22.9039564,0 
113.5718859,22.9039558,0 
113.5718877,22.9039551,0 
113.5718895,22.9039545,0 
113.5718912,22.9039540,0 
113.5718930,22.9039534,0 
113.5718947,22.9039528,0 
113.5718965,22.9039522,0 
113.5718982,22.9039517,0 
113.5719000,22.9039512,0 
113.5719017,22.9039506,0 
113.5719034,22.9039501,0 
113.5719052,22.9039496,0 
113.5719069,22.9039491,0 
113.5719086,22.9039487,0 
113.5719103,22.9039482,0 
113.5719120,22.9039477,0 
113.5719137,22.9039473,0 
113.5719154,22.9039469,0 
113.5719170,22.9039465,0 
113.5719187,22.9039461,0 
113.5719203,22.9039457,0 
113.5719219,22.9039453,0 
113.5719235,22.9039450,0 
113.5719251,22.9039446,0 
113.5719267,22.9039443,0 
113.5719283,22.9039440,0 
113.5719298,22.9039437,0 
113.5719314,22.9039434,0 
113.5719329,22.9039431,0 
113.5719344,22.9039429,0 
113.5719358,22.9039426,0 
113.5719373,22.9039424,0 
113.5719387,22.9039422,0 
113.5719401,22.9039420,0 
113.5719415,22.9039418,0 
113.5719429,22.9039417,0 
113.5719442,22.9039415,0 
113.5719455,22.9039414,0 
113.5719468,22.9039413,0 
113.5719481,22.9039412,0 
113.5719493,22.9039411,0 
113.5719505,22.9039411,0 
113.5719517,22.9039410,0 
113.5719529,22.9039410,0 
113.5719540,22.9039410,0 
113.5719551,22.9039410,0 
113.5719562,22.9039410,0 
113.5719572,22.9039410,0 
113.5719582,22.9039410,0 
113.5719592,22.9039411,0 
113.5719602,22.9039412,0 
113.5719611,22.9039413,0 
113.5719620,22.9039414,0 
113.5719629,22.9039415,0 
113.5719637,22.9039417,0 
113.5719645,22.9039418,0 
113.5719652,22.9039420,0 
113.5719660,22.9039422,0 
113.5719667,22.9039424,0 
113.5719673,22.9039426,0 
113.5719679,22.9039428,0 
113.5719685,22.9039431,0 
113.5719691,22.9039434,0 
113.5719696,22.9039436,0 
113.5719701,22.9039439,0 
113.5719706,22.9039442,0 
113.5719710,22.9039446,0 
113.5719713,22.9039449,0 
113.5719717,22.9039453,0 
113.5719720,22.9039456,0 
113.5719723,22.9039460,0 
113.5719725,22.9039464,0 
113.5719727,22.9039468,0 
113.5719729,22.9039472,0 
113.5719730,22.9039477,0 
113.5719731,22.9039481,0 
113.5719731,22.9039486,0 
113.5719731,22.9039491,0 
113.5719731,22.9039495,0 
113.5719731,22.9039500,0 
113.5719730,22.9039505,0 
113.5719728,22.9039511,0 
113.5719727,22.9039516,0 
113.5719725,22.9039522,0 
113.5719722,22.9039527,0 
113.5719719,22.9039533,0 
113.5719716,22.9039539,0 
113.5719713,22.9039544,0 
113.5719709,22.9039550,0 
113.5719705,22.9039557,0 
113.5719700,22.9039563,0 
113.5719695,22.9039569,0 
113.5719690,22.9039575,0 
113.5719684,22.9039582,0 
113.5719678,22.9039588,0 
113.5719672,22.9039595,0 
113.5719665,22.9039602,0 
113.5719658,22.9039608,0 
113.5719651,22.9039615,0 
113.5719643,22.9039622,0 
113.5719635,22.9039629,0 
113.5719627,22.9039636,0 
113.5719618,22.9039643,0 
113.5719609,22.9039650,0 
113.5719600,22.9039658,0 
113.5719590,22.9039665,0 
113.5719581,22.9039672,0 
113.5719570,22.9039680,0 
113.5719560,22.9039687,0 
113.5719549,22.9039695,0 
113.5719538,22.9039702,0 
113.5719527,22.9039710,0 
113.5719515,22.9039717,0 
113.5719503,22.9039725,0 
113.5719491,22.9039732,0 
113.5719478,22.9039740,0 
113.5719466,22.9039747,0 
113.5719453,22.9039755,0 
113.5719440,22.9039763,0 
113.5719426,22.9039770,0 
113.5719412,22.9039778,0 
113.5719399,22.9039786,0 
113.5719384,22.9039793,0 
113.5719370,22.9039801,0 
113.5719356,22.9039809,0 
113.5719341,22.9039816,0 
113.5719326,22.9039824,0 
113.5719311,22.9039831,0 
113.5719295,22.9039839,0 
113.5719280,22.9039846,0 
113.5719264,22.9039854,0 
113.5719248,22.9039861,0 
113.5719232,22.9039869,0 
113.5719216,22.9039876,0 
113.5719200,22.9039883,0 
113.5719184,22.9039891,0 
113.5719167,22.9039898,0 
113.5719150,22.9039905,0 
113.5719134,22.9039912,0 
113.5719117,22.9039919,0 
113.5719100,22.9039926,0 
113.5719083,22.9039933,0 
113.5719066,22.9039940,0 
113.5719048,22.9039947,0 
113.5719031,22.9039954,0 
113.5719014,22.9039960,0 
113.5718996,22.9039967,0 
113.5718979,22.9039973,0 
113.5718961,22.9039980,0 
113.5718944,22.9039986,0 
113.5718926,22.9039992,0 
113.5718909,22.9039998,0 
113.5718891,22.9040004,0 
113.5718874,22.9040010,0 
113.5718856,22.9040016,0 
113.5718839,22.9040022,0 
113.5718821,22.9040027,0 
113.5718804,22.9040033,0 
113.5718786,22.9040038,0 
113.5718769,22.9040043,0 
113.5718751,22.9040048,0 
113.5718734,22.9040053,0 
113.5718717,22.9040058,0 
113.5718700,22.9040063,0 
113.5718683,22.9040068,0 
113.5718666,22.9040072,0 
113.5718649,22.9040077,0 
113.5718632,22.9040081,0 
113.5718615,22.9040085,0 
113.5718599,22.9040089,0 
113.5718583,22.9040093,0 
113.5718566,22.9040097,0 
113.5718550,22.9040100,0 
113.5718534,22.9040103,0 
113.5718518,22.9040107,0 
113.5718503,22.9040110,0 
113.5718487,22.9040113,0 
113.5718472,22.9040116,0 
113.5718457,22.9040118,0 
113.5718442,22.9040121,0 
113.5718427,22.9040123,0 
113.5718413,22.9040126,0 
113.5718399,22.9040128,0 
113.5718385,22.9040129,0 
113.5718371,22.9040131,0 
113.5718357,22.9040133,0 
113.5718344,22.9040134,0 
113.5718330,22.9040136,0 
113.5718318,22.9040137,0 
113.5718305,22.9040138,0 
113.5718293,22.9040139,0 
113.5718280,22.9040139,0 
113.5718269,22.9040140,0 
113.5718257,22.9040140,0 
113.5718246,22.9040140,0 
113.5718235,22.9040140,0 
113.5718224,22.9040140,0 
113.5718213,22.9040140,0 
113.5718203,22.9040139,0 
113.5718193,22.9040139,0 
113.5718184,22.9040138,0 
113.5718175,22.9040137,0 
113.5718166,22.9040136,0 
113.5718157,22.9040135,0 
113.5718149,22.9040133,0 
113.5718141,22.9040132,0 
113.5718133,22.9040130,0 
113.5718126,22.9040128,0 
113.5718119,22.9040126,0 
113.5718113,22.9040124,0 
113.5718106,22.9040121,0 
113.5718100,22.9040119,0 
113.5718095,22.9040116,0 
113.5718090,22.9040113,0 
113.5718085,22.9040110,0 
113.5718080,22.9040107,0 
113.5718076,22.9040104,0 
113.5718072,22.9040101,0 
113.5718069,22.9040097,0 
113.5718066,22.9040093,0 
113.5718063,22.9040090,0 
113.5718061,22.9040086,0 
113.5718059,22.9040082,0 
</coordinates>
</LineString>
</Placemark>
</Folder>