<Folder>
<name>SV 36 232.533862 13.317057</name>
<visibility>1</visibility>
<Placemark>
<name>circle</name>
<visibility>1</visibility>
<Style>
<geomColor></geomColor>
<geomScale>2</geomScale></Style>
<LineString>
<coordinates>
113.5718083,22.9036941,0 
113.5718086,22.9036937,0 
113.5718090,22.9036933,0 
113.5718094,22.9036930,0 
113.5718099,22.9036927,0 
113.5718104,22.9036925,0 
113.5718109,22.9036922,0 
113.5718114,22.9036920,0 
113.5718120,22.9036918,0 
113.5718127,22.9036917,0 
113.5718134,22.9036916,0 
113.5718141,22.9036915,0 
113.5718148,22.9036914,0 
113.5718156,22.9036914,0 
113.5718164,22.9036914,0 
113.5718172,22.9036914,0 
113.5718181,22.9036914,0 
113.5718190,22.9036915,0 
113.5718200,22.9036916,0 
113.5718210,22.9036917,0 
113.5718220,22.9036919,0 
113.5718230,22.9036921,0 
113.5718241,22.9036923,0 
113.5718252,22.9036925,0 
113.5718263,22.9036928,0 
113.5718275,22.9036931,0 
113.5718287,22.9036934,0 
113.5718299,22.9036937,0 
113.5718312,22.9036941,0 
113.5718325,22.9036945,0 
113.5718338,22.9036949,0 
113.5718351,22.9036954,0 
113.5718365,22.9036959,0 
113.5718379,22.9036964,0 
113.5718393,22.9036969,0 
113.5718407,22.9036975,0 
113.5718422,22.9036980,0 
113.5718437,22.9036987,0 
113.5718452,22.9036993,0 
113.5718467,22.9036999,0 
113.5718483,22.9037006,0 
113.5718498,22.9037013,0 
113.5718514,22.9037021,0 
113.5718530,22.9037028,0 
113.5718547,22.9037036,0 
113.5718563,22.9037044,0 
113.5718580,22.9037052,0 
113.5718597,22.9037061,0 
113.5718614,22.9037069,0 
113.5718631,22.9037078,0 
113.5718648,22.9037087,0 
113.5718665,22.9037096,0 
113.5718683,22.9037106,0 
113.5718700,22.9037115,0 
113.5718718,22.9037125,0 
113.5718736,22.9037135,0 
113.5718754,22.9037146,0 
113.5718772,22.9037156,0 
113.5718790,22.9037166,0 
113.5718808,22.9037177,0 
113.5718826,22.9037188,0 
113.5718845,22.9037199,0 
113.5718863,22.9037210,0 
113.5718881,22.9037222,0 
113.5718900,22.9037233,0 
113.5718918,22.9037245,0 
113.5718936,22.9037257,0 
113.5718955,22.9037269,0 
113.5718973,22.9037281,0 
113.5718992,22.9037293,0 
113.5719010,22.9037305,0 
113.5719028,22.9037317,0 
113.5719047,22.9037330,0 
113.5719065,22.9037343,0 
113.5719083,22.9037355,0 
113.5719101,22.9037368,0 
113.5719119,22.9037381,0 
113.5719137,22.9037394,0 
113.5719155,22.9037407,0 
113.5719173,22.9037420,0 
113.5719191,22.9037433,0 
113.5719208,22.9037446,0 
113.5719226,22.9037459,0 
113.5719243,22.9037472,0 
113.5719261,22.9037486,0 
113.5719278,22.9037499,0 
113.5719295,22.9037512,0 
113.5719312,22.9037526,0 
113.5719328,22.9037539,0 
113.5719345,22.9037552,0 
113.5719361,22.9037566,0 
113.5719377,22.9037579,0 
113.5719393,22.9037593,0 
113.5719409,22.9037606,0 
113.5719425,22.9037619,0 
113.5719440,22.9037632,0 
113.5719455,22.9037646,0 
113.5719470,22.9037659,0 
113.5719485,22.9037672,0 
113.5719499,22.9037685,0 
113.5719514,22.9037698,0 
113.5719527,22.9037711,0 
113.5719541,22.9037724,0 
113.5719555,22.9037737,0 
113.5719568,22.9037750,0 
113.5719581,22.9037762,0 
113.5719593,22.9037775,0 
113.5719606,22.9037787,0 
113.5719618,22.9037800,0 
113.5719630,22.9037812,0 
113.5719641,22.9037824,0 
113.5719652,22.9037836,0 
113.5719663,22.9037848,0 
113.5719674,22.9037860,0 
113.5719684,22.9037871,0 
113.5719694,22.9037883,0 
113.5719703,22.9037894,0 
113.5719713,22.9037905,0 
113.5719722,22.9037916,0 
113.5719730,22.9037927,0 
113.5719738,22.9037938,0 
113.5719746,22.9037949,0 
113.5719754,22.9037959,0 
113.5719761,22.9037969,0 
113.5719768,22.9037979,0 
113.5719774,22.9037989,0 
113.5719781,22.9037999,0 
113.5719786,22.9038008,0 
113.5719792,22.9038017,0 
113.5719797,22.9038026,0 
113.5719801,22.9038035,0 
113.5719806,22.9038044,0 
113.5719809,22.9038052,0 
113.5719813,22.9038060,0 
113.5719816,22.9038068,0 
113.5719819,22.9038076,0 
113.5719821,22.9038084,0 
113.5719823,22.9038091,0 
113.5719825,22.9038098,0 
113.5719826,22.9038105,0 
113.5719827,22.9038111,0 
113.5719827,22.9038117,0 
113.5719827,22.9038124,0 
113.5719827,22.9038129,0 
113.5719826,22.9038135,0 
113.5719825,22.9038140,0 
113.5719824,22.9038145,0 
113.5719822,22.9038150,0 
113.5719820,22.9038154,0 
113.5719817,22.9038159,0 
113.5719814,22.9038163,0 
113.5719811,22.9038166,0 
113.5719807,22.9038170,0 
113.5719803,22.9038173,0 
113.5719798,22.9038176,0 
113.5719793,22.9038179,0 
113.5719788,22.9038181,0 
113.5719782,22.9038183,0 
113.5719776,22.9038185,0 
113.5719770,22.9038186,0 
113.5719763,22.9038188,0 
113.5719756,22.9038189,0 
113.5719749,22.9038189,0 
113.5719741,22.9038190,0 
113.5719733,22.9038190,0 
113.5719724,22.9038190,0 
113.5719716,22.9038189,0 
113.5719706,22.9038188,0 
113.5719697,22.9038187,0 
113.5719687,22.9038186,0 
113.5719677,22.9038185,0 
113.5719667,22.9038183,0 
113.5719656,22.9038181,0 
113.5719645,22.9038178,0 
113.5719633,22.9038176,0 
113.5719622,22.9038173,0 
113.5719610,22.9038169,0 
113.5719597,22.9038166,0 
113.5719585,22.9038162,0 
113.5719572,22.9038158,0 
113.5719559,22.9038154,0 
113.5719545,22.9038149,0 
113.5719532,22.9038145,0 
113.5719518,22.9038140,0 
113.5719504,22.9038134,0 
113.5719489,22.9038129,0 
113.5719475,22.9038123,0 
113.5719460,22.9038117,0 
113.5719445,22.9038110,0 
113.5719430,22.9038104,0 
113.5719414,22.9038097,0 
113.5719398,22.9038090,0 
113.5719382,22.9038083,0 
113.5719366,22.9038075,0 
113.5719350,22.9038067,0 
113.5719334,22.9038059,0 
113.5719317,22.9038051,0 
113.5719300,22.9038043,0 
113.5719283,22.9038034,0 
113.5719266,22.9038025,0 
113.5719249,22.9038016,0 
113.5719231,22.9038007,0 
113.5719214,22.9037998,0 
113.5719196,22.9037988,0 
113.5719179,22.9037978,0 
113.5719161,22.9037968,0 
113.5719143,22.9037958,0 
113.5719125,22.9037947,0 
113.5719107,22.9037937,0 
113.5719089,22.9037926,0 
113.5719071,22.9037915,0 
113.5719052,22.9037904,0 
113.5719034,22.9037893,0 
113.5719016,22.9037881,0 
113.5718997,22.9037870,0 
113.5718979,22.9037858,0 
113.5718961,22.9037847,0 
113.5718942,22.9037835,0 
113.5718924,22.9037823,0 
113.5718905,22.9037810,0 
113.5718887,22.9037798,0 
113.5718869,22.9037786,0 
113.5718850,22.9037773,0 
113.5718832,22.9037761,0 
113.5718814,22.9037748,0 
113.5718796,22.9037735,0 
113.5718778,22.9037722,0 
113.5718759,22.9037710,0 
113.5718742,22.9037697,0 
113.5718724,22.9037684,0 
113.5718706,22.9037670,0 
113.5718688,22.9037657,0 
113.5718671,22.9037644,0 
113.5718653,22.9037631,0 
113.5718636,22.9037618,0 
113.5718619,22.9037604,0 
113.5718602,22.9037591,0 
113.5718585,22.9037578,0 
113.5718568,22.9037564,0 
113.5718552,22.9037551,0 
113.5718536,22.9037537,0 
113.5718519,22.9037524,0 
113.5718503,22.9037511,0 
113.5718488,22.9037497,0 
113.5718472,22.9037484,0 
113.5718457,22.9037471,0 
113.5718442,22.9037458,0 
113.5718427,22.9037444,0 
113.5718412,22.9037431,0 
113.5718398,22.9037418,0 
113.5718383,22.9037405,0 
113.5718369,22.9037392,0 
113.5718356,22.9037379,0 
113.5718342,22.9037366,0 
113.5718329,22.9037354,0 
113.5718316,22.9037341,0 
113.5718303,22.9037328,0 
113.5718291,22.9037316,0 
113.5718279,22.9037304,0 
113.5718267,22.9037291,0 
113.5718256,22.9037279,0 
113.5718244,22.9037267,0 
113.5718234,22.9037255,0 
113.5718223,22.9037244,0 
113.5718213,22.9037232,0 
113.5718203,22.9037220,0 
113.5718193,22.9037209,0 
113.5718184,22.9037198,0 
113.5718175,22.9037187,0 
113.5718167,22.9037176,0 
113.5718158,22.9037165,0 
113.5718150,22.9037155,0 
113.5718143,22.9037144,0 
113.5718136,22.9037134,0 
113.5718129,22.9037124,0 
113.5718122,22.9037114,0 
113.5718116,22.9037105,0 
113.5718111,22.9037095,0 
113.5718105,22.9037086,0 
113.5718100,22.9037077,0 
113.5718096,22.9037068,0 
113.5718091,22.9037059,0 
113.5718087,22.9037051,0 
113.5718084,22.9037043,0 
113.5718081,22.9037035,0 
113.5718078,22.9037027,0 
113.5718076,22.9037020,0 
113.5718074,22.9037012,0 
113.5718072,22.9037005,0 
113.5718071,22.9036999,0 
113.5718070,22.9036992,0 
113.5718070,22.9036986,0 
113.5718069,22.9036980,0 
113.5718070,22.9036974,0 
113.5718070,22.9036968,0 
113.5718072,22.9036963,0 
113.5718073,22.9036958,0 
113.5718075,22.9036953,0 
113.5718077,22.9036949,0 
113.5718080,22.9036945,0 
113.5718083,22.9036941,0 
</coordinates>
</LineString>
</Placemark>
</Folder>