<Folder>
<name>SV 36 234.564728 14.906542</name>
<visibility>1</visibility>
<Placemark>
<name>circle</name>
<visibility>1</visibility>
<Style>
<geomColor></geomColor>
<geomScale>2</geomScale></Style>
<LineString>
<coordinates>
113.5718394,22.9037292,0 
113.5718397,22.9037288,0 
113.5718400,22.9037284,0 
113.5718404,22.9037281,0 
113.5718408,22.9037278,0 
113.5718412,22.9037276,0 
113.5718417,22.9037273,0 
113.5718422,22.9037271,0 
113.5718427,22.9037269,0 
113.5718433,22.9037267,0 
113.5718439,22.9037265,0 
113.5718445,22.9037264,0 
113.5718451,22.9037263,0 
113.5718458,22.9037262,0 
113.5718465,22.9037261,0 
113.5718473,22.9037261,0 
113.5718481,22.9037260,0 
113.5718489,22.9037260,0 
113.5718497,22.9037261,0 
113.5718506,22.9037261,0 
113.5718514,22.9037262,0 
113.5718524,22.9037263,0 
113.5718533,22.9037264,0 
113.5718543,22.9037265,0 
113.5718553,22.9037267,0 
113.5718563,22.9037268,0 
113.5718573,22.9037271,0 
113.5718584,22.9037273,0 
113.5718595,22.9037275,0 
113.5718606,22.9037278,0 
113.5718618,22.9037281,0 
113.5718629,22.9037284,0 
113.5718641,22.9037287,0 
113.5718654,22.9037291,0 
113.5718666,22.9037295,0 
113.5718678,22.9037299,0 
113.5718691,22.9037303,0 
113.5718704,22.9037308,0 
113.5718717,22.9037312,0 
113.5718731,22.9037317,0 
113.5718744,22.9037322,0 
113.5718758,22.9037327,0 
113.5718772,22.9037333,0 
113.5718786,22.9037339,0 
113.5718800,22.9037344,0 
113.5718814,22.9037350,0 
113.5718829,22.9037357,0 
113.5718843,22.9037363,0 
113.5718858,22.9037370,0 
113.5718873,22.9037377,0 
113.5718888,22.9037384,0 
113.5718903,22.9037391,0 
113.5718918,22.9037398,0 
113.5718934,22.9037406,0 
113.5718949,22.9037413,0 
113.5718965,22.9037421,0 
113.5718980,22.9037429,0 
113.5718996,22.9037437,0 
113.5719012,22.9037445,0 
113.5719027,22.9037454,0 
113.5719043,22.9037462,0 
113.5719059,22.9037471,0 
113.5719075,22.9037480,0 
113.5719091,22.9037489,0 
113.5719107,22.9037498,0 
113.5719123,22.9037507,0 
113.5719139,22.9037517,0 
113.5719155,22.9037526,0 
113.5719171,22.9037536,0 
113.5719187,22.9037546,0 
113.5719203,22.9037555,0 
113.5719219,22.9037565,0 
113.5719235,22.9037575,0 
113.5719251,22.9037585,0 
113.5719266,22.9037596,0 
113.5719282,22.9037606,0 
113.5719298,22.9037616,0 
113.5719313,22.9037627,0 
113.5719329,22.9037637,0 
113.5719344,22.9037648,0 
113.5719360,22.9037658,0 
113.5719375,22.9037669,0 
113.5719390,22.9037680,0 
113.5719405,22.9037690,0 
113.5719420,22.9037701,0 
113.5719435,22.9037712,0 
113.5719450,22.9037723,0 
113.5719465,22.9037734,0 
113.5719479,22.9037745,0 
113.5719493,22.9037756,0 
113.5719507,22.9037767,0 
113.5719521,22.9037778,0 
113.5719535,22.9037789,0 
113.5719549,22.9037800,0 
113.5719562,22.9037811,0 
113.5719576,22.9037821,0 
113.5719589,22.9037832,0 
113.5719602,22.9037843,0 
113.5719614,22.9037854,0 
113.5719627,22.9037865,0 
113.5719639,22.9037876,0 
113.5719651,22.9037887,0 
113.5719663,22.9037897,0 
113.5719675,22.9037908,0 
113.5719686,22.9037919,0 
113.5719697,22.9037929,0 
113.5719708,22.9037940,0 
113.5719719,22.9037950,0 
113.5719729,22.9037960,0 
113.5719739,22.9037971,0 
113.5719749,22.9037981,0 
113.5719759,22.9037991,0 
113.5719768,22.9038001,0 
113.5719777,22.9038011,0 
113.5719786,22.9038021,0 
113.5719795,22.9038031,0 
113.5719803,22.9038040,0 
113.5719811,22.9038050,0 
113.5719819,22.9038059,0 
113.5719826,22.9038068,0 
113.5719833,22.9038077,0 
113.5719840,22.9038086,0 
113.5719846,22.9038095,0 
113.5719852,22.9038104,0 
113.5719858,22.9038113,0 
113.5719864,22.9038121,0 
113.5719869,22.9038129,0 
113.5719874,22.9038138,0 
113.5719878,22.9038146,0 
113.5719883,22.9038153,0 
113.5719887,22.9038161,0 
113.5719890,22.9038169,0 
113.5719894,22.9038176,0 
113.5719896,22.9038183,0 
113.5719899,22.9038190,0 
113.5719901,22.9038197,0 
113.5719903,22.9038204,0 
113.5719905,22.9038210,0 
113.5719906,22.9038216,0 
113.5719907,22.9038222,0 
113.5719908,22.9038228,0 
113.5719908,22.9038234,0 
113.5719908,22.9038240,0 
113.5719908,22.9038245,0 
113.5719907,22.9038250,0 
113.5719906,22.9038255,0 
113.5719905,22.9038259,0 
113.5719903,22.9038264,0 
113.5719901,22.9038268,0 
113.5719898,22.9038272,0 
113.5719896,22.9038276,0 
113.5719893,22.9038280,0 
113.5719889,22.9038283,0 
113.5719886,22.9038286,0 
113.5719882,22.9038289,0 
113.5719877,22.9038292,0 
113.5719872,22.9038295,0 
113.5719868,22.9038297,0 
113.5719862,22.9038299,0 
113.5719857,22.9038301,0 
113.5719851,22.9038302,0 
113.5719844,22.9038304,0 
113.5719838,22.9038305,0 
113.5719831,22.9038306,0 
113.5719824,22.9038307,0 
113.5719816,22.9038307,0 
113.5719809,22.9038307,0 
113.5719801,22.9038307,0 
113.5719792,22.9038307,0 
113.5719784,22.9038307,0 
113.5719775,22.9038306,0 
113.5719766,22.9038305,0 
113.5719756,22.9038304,0 
113.5719746,22.9038303,0 
113.5719737,22.9038301,0 
113.5719726,22.9038299,0 
113.5719716,22.9038297,0 
113.5719705,22.9038295,0 
113.5719694,22.9038292,0 
113.5719683,22.9038290,0 
113.5719671,22.9038287,0 
113.5719660,22.9038284,0 
113.5719648,22.9038280,0 
113.5719636,22.9038277,0 
113.5719623,22.9038273,0 
113.5719611,22.9038269,0 
113.5719598,22.9038265,0 
113.5719585,22.9038260,0 
113.5719572,22.9038255,0 
113.5719559,22.9038251,0 
113.5719545,22.9038245,0 
113.5719531,22.9038240,0 
113.5719517,22.9038235,0 
113.5719503,22.9038229,0 
113.5719489,22.9038223,0 
113.5719475,22.9038217,0 
113.5719460,22.9038211,0 
113.5719446,22.9038204,0 
113.5719431,22.9038198,0 
113.5719416,22.9038191,0 
113.5719401,22.9038184,0 
113.5719386,22.9038177,0 
113.5719371,22.9038170,0 
113.5719355,22.9038162,0 
113.5719340,22.9038154,0 
113.5719324,22.9038147,0 
113.5719309,22.9038139,0 
113.5719293,22.9038131,0 
113.5719278,22.9038122,0 
113.5719262,22.9038114,0 
113.5719246,22.9038105,0 
113.5719230,22.9038096,0 
113.5719214,22.9038088,0 
113.5719198,22.9038079,0 
113.5719182,22.9038069,0 
113.5719166,22.9038060,0 
113.5719150,22.9038051,0 
113.5719134,22.9038041,0 
113.5719118,22.9038032,0 
113.5719102,22.9038022,0 
113.5719086,22.9038012,0 
113.5719070,22.9038002,0 
113.5719055,22.9037992,0 
113.5719039,22.9037982,0 
113.5719023,22.9037972,0 
113.5719007,22.9037962,0 
113.5718991,22.9037951,0 
113.5718976,22.9037941,0 
113.5718960,22.9037931,0 
113.5718945,22.9037920,0 
113.5718929,22.9037909,0 
113.5718914,22.9037899,0 
113.5718899,22.9037888,0 
113.5718884,22.9037877,0 
113.5718869,22.9037866,0 
113.5718854,22.9037856,0 
113.5718839,22.9037845,0 
113.5718825,22.9037834,0 
113.5718810,22.9037823,0 
113.5718796,22.9037812,0 
113.5718782,22.9037801,0 
113.5718768,22.9037790,0 
113.5718754,22.9037779,0 
113.5718740,22.9037768,0 
113.5718727,22.9037757,0 
113.5718714,22.9037746,0 
113.5718700,22.9037735,0 
113.5718688,22.9037724,0 
113.5718675,22.9037713,0 
113.5718662,22.9037703,0 
113.5718650,22.9037692,0 
113.5718638,22.9037681,0 
113.5718626,22.9037670,0 
113.5718614,22.9037660,0 
113.5718603,22.9037649,0 
113.5718592,22.9037638,0 
113.5718581,22.9037628,0 
113.5718570,22.9037617,0 
113.5718560,22.9037607,0 
113.5718550,22.9037597,0 
113.5718540,22.9037587,0 
113.5718530,22.9037577,0 
113.5718521,22.9037567,0 
113.5718512,22.9037557,0 
113.5718503,22.9037547,0 
113.5718494,22.9037537,0 
113.5718486,22.9037527,0 
113.5718478,22.9037518,0 
113.5718471,22.9037509,0 
113.5718463,22.9037499,0 
113.5718456,22.9037490,0 
113.5718449,22.9037481,0 
113.5718443,22.9037472,0 
113.5718437,22.9037464,0 
113.5718431,22.9037455,0 
113.5718425,22.9037446,0 
113.5718420,22.9037438,0 
113.5718415,22.9037430,0 
113.5718411,22.9037422,0 
113.5718406,22.9037414,0 
113.5718403,22.9037406,0 
113.5718399,22.9037399,0 
113.5718396,22.9037392,0 
113.5718393,22.9037384,0 
113.5718390,22.9037377,0 
113.5718388,22.9037371,0 
113.5718386,22.9037364,0 
113.5718384,22.9037357,0 
113.5718383,22.9037351,0 
113.5718382,22.9037345,0 
113.5718381,22.9037339,0 
113.5718381,22.9037334,0 
113.5718381,22.9037328,0 
113.5718382,22.9037323,0 
113.5718382,22.9037318,0 
113.5718383,22.9037313,0 
113.5718385,22.9037308,0 
113.5718386,22.9037304,0 
113.5718388,22.9037299,0 
113.5718391,22.9037295,0 
113.5718394,22.9037292,0 
</coordinates>
</LineString>
</Placemark>
</Folder>