<Folder>
<name>SV  4 192.849981 11.226404</name>
<visibility>1</visibility>
<Placemark>
<name>circle</name>
<visibility>1</visibility>
<Style>
<geomColor></geomColor>
<geomScale>2</geomScale></Style>
<LineString>
<coordinates>
113.5719963,22.9034811,0 
113.5719968,22.9034810,0 
113.5719974,22.9034809,0 
113.5719980,22.9034810,0 
113.5719986,22.9034810,0 
113.5719992,22.9034812,0 
113.5719998,22.9034814,0 
113.5720004,22.9034816,0 
113.5720011,22.9034819,0 
113.5720017,22.9034822,0 
113.5720024,22.9034826,0 
113.5720031,22.9034831,0 
113.5720038,22.9034836,0 
113.5720045,22.9034842,0 
113.5720052,22.9034848,0 
113.5720059,22.9034855,0 
113.5720066,22.9034862,0 
113.5720074,22.9034870,0 
113.5720081,22.9034878,0 
113.5720089,22.9034887,0 
113.5720096,22.9034896,0 
113.5720104,22.9034906,0 
113.5720112,22.9034916,0 
113.5720120,22.9034927,0 
113.5720128,22.9034938,0 
113.5720136,22.9034950,0 
113.5720144,22.9034962,0 
113.5720152,22.9034975,0 
113.5720160,22.9034988,0 
113.5720168,22.9035002,0 
113.5720176,22.9035016,0 
113.5720185,22.9035031,0 
113.5720193,22.9035046,0 
113.5720201,22.9035061,0 
113.5720210,22.9035077,0 
113.5720218,22.9035094,0 
113.5720226,22.9035111,0 
113.5720235,22.9035128,0 
113.5720243,22.9035145,0 
113.5720252,22.9035163,0 
113.5720260,22.9035182,0 
113.5720269,22.9035201,0 
113.5720277,22.9035220,0 
113.5720286,22.9035239,0 
113.5720294,22.9035259,0 
113.5720303,22.9035280,0 
113.5720311,22.9035300,0 
113.5720320,22.9035321,0 
113.5720328,22.9035342,0 
113.5720337,22.9035364,0 
113.5720345,22.9035386,0 
113.5720353,22.9035408,0 
113.5720362,22.9035430,0 
113.5720370,22.9035453,0 
113.5720378,22.9035476,0 
113.5720386,22.9035499,0 
113.5720394,22.9035523,0 
113.5720402,22.9035547,0 
113.5720410,22.9035570,0 
113.5720418,22.9035595,0 
113.5720426,22.9035619,0 
113.5720434,22.9035644,0 
113.5720442,22.9035668,0 
113.5720449,22.9035693,0 
113.5720457,22.9035718,0 
113.5720465,22.9035743,0 
113.5720472,22.9035769,0 
113.5720479,22.9035794,0 
113.5720487,22.9035820,0 
113.5720494,22.9035846,0 
113.5720501,22.9035871,0 
113.5720508,22.9035897,0 
113.5720515,22.9035923,0 
113.5720521,22.9035949,0 
113.5720528,22.9035975,0 
113.5720534,22.9036001,0 
113.5720541,22.9036027,0 
113.5720547,22.9036053,0 
113.5720553,22.9036080,0 
113.5720559,22.9036106,0 
113.5720565,22.9036132,0 
113.5720571,22.9036158,0 
113.5720577,22.9036184,0 
113.5720582,22.9036210,0 
113.5720588,22.9036236,0 
113.5720593,22.9036262,0 
113.5720598,22.9036287,0 
113.5720603,22.9036313,0 
113.5720608,22.9036338,0 
113.5720612,22.9036364,0 
113.5720617,22.9036389,0 
113.5720621,22.9036414,0 
113.5720625,22.9036439,0 
113.5720630,22.9036464,0 
113.5720633,22.9036488,0 
113.5720637,22.9036513,0 
113.5720641,22.9036537,0 
113.5720644,22.9036561,0 
113.5720647,22.9036585,0 
113.5720650,22.9036608,0 
113.5720653,22.9036632,0 
113.5720656,22.9036655,0 
113.5720659,22.9036677,0 
113.5720661,22.9036700,0 
113.5720663,22.9036722,0 
113.5720665,22.9036744,0 
113.5720667,22.9036766,0 
113.5720669,22.9036787,0 
113.5720671,22.9036808,0 
113.5720672,22.9036829,0 
113.5720673,22.9036849,0 
113.5720674,22.9036869,0 
113.5720675,22.9036889,0 
113.5720676,22.9036908,0 
113.5720676,22.9036927,0 
113.5720677,22.9036945,0 
113.5720677,22.9036964,0 
113.5720677,22.9036981,0 
113.5720676,22.9036999,0 
113.5720676,22.9037016,0 
113.5720675,22.9037032,0 
113.5720675,22.9037048,0 
113.5720674,22.9037064,0 
113.5720673,22.9037079,0 
113.5720671,22.9037094,0 
113.5720670,22.9037108,0 
113.5720668,22.9037122,0 
113.5720667,22.9037135,0 
113.5720665,22.9037148,0 
113.5720662,22.9037160,0 
113.5720660,22.9037172,0 
113.5720658,22.9037184,0 
113.5720655,22.9037195,0 
113.5720652,22.9037205,0 
113.5720649,22.9037215,0 
113.5720646,22.9037224,0 
113.5720643,22.9037233,0 
113.5720639,22.9037242,0 
113.5720635,22.9037250,0 
113.5720632,22.9037257,0 
113.5720628,22.9037264,0 
113.5720624,22.9037270,0 
113.5720619,22.9037276,0 
113.5720615,22.9037281,0 
113.5720610,22.9037286,0 
113.5720605,22.9037290,0 
113.5720601,22.9037293,0 
113.5720596,22.9037297,0 
113.5720590,22.9037299,0 
113.5720585,22.9037301,0 
113.5720580,22.9037302,0 
113.5720574,22.9037303,0 
113.5720568,22.9037304,0 
113.5720562,22.9037304,0 
113.5720557,22.9037303,0 
113.5720550,22.9037301,0 
113.5720544,22.9037300,0 
113.5720538,22.9037297,0 
113.5720531,22.9037294,0 
113.5720525,22.9037291,0 
113.5720518,22.9037287,0 
113.5720511,22.9037282,0 
113.5720504,22.9037277,0 
113.5720497,22.9037271,0 
113.5720490,22.9037265,0 
113.5720483,22.9037259,0 
113.5720476,22.9037251,0 
113.5720469,22.9037244,0 
113.5720461,22.9037235,0 
113.5720453,22.9037227,0 
113.5720446,22.9037217,0 
113.5720438,22.9037207,0 
113.5720430,22.9037197,0 
113.5720423,22.9037186,0 
113.5720415,22.9037175,0 
113.5720407,22.9037163,0 
113.5720399,22.9037151,0 
113.5720391,22.9037138,0 
113.5720382,22.9037125,0 
113.5720374,22.9037111,0 
113.5720366,22.9037097,0 
113.5720358,22.9037082,0 
113.5720349,22.9037067,0 
113.5720341,22.9037052,0 
113.5720333,22.9037036,0 
113.5720324,22.9037020,0 
113.5720316,22.9037003,0 
113.5720307,22.9036985,0 
113.5720299,22.9036968,0 
113.5720290,22.9036950,0 
113.5720282,22.9036931,0 
113.5720273,22.9036913,0 
113.5720265,22.9036893,0 
113.5720256,22.9036874,0 
113.5720248,22.9036854,0 
113.5720239,22.9036834,0 
113.5720231,22.9036813,0 
113.5720223,22.9036792,0 
113.5720214,22.9036771,0 
113.5720206,22.9036749,0 
113.5720197,22.9036727,0 
113.5720189,22.9036705,0 
113.5720181,22.9036683,0 
113.5720172,22.9036660,0 
113.5720164,22.9036637,0 
113.5720156,22.9036614,0 
113.5720148,22.9036590,0 
113.5720140,22.9036567,0 
113.5720132,22.9036543,0 
113.5720124,22.9036519,0 
113.5720116,22.9036494,0 
113.5720108,22.9036470,0 
113.5720100,22.9036445,0 
113.5720093,22.9036420,0 
113.5720085,22.9036395,0 
113.5720078,22.9036370,0 
113.5720070,22.9036344,0 
113.5720063,22.9036319,0 
113.5720056,22.9036293,0 
113.5720049,22.9036268,0 
113.5720041,22.9036242,0 
113.5720035,22.9036216,0 
113.5720028,22.9036190,0 
113.5720021,22.9036164,0 
113.5720014,22.9036138,0 
113.5720008,22.9036112,0 
113.5720001,22.9036086,0 
113.5719995,22.9036060,0 
113.5719989,22.9036034,0 
113.5719983,22.9036007,0 
113.5719977,22.9035981,0 
113.5719971,22.9035955,0 
113.5719966,22.9035929,0 
113.5719960,22.9035903,0 
113.5719955,22.9035877,0 
113.5719949,22.9035852,0 
113.5719944,22.9035826,0 
113.5719939,22.9035800,0 
113.5719935,22.9035775,0 
113.5719930,22.9035749,0 
113.5719925,22.9035724,0 
113.5719921,22.9035699,0 
113.5719917,22.9035674,0 
113.5719913,22.9035649,0 
113.5719909,22.9035625,0 
113.5719905,22.9035600,0 
113.5719901,22.9035576,0 
113.5719898,22.9035552,0 
113.5719895,22.9035528,0 
113.5719892,22.9035505,0 
113.5719889,22.9035482,0 
113.5719886,22.9035459,0 
113.5719883,22.9035436,0 
113.5719881,22.9035413,0 
113.5719879,22.9035391,0 
113.5719877,22.9035369,0 
113.5719875,22.9035347,0 
113.5719873,22.9035326,0 
113.5719872,22.9035305,0 
113.5719870,22.9035284,0 
113.5719869,22.9035264,0 
113.5719868,22.9035244,0 
113.5719867,22.9035224,0 
113.5719866,22.9035205,0 
113.5719866,22.9035186,0 
113.5719866,22.9035168,0 
113.5719866,22.9035150,0 
113.5719866,22.9035132,0 
113.5719866,22.9035115,0 
113.5719866,22.9035098,0 
113.5719867,22.9035081,0 
113.5719867,22.9035065,0 
113.5719868,22.9035049,0 
113.5719870,22.9035034,0 
113.5719871,22.9035020,0 
113.5719872,22.9035005,0 
113.5719874,22.9034991,0 
113.5719876,22.9034978,0 
113.5719878,22.9034965,0 
113.5719880,22.9034953,0 
113.5719882,22.9034941,0 
113.5719885,22.9034929,0 
113.5719887,22.9034919,0 
113.5719890,22.9034908,0 
113.5719893,22.9034898,0 
113.5719896,22.9034889,0 
113.5719900,22.9034880,0 
113.5719903,22.9034871,0 
113.5719907,22.9034864,0 
113.5719911,22.9034856,0 
113.5719915,22.9034849,0 
113.5719919,22.9034843,0 
113.5719923,22.9034837,0 
113.5719927,22.9034832,0 
113.5719932,22.9034827,0 
113.5719937,22.9034823,0 
113.5719942,22.9034820,0 
113.5719947,22.9034817,0 
113.5719952,22.9034814,0 
113.5719957,22.9034812,0 
113.5719963,22.9034811,0 
</coordinates>
</LineString>
</Placemark>
</Folder>