<Folder>
<name>SV 25 252.480055 8.712837</name>
<visibility>1</visibility>
<Placemark>
<name>circle</name>
<visibility>1</visibility>
<Style>
<geomColor>FFFF007A</geomColor>
<geomScale>2</geomScale></Style>
<LineString>
<coordinates>
113.5714850,22.9037212,0 
113.5714853,22.9037206,0 
113.5714856,22.9037201,0 
113.5714860,22.9037195,0 
113.5714865,22.9037191,0 
113.5714871,22.9037186,0 
113.5714878,22.9037182,0 
113.5714885,22.9037177,0 
113.5714894,22.9037174,0 
113.5714903,22.9037170,0 
113.5714913,22.9037167,0 
113.5714924,22.9037164,0 
113.5714936,22.9037161,0 
113.5714949,22.9037159,0 
113.5714962,22.9037156,0 
113.5714977,22.9037154,0 
113.5714992,22.9037153,0 
113.5715008,22.9037151,0 
113.5715024,22.9037150,0 
113.5715042,22.9037150,0 
113.5715060,22.9037149,0 
113.5715079,22.9037149,0 
113.5715099,22.9037149,0 
113.5715120,22.9037149,0 
113.5715141,22.9037150,0 
113.5715163,22.9037151,0 
113.5715186,22.9037152,0 
113.5715210,22.9037153,0 
113.5715234,22.9037155,0 
113.5715259,22.9037157,0 
113.5715284,22.9037159,0 
113.5715311,22.9037162,0 
113.5715338,22.9037165,0 
113.5715365,22.9037168,0 
113.5715394,22.9037171,0 
113.5715423,22.9037175,0 
113.5715452,22.9037179,0 
113.5715482,22.9037183,0 
113.5715513,22.9037187,0 
113.5715545,22.9037192,0 
113.5715576,22.9037197,0 
113.5715609,22.9037202,0 
113.5715642,22.9037208,0 
113.5715675,22.9037213,0 
113.5715709,22.9037219,0 
113.5715744,22.9037226,0 
113.5715779,22.9037232,0 
113.5715814,22.9037239,0 
113.5715850,22.9037246,0 
113.5715887,22.9037253,0 
113.5715923,22.9037260,0 
113.5715960,22.9037268,0 
113.5715998,22.9037276,0 
113.5716036,22.9037284,0 
113.5716074,22.9037292,0 
113.5716113,22.9037301,0 
113.5716152,22.9037310,0 
113.5716191,22.9037319,0 
113.5716230,22.9037328,0 
113.5716270,22.9037337,0 
113.5716310,22.9037347,0 
113.5716350,22.9037357,0 
113.5716390,22.9037367,0 
113.5716431,22.9037377,0 
113.5716472,22.9037387,0 
113.5716513,22.9037398,0 
113.5716554,22.9037408,0 
113.5716595,22.9037419,0 
113.5716636,22.9037430,0 
113.5716678,22.9037441,0 
113.5716719,22.9037453,0 
113.5716761,22.9037464,0 
113.5716802,22.9037476,0 
113.5716844,22.9037488,0 
113.5716885,22.9037499,0 
113.5716927,22.9037511,0 
113.5716968,22.9037524,0 
113.5717010,22.9037536,0 
113.5717051,22.9037548,0 
113.5717092,22.9037561,0 
113.5717134,22.9037573,0 
113.5717175,22.9037586,0 
113.5717215,22.9037599,0 
113.5717256,22.9037611,0 
113.5717297,22.9037624,0 
113.5717337,22.9037637,0 
113.5717377,22.9037650,0 
113.5717417,22.9037663,0 
113.5717456,22.9037677,0 
113.5717496,22.9037690,0 
113.5717535,22.9037703,0 
113.5717573,22.9037716,0 
113.5717612,22.9037730,0 
113.5717650,22.9037743,0 
113.5717688,22.9037756,0 
113.5717725,22.9037770,0 
113.5717762,22.9037783,0 
113.5717798,22.9037797,0 
113.5717834,22.9037810,0 
113.5717870,22.9037823,0 
113.5717905,22.9037837,0 
113.5717940,22.9037850,0 
113.5717974,22.9037863,0 
113.5718008,22.9037877,0 
113.5718041,22.9037890,0 
113.5718074,22.9037903,0 
113.5718106,22.9037916,0 
113.5718138,22.9037929,0 
113.5718169,22.9037942,0 
113.5718199,22.9037955,0 
113.5718229,22.9037968,0 
113.5718258,22.9037981,0 
113.5718287,22.9037994,0 
113.5718315,22.9038006,0 
113.5718342,22.9038019,0 
113.5718368,22.9038031,0 
113.5718394,22.9038044,0 
113.5718420,22.9038056,0 
113.5718444,22.9038068,0 
113.5718468,22.9038080,0 
113.5718491,22.9038092,0 
113.5718514,22.9038103,0 
113.5718535,22.9038115,0 
113.5718556,22.9038126,0 
113.5718577,22.9038138,0 
113.5718596,22.9038149,0 
113.5718615,22.9038160,0 
113.5718633,22.9038171,0 
113.5718650,22.9038181,0 
113.5718666,22.9038192,0 
113.5718681,22.9038202,0 
113.5718696,22.9038212,0 
113.5718710,22.9038222,0 
113.5718723,22.9038232,0 
113.5718735,22.9038241,0 
113.5718746,22.9038251,0 
113.5718757,22.9038260,0 
113.5718767,22.9038269,0 
113.5718775,22.9038277,0 
113.5718783,22.9038286,0 
113.5718791,22.9038294,0 
113.5718797,22.9038302,0 
113.5718802,22.9038310,0 
113.5718807,22.9038318,0 
113.5718810,22.9038325,0 
113.5718813,22.9038332,0 
113.5718815,22.9038339,0 
113.5718816,22.9038346,0 
113.5718816,22.9038352,0 
113.5718816,22.9038358,0 
113.5718814,22.9038364,0 
113.5718812,22.9038370,0 
113.5718808,22.9038375,0 
113.5718804,22.9038381,0 
113.5718799,22.9038385,0 
113.5718793,22.9038390,0 
113.5718787,22.9038394,0 
113.5718779,22.9038399,0 
113.5718771,22.9038402,0 
113.5718761,22.9038406,0 
113.5718751,22.9038409,0 
113.5718740,22.9038412,0 
113.5718728,22.9038415,0 
113.5718716,22.9038418,0 
113.5718702,22.9038420,0 
113.5718688,22.9038422,0 
113.5718673,22.9038423,0 
113.5718657,22.9038425,0 
113.5718640,22.9038426,0 
113.5718623,22.9038427,0 
113.5718604,22.9038427,0 
113.5718585,22.9038427,0 
113.5718565,22.9038427,0 
113.5718545,22.9038427,0 
113.5718523,22.9038426,0 
113.5718501,22.9038425,0 
113.5718478,22.9038424,0 
113.5718455,22.9038423,0 
113.5718431,22.9038421,0 
113.5718406,22.9038419,0 
113.5718380,22.9038417,0 
113.5718354,22.9038414,0 
113.5718327,22.9038411,0 
113.5718299,22.9038408,0 
113.5718271,22.9038405,0 
113.5718242,22.9038401,0 
113.5718212,22.9038397,0 
113.5718182,22.9038393,0 
113.5718151,22.9038389,0 
113.5718120,22.9038384,0 
113.5718088,22.9038379,0 
113.5718055,22.9038374,0 
113.5718023,22.9038368,0 
113.5717989,22.9038363,0 
113.5717955,22.9038357,0 
113.5717920,22.9038351,0 
113.5717885,22.9038344,0 
113.5717850,22.9038337,0 
113.5717814,22.9038330,0 
113.5717778,22.9038323,0 
113.5717741,22.9038316,0 
113.5717704,22.9038308,0 
113.5717666,22.9038300,0 
113.5717629,22.9038292,0 
113.5717590,22.9038284,0 
113.5717552,22.9038275,0 
113.5717513,22.9038266,0 
113.5717474,22.9038257,0 
113.5717434,22.9038248,0 
113.5717394,22.9038239,0 
113.5717354,22.9038229,0 
113.5717314,22.9038219,0 
113.5717274,22.9038209,0 
113.5717233,22.9038199,0 
113.5717192,22.9038189,0 
113.5717152,22.9038178,0 
113.5717110,22.9038168,0 
113.5717069,22.9038157,0 
113.5717028,22.9038146,0 
113.5716987,22.9038135,0 
113.5716945,22.9038123,0 
113.5716904,22.9038112,0 
113.5716862,22.9038100,0 
113.5716820,22.9038088,0 
113.5716779,22.9038077,0 
113.5716737,22.9038065,0 
113.5716696,22.9038052,0 
113.5716654,22.9038040,0 
113.5716613,22.9038028,0 
113.5716572,22.9038015,0 
113.5716531,22.9038003,0 
113.5716490,22.9037990,0 
113.5716449,22.9037977,0 
113.5716408,22.9037965,0 
113.5716368,22.9037952,0 
113.5716327,22.9037939,0 
113.5716287,22.9037926,0 
113.5716247,22.9037913,0 
113.5716208,22.9037899,0 
113.5716169,22.9037886,0 
113.5716130,22.9037873,0 
113.5716091,22.9037860,0 
113.5716052,22.9037846,0 
113.5716014,22.9037833,0 
113.5715977,22.9037820,0 
113.5715939,22.9037806,0 
113.5715903,22.9037793,0 
113.5715866,22.9037779,0 
113.5715830,22.9037766,0 
113.5715794,22.9037753,0 
113.5715759,22.9037739,0 
113.5715724,22.9037726,0 
113.5715690,22.9037713,0 
113.5715656,22.9037699,0 
113.5715623,22.9037686,0 
113.5715591,22.9037673,0 
113.5715558,22.9037660,0 
113.5715527,22.9037647,0 
113.5715496,22.9037634,0 
113.5715465,22.9037621,0 
113.5715436,22.9037608,0 
113.5715406,22.9037595,0 
113.5715378,22.9037582,0 
113.5715350,22.9037570,0 
113.5715323,22.9037557,0 
113.5715296,22.9037545,0 
113.5715270,22.9037532,0 
113.5715245,22.9037520,0 
113.5715220,22.9037508,0 
113.5715196,22.9037496,0 
113.5715173,22.9037484,0 
113.5715151,22.9037473,0 
113.5715129,22.9037461,0 
113.5715108,22.9037450,0 
113.5715088,22.9037438,0 
113.5715068,22.9037427,0 
113.5715050,22.9037416,0 
113.5715032,22.9037405,0 
113.5715015,22.9037395,0 
113.5714998,22.9037384,0 
113.5714983,22.9037374,0 
113.5714968,22.9037364,0 
113.5714955,22.9037354,0 
113.5714941,22.9037344,0 
113.5714929,22.9037335,0 
113.5714918,22.9037325,0 
113.5714907,22.9037316,0 
113.5714898,22.9037307,0 
113.5714889,22.9037299,0 
113.5714881,22.9037290,0 
113.5714874,22.9037282,0 
113.5714868,22.9037274,0 
113.5714862,22.9037266,0 
113.5714858,22.9037258,0 
113.5714854,22.9037251,0 
113.5714851,22.9037244,0 
113.5714849,22.9037237,0 
113.5714848,22.9037230,0 
113.5714848,22.9037224,0 
113.5714849,22.9037218,0 
113.5714850,22.9037212,0 
</coordinates>
</LineString>
</Placemark>
</Folder>