<Folder>
<name>SV 25 258.226682 10.825782</name>
<visibility>1</visibility>
<Placemark>
<name>circle</name>
<visibility>1</visibility>
<Style>
<geomColor>FFFF007A</geomColor>
<geomScale>2</geomScale></Style>
<LineString>
<coordinates>
113.5716184,22.9038075,0 
113.5716186,22.9038070,0 
113.5716188,22.9038065,0 
113.5716191,22.9038060,0 
113.5716194,22.9038055,0 
113.5716198,22.9038050,0 
113.5716203,22.9038046,0 
113.5716208,22.9038041,0 
113.5716214,22.9038037,0 
113.5716221,22.9038033,0 
113.5716228,22.9038029,0 
113.5716236,22.9038025,0 
113.5716244,22.9038021,0 
113.5716254,22.9038018,0 
113.5716263,22.9038014,0 
113.5716274,22.9038011,0 
113.5716284,22.9038008,0 
113.5716296,22.9038005,0 
113.5716308,22.9038002,0 
113.5716321,22.9037999,0 
113.5716334,22.9037997,0 
113.5716348,22.9037994,0 
113.5716362,22.9037992,0 
113.5716377,22.9037990,0 
113.5716393,22.9037988,0 
113.5716409,22.9037986,0 
113.5716426,22.9037985,0 
113.5716443,22.9037983,0 
113.5716461,22.9037982,0 
113.5716479,22.9037981,0 
113.5716498,22.9037980,0 
113.5716517,22.9037979,0 
113.5716537,22.9037979,0 
113.5716557,22.9037978,0 
113.5716578,22.9037978,0 
113.5716599,22.9037978,0 
113.5716620,22.9037978,0 
113.5716643,22.9037978,0 
113.5716665,22.9037979,0 
113.5716688,22.9037979,0 
113.5716711,22.9037980,0 
113.5716735,22.9037981,0 
113.5716759,22.9037982,0 
113.5716784,22.9037983,0 
113.5716809,22.9037985,0 
113.5716834,22.9037986,0 
113.5716860,22.9037988,0 
113.5716886,22.9037990,0 
113.5716912,22.9037992,0 
113.5716939,22.9037994,0 
113.5716966,22.9037997,0 
113.5716994,22.9037999,0 
113.5717021,22.9038002,0 
113.5717049,22.9038005,0 
113.5717077,22.9038008,0 
113.5717106,22.9038011,0 
113.5717134,22.9038014,0 
113.5717163,22.9038017,0 
113.5717192,22.9038021,0 
113.5717221,22.9038025,0 
113.5717251,22.9038029,0 
113.5717280,22.9038033,0 
113.5717310,22.9038037,0 
113.5717340,22.9038041,0 
113.5717370,22.9038046,0 
113.5717400,22.9038050,0 
113.5717431,22.9038055,0 
113.5717461,22.9038060,0 
113.5717492,22.9038065,0 
113.5717522,22.9038070,0 
113.5717553,22.9038075,0 
113.5717584,22.9038081,0 
113.5717614,22.9038086,0 
113.5717645,22.9038092,0 
113.5717676,22.9038097,0 
113.5717706,22.9038103,0 
113.5717737,22.9038109,0 
113.5717768,22.9038115,0 
113.5717798,22.9038121,0 
113.5717829,22.9038128,0 
113.5717859,22.9038134,0 
113.5717889,22.9038140,0 
113.5717920,22.9038147,0 
113.5717950,22.9038154,0 
113.5717980,22.9038160,0 
113.5718010,22.9038167,0 
113.5718039,22.9038174,0 
113.5718069,22.9038181,0 
113.5718098,22.9038188,0 
113.5718127,22.9038195,0 
113.5718156,22.9038202,0 
113.5718185,22.9038210,0 
113.5718213,22.9038217,0 
113.5718241,22.9038225,0 
113.5718269,22.9038232,0 
113.5718297,22.9038239,0 
113.5718324,22.9038247,0 
113.5718352,22.9038255,0 
113.5718378,22.9038262,0 
113.5718405,22.9038270,0 
113.5718431,22.9038278,0 
113.5718457,22.9038286,0 
113.5718482,22.9038293,0 
113.5718507,22.9038301,0 
113.5718532,22.9038309,0 
113.5718556,22.9038317,0 
113.5718580,22.9038325,0 
113.5718604,22.9038333,0 
113.5718627,22.9038341,0 
113.5718649,22.9038349,0 
113.5718672,22.9038356,0 
113.5718693,22.9038364,0 
113.5718715,22.9038372,0 
113.5718736,22.9038380,0 
113.5718756,22.9038388,0 
113.5718776,22.9038396,0 
113.5718795,22.9038404,0 
113.5718814,22.9038412,0 
113.5718832,22.9038420,0 
113.5718850,22.9038427,0 
113.5718868,22.9038435,0 
113.5718884,22.9038443,0 
113.5718901,22.9038451,0 
113.5718916,22.9038458,0 
113.5718932,22.9038466,0 
113.5718946,22.9038473,0 
113.5718960,22.9038481,0 
113.5718974,22.9038488,0 
113.5718986,22.9038496,0 
113.5718999,22.9038503,0 
113.5719010,22.9038510,0 
113.5719021,22.9038518,0 
113.5719032,22.9038525,0 
113.5719042,22.9038532,0 
113.5719051,22.9038539,0 
113.5719060,22.9038546,0 
113.5719068,22.9038553,0 
113.5719075,22.9038559,0 
113.5719082,22.9038566,0 
113.5719088,22.9038573,0 
113.5719094,22.9038579,0 
113.5719099,22.9038585,0 
113.5719103,22.9038592,0 
113.5719106,22.9038598,0 
113.5719109,22.9038604,0 
113.5719112,22.9038610,0 
113.5719113,22.9038616,0 
113.5719114,22.9038621,0 
113.5719115,22.9038627,0 
113.5719115,22.9038632,0 
113.5719114,22.9038638,0 
113.5719112,22.9038643,0 
113.5719110,22.9038648,0 
113.5719107,22.9038653,0 
113.5719104,22.9038658,0 
113.5719100,22.9038663,0 
113.5719095,22.9038667,0 
113.5719090,22.9038672,0 
113.5719084,22.9038676,0 
113.5719077,22.9038680,0 
113.5719070,22.9038684,0 
113.5719062,22.9038688,0 
113.5719053,22.9038692,0 
113.5719044,22.9038696,0 
113.5719035,22.9038699,0 
113.5719024,22.9038702,0 
113.5719013,22.9038706,0 
113.5719002,22.9038709,0 
113.5718990,22.9038711,0 
113.5718977,22.9038714,0 
113.5718964,22.9038717,0 
113.5718950,22.9038719,0 
113.5718935,22.9038721,0 
113.5718920,22.9038723,0 
113.5718905,22.9038725,0 
113.5718889,22.9038727,0 
113.5718872,22.9038728,0 
113.5718855,22.9038730,0 
113.5718837,22.9038731,0 
113.5718819,22.9038732,0 
113.5718800,22.9038733,0 
113.5718781,22.9038734,0 
113.5718761,22.9038734,0 
113.5718741,22.9038735,0 
113.5718720,22.9038735,0 
113.5718699,22.9038735,0 
113.5718677,22.9038735,0 
113.5718655,22.9038735,0 
113.5718633,22.9038734,0 
113.5718610,22.9038734,0 
113.5718586,22.9038733,0 
113.5718563,22.9038732,0 
113.5718538,22.9038731,0 
113.5718514,22.9038730,0 
113.5718489,22.9038729,0 
113.5718464,22.9038727,0 
113.5718438,22.9038725,0 
113.5718412,22.9038723,0 
113.5718385,22.9038721,0 
113.5718359,22.9038719,0 
113.5718332,22.9038717,0 
113.5718304,22.9038714,0 
113.5718277,22.9038712,0 
113.5718249,22.9038709,0 
113.5718221,22.9038706,0 
113.5718192,22.9038703,0 
113.5718164,22.9038699,0 
113.5718135,22.9038696,0 
113.5718106,22.9038692,0 
113.5718077,22.9038688,0 
113.5718047,22.9038685,0 
113.5718017,22.9038681,0 
113.5717988,22.9038676,0 
113.5717958,22.9038672,0 
113.5717928,22.9038668,0 
113.5717897,22.9038663,0 
113.5717867,22.9038658,0 
113.5717837,22.9038653,0 
113.5717806,22.9038648,0 
113.5717776,22.9038643,0 
113.5717745,22.9038638,0 
113.5717714,22.9038633,0 
113.5717684,22.9038627,0 
113.5717653,22.9038622,0 
113.5717622,22.9038616,0 
113.5717592,22.9038610,0 
113.5717561,22.9038604,0 
113.5717530,22.9038598,0 
113.5717500,22.9038592,0 
113.5717469,22.9038586,0 
113.5717439,22.9038579,0 
113.5717408,22.9038573,0 
113.5717378,22.9038566,0 
113.5717348,22.9038560,0 
113.5717318,22.9038553,0 
113.5717288,22.9038546,0 
113.5717259,22.9038539,0 
113.5717229,22.9038532,0 
113.5717200,22.9038525,0 
113.5717171,22.9038518,0 
113.5717142,22.9038511,0 
113.5717113,22.9038503,0 
113.5717085,22.9038496,0 
113.5717056,22.9038489,0 
113.5717028,22.9038481,0 
113.5717001,22.9038474,0 
113.5716973,22.9038466,0 
113.5716946,22.9038459,0 
113.5716919,22.9038451,0 
113.5716893,22.9038443,0 
113.5716867,22.9038435,0 
113.5716841,22.9038428,0 
113.5716816,22.9038420,0 
113.5716791,22.9038412,0 
113.5716766,22.9038404,0 
113.5716742,22.9038396,0 
113.5716718,22.9038388,0 
113.5716694,22.9038381,0 
113.5716671,22.9038373,0 
113.5716648,22.9038365,0 
113.5716626,22.9038357,0 
113.5716604,22.9038349,0 
113.5716583,22.9038341,0 
113.5716562,22.9038333,0 
113.5716542,22.9038325,0 
113.5716522,22.9038317,0 
113.5716503,22.9038309,0 
113.5716484,22.9038301,0 
113.5716465,22.9038294,0 
113.5716448,22.9038286,0 
113.5716430,22.9038278,0 
113.5716413,22.9038270,0 
113.5716397,22.9038263,0 
113.5716381,22.9038255,0 
113.5716366,22.9038247,0 
113.5716352,22.9038240,0 
113.5716338,22.9038232,0 
113.5716324,22.9038225,0 
113.5716311,22.9038217,0 
113.5716299,22.9038210,0 
113.5716287,22.9038203,0 
113.5716276,22.9038196,0 
113.5716266,22.9038188,0 
113.5716256,22.9038181,0 
113.5716247,22.9038174,0 
113.5716238,22.9038167,0 
113.5716230,22.9038161,0 
113.5716223,22.9038154,0 
113.5716216,22.9038147,0 
113.5716210,22.9038141,0 
113.5716204,22.9038134,0 
113.5716199,22.9038128,0 
113.5716195,22.9038122,0 
113.5716191,22.9038115,0 
113.5716189,22.9038109,0 
113.5716186,22.9038103,0 
113.5716184,22.9038098,0 
113.5716183,22.9038092,0 
113.5716183,22.9038086,0 
113.5716183,22.9038081,0 
113.5716184,22.9038075,0 
</coordinates>
</LineString>
</Placemark>
</Folder>