<Folder>
<name>SV  4 194.331077 12.788131</name>
<visibility>1</visibility>
<Placemark>
<name>circle</name>
<visibility>1</visibility>
<Style>
<geomColor></geomColor>
<geomScale>2</geomScale></Style>
<LineString>
<coordinates>
113.5720016,22.9035452,0 
113.5720021,22.9035451,0 
113.5720026,22.9035450,0 
113.5720032,22.9035450,0 
113.5720037,22.9035450,0 
113.5720043,22.9035451,0 
113.5720049,22.9035452,0 
113.5720055,22.9035454,0 
113.5720061,22.9035456,0 
113.5720067,22.9035459,0 
113.5720073,22.9035462,0 
113.5720079,22.9035465,0 
113.5720086,22.9035469,0 
113.5720092,22.9035474,0 
113.5720099,22.9035478,0 
113.5720105,22.9035484,0 
113.5720112,22.9035489,0 
113.5720119,22.9035495,0 
113.5720126,22.9035502,0 
113.5720133,22.9035509,0 
113.5720140,22.9035516,0 
113.5720147,22.9035524,0 
113.5720154,22.9035532,0 
113.5720161,22.9035541,0 
113.5720169,22.9035550,0 
113.5720176,22.9035559,0 
113.5720183,22.9035569,0 
113.5720191,22.9035579,0 
113.5720198,22.9035590,0 
113.5720206,22.9035601,0 
113.5720214,22.9035612,0 
113.5720221,22.9035624,0 
113.5720229,22.9035636,0 
113.5720237,22.9035649,0 
113.5720244,22.9035661,0 
113.5720252,22.9035675,0 
113.5720260,22.9035688,0 
113.5720268,22.9035702,0 
113.5720276,22.9035716,0 
113.5720283,22.9035731,0 
113.5720291,22.9035746,0 
113.5720299,22.9035761,0 
113.5720307,22.9035776,0 
113.5720315,22.9035792,0 
113.5720322,22.9035808,0 
113.5720330,22.9035825,0 
113.5720338,22.9035841,0 
113.5720346,22.9035858,0 
113.5720354,22.9035876,0 
113.5720361,22.9035893,0 
113.5720369,22.9035911,0 
113.5720377,22.9035929,0 
113.5720384,22.9035947,0 
113.5720392,22.9035966,0 
113.5720399,22.9035984,0 
113.5720407,22.9036003,0 
113.5720414,22.9036022,0 
113.5720422,22.9036041,0 
113.5720429,22.9036061,0 
113.5720437,22.9036081,0 
113.5720444,22.9036100,0 
113.5720451,22.9036120,0 
113.5720458,22.9036141,0 
113.5720465,22.9036161,0 
113.5720472,22.9036181,0 
113.5720479,22.9036202,0 
113.5720486,22.9036223,0 
113.5720492,22.9036243,0 
113.5720499,22.9036264,0 
113.5720506,22.9036285,0 
113.5720512,22.9036306,0 
113.5720519,22.9036327,0 
113.5720525,22.9036349,0 
113.5720531,22.9036370,0 
113.5720537,22.9036391,0 
113.5720543,22.9036412,0 
113.5720549,22.9036434,0 
113.5720555,22.9036455,0 
113.5720560,22.9036476,0 
113.5720566,22.9036498,0 
113.5720571,22.9036519,0 
113.5720576,22.9036540,0 
113.5720582,22.9036562,0 
113.5720587,22.9036583,0 
113.5720592,22.9036604,0 
113.5720596,22.9036625,0 
113.5720601,22.9036646,0 
113.5720606,22.9036667,0 
113.5720610,22.9036688,0 
113.5720614,22.9036709,0 
113.5720618,22.9036730,0 
113.5720622,22.9036750,0 
113.5720626,22.9036771,0 
113.5720630,22.9036791,0 
113.5720633,22.9036811,0 
113.5720637,22.9036832,0 
113.5720640,22.9036851,0 
113.5720643,22.9036871,0 
113.5720646,22.9036891,0 
113.5720649,22.9036910,0 
113.5720651,22.9036929,0 
113.5720654,22.9036948,0 
113.5720656,22.9036967,0 
113.5720658,22.9036986,0 
113.5720660,22.9037004,0 
113.5720662,22.9037022,0 
113.5720664,22.9037040,0 
113.5720666,22.9037057,0 
113.5720667,22.9037075,0 
113.5720668,22.9037092,0 
113.5720669,22.9037109,0 
113.5720670,22.9037125,0 
113.5720671,22.9037141,0 
113.5720671,22.9037157,0 
113.5720672,22.9037173,0 
113.5720672,22.9037188,0 
113.5720672,22.9037203,0 
113.5720672,22.9037218,0 
113.5720672,22.9037232,0 
113.5720671,22.9037246,0 
113.5720671,22.9037260,0 
113.5720670,22.9037273,0 
113.5720669,22.9037286,0 
113.5720668,22.9037299,0 
113.5720667,22.9037311,0 
113.5720665,22.9037323,0 
113.5720664,22.9037335,0 
113.5720662,22.9037346,0 
113.5720660,22.9037357,0 
113.5720658,22.9037367,0 
113.5720656,22.9037377,0 
113.5720654,22.9037386,0 
113.5720651,22.9037396,0 
113.5720648,22.9037404,0 
113.5720646,22.9037413,0 
113.5720643,22.9037421,0 
113.5720639,22.9037428,0 
113.5720636,22.9037435,0 
113.5720633,22.9037442,0 
113.5720629,22.9037448,0 
113.5720625,22.9037454,0 
113.5720622,22.9037460,0 
113.5720618,22.9037464,0 
113.5720613,22.9037469,0 
113.5720609,22.9037473,0 
113.5720605,22.9037477,0 
113.5720600,22.9037480,0 
113.5720596,22.9037483,0 
113.5720591,22.9037485,0 
113.5720586,22.9037487,0 
113.5720581,22.9037488,0 
113.5720576,22.9037489,0 
113.5720570,22.9037490,0 
113.5720565,22.9037490,0 
113.5720559,22.9037490,0 
113.5720554,22.9037489,0 
113.5720548,22.9037488,0 
113.5720542,22.9037486,0 
113.5720536,22.9037484,0 
113.5720530,22.9037481,0 
113.5720524,22.9037478,0 
113.5720517,22.9037475,0 
113.5720511,22.9037471,0 
113.5720505,22.9037466,0 
113.5720498,22.9037462,0 
113.5720491,22.9037456,0 
113.5720485,22.9037451,0 
113.5720478,22.9037445,0 
113.5720471,22.9037438,0 
113.5720464,22.9037431,0 
113.5720457,22.9037424,0 
113.5720450,22.9037416,0 
113.5720442,22.9037408,0 
113.5720435,22.9037399,0 
113.5720428,22.9037390,0 
113.5720421,22.9037381,0 
113.5720413,22.9037371,0 
113.5720406,22.9037361,0 
113.5720398,22.9037350,0 
113.5720391,22.9037339,0 
113.5720383,22.9037328,0 
113.5720375,22.9037316,0 
113.5720368,22.9037304,0 
113.5720360,22.9037291,0 
113.5720352,22.9037278,0 
113.5720344,22.9037265,0 
113.5720337,22.9037252,0 
113.5720329,22.9037238,0 
113.5720321,22.9037224,0 
113.5720313,22.9037209,0 
113.5720305,22.9037194,0 
113.5720298,22.9037179,0 
113.5720290,22.9037163,0 
113.5720282,22.9037148,0 
113.5720274,22.9037132,0 
113.5720266,22.9037115,0 
113.5720259,22.9037098,0 
113.5720251,22.9037081,0 
113.5720243,22.9037064,0 
113.5720235,22.9037047,0 
113.5720228,22.9037029,0 
113.5720220,22.9037011,0 
113.5720212,22.9036993,0 
113.5720205,22.9036974,0 
113.5720197,22.9036956,0 
113.5720190,22.9036937,0 
113.5720182,22.9036918,0 
113.5720175,22.9036898,0 
113.5720167,22.9036879,0 
113.5720160,22.9036859,0 
113.5720153,22.9036839,0 
113.5720146,22.9036819,0 
113.5720139,22.9036799,0 
113.5720132,22.9036779,0 
113.5720125,22.9036759,0 
113.5720118,22.9036738,0 
113.5720111,22.9036717,0 
113.5720104,22.9036697,0 
113.5720097,22.9036676,0 
113.5720091,22.9036655,0 
113.5720084,22.9036634,0 
113.5720078,22.9036613,0 
113.5720072,22.9036591,0 
113.5720066,22.9036570,0 
113.5720060,22.9036549,0 
113.5720054,22.9036528,0 
113.5720048,22.9036506,0 
113.5720042,22.9036485,0 
113.5720036,22.9036463,0 
113.5720031,22.9036442,0 
113.5720025,22.9036421,0 
113.5720020,22.9036399,0 
113.5720015,22.9036378,0 
113.5720010,22.9036357,0 
113.5720005,22.9036336,0 
113.5720000,22.9036315,0 
113.5719996,22.9036293,0 
113.5719991,22.9036272,0 
113.5719987,22.9036252,0 
113.5719982,22.9036231,0 
113.5719978,22.9036210,0 
113.5719974,22.9036189,0 
113.5719970,22.9036169,0 
113.5719967,22.9036149,0 
113.5719963,22.9036128,0 
113.5719960,22.9036108,0 
113.5719957,22.9036088,0 
113.5719954,22.9036069,0 
113.5719951,22.9036049,0 
113.5719948,22.9036030,0 
113.5719945,22.9036011,0 
113.5719943,22.9035992,0 
113.5719940,22.9035973,0 
113.5719938,22.9035954,0 
113.5719936,22.9035936,0 
113.5719934,22.9035918,0 
113.5719933,22.9035900,0 
113.5719931,22.9035882,0 
113.5719930,22.9035865,0 
113.5719929,22.9035848,0 
113.5719927,22.9035831,0 
113.5719927,22.9035815,0 
113.5719926,22.9035799,0 
113.5719925,22.9035783,0 
113.5719925,22.9035767,0 
113.5719925,22.9035752,0 
113.5719925,22.9035737,0 
113.5719925,22.9035722,0 
113.5719925,22.9035708,0 
113.5719925,22.9035694,0 
113.5719926,22.9035680,0 
113.5719927,22.9035667,0 
113.5719928,22.9035654,0 
113.5719929,22.9035641,0 
113.5719930,22.9035629,0 
113.5719931,22.9035617,0 
113.5719933,22.9035605,0 
113.5719935,22.9035594,0 
113.5719937,22.9035583,0 
113.5719939,22.9035573,0 
113.5719941,22.9035563,0 
113.5719943,22.9035553,0 
113.5719946,22.9035544,0 
113.5719948,22.9035535,0 
113.5719951,22.9035527,0 
113.5719954,22.9035519,0 
113.5719957,22.9035512,0 
113.5719960,22.9035505,0 
113.5719964,22.9035498,0 
113.5719967,22.9035492,0 
113.5719971,22.9035486,0 
113.5719975,22.9035480,0 
113.5719979,22.9035475,0 
113.5719983,22.9035471,0 
113.5719987,22.9035467,0 
113.5719992,22.9035463,0 
113.5719996,22.9035460,0 
113.5720001,22.9035457,0 
113.5720006,22.9035455,0 
113.5720011,22.9035453,0 
113.5720016,22.9035452,0 
</coordinates>
</LineString>
</Placemark>
</Folder>