<Folder>
<name>SV 23 286.799464 12.744355</name>
<visibility>1</visibility>
<Placemark>
<name>circle</name>
<visibility>1</visibility>
<Style>
<geomColor></geomColor>
<geomScale>2</geomScale></Style>
<LineString>
<coordinates>
113.5717055,22.9040097,0 
113.5717054,22.9040092,0 
113.5717053,22.9040087,0 
113.5717052,22.9040082,0 
113.5717052,22.9040076,0 
113.5717053,22.9040071,0 
113.5717054,22.9040065,0 
113.5717056,22.9040059,0 
113.5717058,22.9040053,0 
113.5717061,22.9040047,0 
113.5717064,22.9040041,0 
113.5717068,22.9040035,0 
113.5717072,22.9040029,0 
113.5717077,22.9040022,0 
113.5717082,22.9040015,0 
113.5717088,22.9040009,0 
113.5717094,22.9040002,0 
113.5717101,22.9039995,0 
113.5717108,22.9039988,0 
113.5717115,22.9039981,0 
113.5717124,22.9039974,0 
113.5717132,22.9039966,0 
113.5717141,22.9039959,0 
113.5717151,22.9039952,0 
113.5717161,22.9039944,0 
113.5717171,22.9039937,0 
113.5717182,22.9039929,0 
113.5717194,22.9039921,0 
113.5717205,22.9039913,0 
113.5717218,22.9039905,0 
113.5717230,22.9039898,0 
113.5717244,22.9039890,0 
113.5717257,22.9039882,0 
113.5717271,22.9039874,0 
113.5717286,22.9039865,0 
113.5717300,22.9039857,0 
113.5717316,22.9039849,0 
113.5717331,22.9039841,0 
113.5717347,22.9039833,0 
113.5717364,22.9039824,0 
113.5717380,22.9039816,0 
113.5717397,22.9039808,0 
113.5717415,22.9039799,0 
113.5717433,22.9039791,0 
113.5717451,22.9039783,0 
113.5717469,22.9039774,0 
113.5717488,22.9039766,0 
113.5717507,22.9039758,0 
113.5717527,22.9039749,0 
113.5717546,22.9039741,0 
113.5717566,22.9039733,0 
113.5717587,22.9039724,0 
113.5717607,22.9039716,0 
113.5717628,22.9039708,0 
113.5717649,22.9039700,0 
113.5717671,22.9039692,0 
113.5717692,22.9039683,0 
113.5717714,22.9039675,0 
113.5717736,22.9039667,0 
113.5717758,22.9039659,0 
113.5717781,22.9039651,0 
113.5717803,22.9039643,0 
113.5717826,22.9039636,0 
113.5717849,22.9039628,0 
113.5717872,22.9039620,0 
113.5717896,22.9039612,0 
113.5717919,22.9039605,0 
113.5717943,22.9039597,0 
113.5717966,22.9039590,0 
113.5717990,22.9039583,0 
113.5718014,22.9039575,0 
113.5718038,22.9039568,0 
113.5718062,22.9039561,0 
113.5718086,22.9039554,0 
113.5718110,22.9039547,0 
113.5718134,22.9039540,0 
113.5718159,22.9039534,0 
113.5718183,22.9039527,0 
113.5718207,22.9039521,0 
113.5718232,22.9039514,0 
113.5718256,22.9039508,0 
113.5718280,22.9039502,0 
113.5718304,22.9039496,0 
113.5718328,22.9039490,0 
113.5718353,22.9039484,0 
113.5718377,22.9039479,0 
113.5718401,22.9039473,0 
113.5718425,22.9039468,0 
113.5718448,22.9039463,0 
113.5718472,22.9039458,0 
113.5718496,22.9039453,0 
113.5718519,22.9039448,0 
113.5718543,22.9039443,0 
113.5718566,22.9039439,0 
113.5718589,22.9039434,0 
113.5718612,22.9039430,0 
113.5718634,22.9039426,0 
113.5718657,22.9039422,0 
113.5718679,22.9039418,0 
113.5718701,22.9039415,0 
113.5718723,22.9039411,0 
113.5718745,22.9039408,0 
113.5718766,22.9039405,0 
113.5718787,22.9039402,0 
113.5718808,22.9039399,0 
113.5718829,22.9039396,0 
113.5718849,22.9039394,0 
113.5718870,22.9039391,0 
113.5718889,22.9039389,0 
113.5718909,22.9039387,0 
113.5718928,22.9039386,0 
113.5718947,22.9039384,0 
113.5718966,22.9039382,0 
113.5718984,22.9039381,0 
113.5719002,22.9039380,0 
113.5719020,22.9039379,0 
113.5719037,22.9039378,0 
113.5719054,22.9039378,0 
113.5719070,22.9039377,0 
113.5719086,22.9039377,0 
113.5719102,22.9039377,0 
113.5719117,22.9039377,0 
113.5719132,22.9039377,0 
113.5719147,22.9039378,0 
113.5719161,22.9039379,0 
113.5719175,22.9039379,0 
113.5719188,22.9039380,0 
113.5719201,22.9039382,0 
113.5719213,22.9039383,0 
113.5719225,22.9039384,0 
113.5719237,22.9039386,0 
113.5719248,22.9039388,0 
113.5719259,22.9039390,0 
113.5719269,22.9039392,0 
113.5719279,22.9039394,0 
113.5719288,22.9039397,0 
113.5719297,22.9039400,0 
113.5719305,22.9039402,0 
113.5719313,22.9039405,0 
113.5719320,22.9039409,0 
113.5719327,22.9039412,0 
113.5719333,22.9039415,0 
113.5719339,22.9039419,0 
113.5719345,22.9039423,0 
113.5719349,22.9039427,0 
113.5719354,22.9039431,0 
113.5719358,22.9039435,0 
113.5719361,22.9039440,0 
113.5719364,22.9039444,0 
113.5719366,22.9039449,0 
113.5719368,22.9039454,0 
113.5719370,22.9039459,0 
113.5719370,22.9039464,0 
113.5719371,22.9039469,0 
113.5719371,22.9039475,0 
113.5719370,22.9039480,0 
113.5719369,22.9039486,0 
113.5719367,22.9039492,0 
113.5719365,22.9039498,0 
113.5719362,22.9039504,0 
113.5719359,22.9039510,0 
113.5719355,22.9039516,0 
113.5719351,22.9039522,0 
113.5719346,22.9039529,0 
113.5719341,22.9039535,0 
113.5719335,22.9039542,0 
113.5719329,22.9039549,0 
113.5719322,22.9039556,0 
113.5719315,22.9039563,0 
113.5719308,22.9039570,0 
113.5719300,22.9039577,0 
113.5719291,22.9039585,0 
113.5719282,22.9039592,0 
113.5719272,22.9039599,0 
113.5719262,22.9039607,0 
113.5719252,22.9039614,0 
113.5719241,22.9039622,0 
113.5719229,22.9039630,0 
113.5719218,22.9039638,0 
113.5719205,22.9039645,0 
113.5719193,22.9039653,0 
113.5719179,22.9039661,0 
113.5719166,22.9039669,0 
113.5719152,22.9039677,0 
113.5719137,22.9039686,0 
113.5719123,22.9039694,0 
113.5719107,22.9039702,0 
113.5719092,22.9039710,0 
113.5719076,22.9039718,0 
113.5719059,22.9039727,0 
113.5719043,22.9039735,0 
113.5719026,22.9039743,0 
113.5719008,22.9039752,0 
113.5718990,22.9039760,0 
113.5718972,22.9039768,0 
113.5718954,22.9039777,0 
113.5718935,22.9039785,0 
113.5718916,22.9039793,0 
113.5718896,22.9039802,0 
113.5718877,22.9039810,0 
113.5718857,22.9039818,0 
113.5718836,22.9039826,0 
113.5718816,22.9039835,0 
113.5718795,22.9039843,0 
113.5718774,22.9039851,0 
113.5718752,22.9039859,0 
113.5718731,22.9039868,0 
113.5718709,22.9039876,0 
113.5718687,22.9039884,0 
113.5718665,22.9039892,0 
113.5718642,22.9039900,0 
113.5718620,22.9039908,0 
113.5718597,22.9039915,0 
113.5718574,22.9039923,0 
113.5718551,22.9039931,0 
113.5718527,22.9039939,0 
113.5718504,22.9039946,0 
113.5718480,22.9039954,0 
113.5718457,22.9039961,0 
113.5718433,22.9039968,0 
113.5718409,22.9039976,0 
113.5718385,22.9039983,0 
113.5718361,22.9039990,0 
113.5718337,22.9039997,0 
113.5718313,22.9040004,0 
113.5718289,22.9040011,0 
113.5718264,22.9040017,0 
113.5718240,22.9040024,0 
113.5718216,22.9040030,0 
113.5718192,22.9040037,0 
113.5718167,22.9040043,0 
113.5718143,22.9040049,0 
113.5718119,22.9040055,0 
113.5718095,22.9040061,0 
113.5718070,22.9040067,0 
113.5718046,22.9040072,0 
113.5718022,22.9040078,0 
113.5717998,22.9040083,0 
113.5717975,22.9040088,0 
113.5717951,22.9040093,0 
113.5717927,22.9040098,0 
113.5717904,22.9040103,0 
113.5717881,22.9040108,0 
113.5717857,22.9040112,0 
113.5717834,22.9040117,0 
113.5717811,22.9040121,0 
113.5717789,22.9040125,0 
113.5717766,22.9040129,0 
113.5717744,22.9040133,0 
113.5717722,22.9040136,0 
113.5717700,22.9040140,0 
113.5717678,22.9040143,0 
113.5717657,22.9040146,0 
113.5717636,22.9040149,0 
113.5717615,22.9040152,0 
113.5717594,22.9040155,0 
113.5717574,22.9040157,0 
113.5717553,22.9040159,0 
113.5717534,22.9040162,0 
113.5717514,22.9040164,0 
113.5717495,22.9040165,0 
113.5717476,22.9040167,0 
113.5717457,22.9040168,0 
113.5717439,22.9040170,0 
113.5717421,22.9040171,0 
113.5717404,22.9040172,0 
113.5717386,22.9040173,0 
113.5717369,22.9040173,0 
113.5717353,22.9040174,0 
113.5717337,22.9040174,0 
113.5717321,22.9040174,0 
113.5717306,22.9040174,0 
113.5717291,22.9040173,0 
113.5717276,22.9040173,0 
113.5717262,22.9040172,0 
113.5717248,22.9040172,0 
113.5717235,22.9040171,0 
113.5717222,22.9040169,0 
113.5717210,22.9040168,0 
113.5717198,22.9040167,0 
113.5717186,22.9040165,0 
113.5717175,22.9040163,0 
113.5717164,22.9040161,0 
113.5717154,22.9040159,0 
113.5717145,22.9040157,0 
113.5717135,22.9040154,0 
113.5717126,22.9040151,0 
113.5717118,22.9040149,0 
113.5717110,22.9040146,0 
113.5717103,22.9040142,0 
113.5717096,22.9040139,0 
113.5717090,22.9040135,0 
113.5717084,22.9040132,0 
113.5717079,22.9040128,0 
113.5717074,22.9040124,0 
113.5717069,22.9040120,0 
113.5717065,22.9040116,0 
113.5717062,22.9040111,0 
113.5717059,22.9040107,0 
113.5717057,22.9040102,0 
113.5717055,22.9040097,0 
</coordinates>
</LineString>
</Placemark>
</Folder>