<Folder>
<name>SV 23 291.761872 14.966054</name>
<visibility>1</visibility>
<Placemark>
<name>circle</name>
<visibility>1</visibility>
<Style>
<geomColor></geomColor>
<geomScale>2</geomScale></Style>
<LineString>
<coordinates>
113.5717857,22.9040156,0 
113.5717855,22.9040151,0 
113.5717854,22.9040147,0 
113.5717853,22.9040142,0 
113.5717852,22.9040137,0 
113.5717852,22.9040132,0 
113.5717852,22.9040127,0 
113.5717853,22.9040122,0 
113.5717854,22.9040116,0 
113.5717855,22.9040111,0 
113.5717857,22.9040105,0 
113.5717859,22.9040099,0 
113.5717862,22.9040093,0 
113.5717865,22.9040087,0 
113.5717868,22.9040081,0 
113.5717872,22.9040075,0 
113.5717876,22.9040069,0 
113.5717880,22.9040062,0 
113.5717885,22.9040056,0 
113.5717890,22.9040049,0 
113.5717896,22.9040042,0 
113.5717902,22.9040036,0 
113.5717908,22.9040029,0 
113.5717915,22.9040022,0 
113.5717922,22.9040015,0 
113.5717929,22.9040007,0 
113.5717937,22.9040000,0 
113.5717945,22.9039993,0 
113.5717954,22.9039985,0 
113.5717963,22.9039978,0 
113.5717972,22.9039970,0 
113.5717981,22.9039963,0 
113.5717991,22.9039955,0 
113.5718001,22.9039947,0 
113.5718012,22.9039940,0 
113.5718023,22.9039932,0 
113.5718034,22.9039924,0 
113.5718045,22.9039916,0 
113.5718057,22.9039908,0 
113.5718069,22.9039900,0 
113.5718081,22.9039892,0 
113.5718094,22.9039884,0 
113.5718107,22.9039876,0 
113.5718120,22.9039868,0 
113.5718133,22.9039860,0 
113.5718147,22.9039852,0 
113.5718161,22.9039844,0 
113.5718175,22.9039836,0 
113.5718190,22.9039828,0 
113.5718204,22.9039820,0 
113.5718219,22.9039812,0 
113.5718234,22.9039804,0 
113.5718250,22.9039795,0 
113.5718266,22.9039787,0 
113.5718281,22.9039779,0 
113.5718297,22.9039771,0 
113.5718314,22.9039763,0 
113.5718330,22.9039755,0 
113.5718347,22.9039747,0 
113.5718363,22.9039740,0 
113.5718380,22.9039732,0 
113.5718397,22.9039724,0 
113.5718415,22.9039716,0 
113.5718432,22.9039708,0 
113.5718449,22.9039701,0 
113.5718467,22.9039693,0 
113.5718485,22.9039686,0 
113.5718503,22.9039678,0 
113.5718521,22.9039671,0 
113.5718539,22.9039663,0 
113.5718557,22.9039656,0 
113.5718575,22.9039649,0 
113.5718593,22.9039642,0 
113.5718612,22.9039635,0 
113.5718630,22.9039628,0 
113.5718649,22.9039621,0 
113.5718667,22.9039614,0 
113.5718686,22.9039608,0 
113.5718704,22.9039601,0 
113.5718723,22.9039595,0 
113.5718741,22.9039588,0 
113.5718760,22.9039582,0 
113.5718779,22.9039576,0 
113.5718797,22.9039570,0 
113.5718816,22.9039564,0 
113.5718834,22.9039558,0 
113.5718853,22.9039553,0 
113.5718871,22.9039547,0 
113.5718889,22.9039542,0 
113.5718908,22.9039536,0 
113.5718926,22.9039531,0 
113.5718944,22.9039526,0 
113.5718962,22.9039521,0 
113.5718980,22.9039516,0 
113.5718998,22.9039512,0 
113.5719016,22.9039507,0 
113.5719033,22.9039503,0 
113.5719051,22.9039499,0 
113.5719068,22.9039495,0 
113.5719085,22.9039491,0 
113.5719102,22.9039487,0 
113.5719119,22.9039483,0 
113.5719136,22.9039480,0 
113.5719153,22.9039477,0 
113.5719169,22.9039473,0 
113.5719185,22.9039470,0 
113.5719201,22.9039468,0 
113.5719217,22.9039465,0 
113.5719232,22.9039462,0 
113.5719248,22.9039460,0 
113.5719263,22.9039458,0 
113.5719278,22.9039456,0 
113.5719292,22.9039454,0 
113.5719307,22.9039452,0 
113.5719321,22.9039451,0 
113.5719335,22.9039449,0 
113.5719349,22.9039448,0 
113.5719362,22.9039447,0 
113.5719375,22.9039446,0 
113.5719388,22.9039446,0 
113.5719401,22.9039445,0 
113.5719413,22.9039445,0 
113.5719425,22.9039444,0 
113.5719436,22.9039444,0 
113.5719448,22.9039445,0 
113.5719459,22.9039445,0 
113.5719470,22.9039445,0 
113.5719480,22.9039446,0 
113.5719490,22.9039447,0 
113.5719500,22.9039448,0 
113.5719509,22.9039449,0 
113.5719518,22.9039450,0 
113.5719527,22.9039452,0 
113.5719536,22.9039454,0 
113.5719544,22.9039455,0 
113.5719551,22.9039457,0 
113.5719559,22.9039460,0 
113.5719566,22.9039462,0 
113.5719572,22.9039464,0 
113.5719579,22.9039467,0 
113.5719584,22.9039470,0 
113.5719590,22.9039473,0 
113.5719595,22.9039476,0 
113.5719600,22.9039479,0 
113.5719604,22.9039483,0 
113.5719608,22.9039486,0 
113.5719612,22.9039490,0 
113.5719615,22.9039494,0 
113.5719618,22.9039498,0 
113.5719621,22.9039502,0 
113.5719623,22.9039506,0 
113.5719624,22.9039511,0 
113.5719626,22.9039516,0 
113.5719627,22.9039520,0 
113.5719627,22.9039525,0 
113.5719627,22.9039530,0 
113.5719627,22.9039535,0 
113.5719627,22.9039541,0 
113.5719626,22.9039546,0 
113.5719624,22.9039552,0 
113.5719622,22.9039557,0 
113.5719620,22.9039563,0 
113.5719618,22.9039569,0 
113.5719615,22.9039575,0 
113.5719611,22.9039581,0 
113.5719608,22.9039587,0 
113.5719604,22.9039594,0 
113.5719599,22.9039600,0 
113.5719594,22.9039607,0 
113.5719589,22.9039613,0 
113.5719583,22.9039620,0 
113.5719577,22.9039627,0 
113.5719571,22.9039634,0 
113.5719564,22.9039641,0 
113.5719557,22.9039648,0 
113.5719550,22.9039655,0 
113.5719542,22.9039662,0 
113.5719534,22.9039670,0 
113.5719526,22.9039677,0 
113.5719517,22.9039684,0 
113.5719508,22.9039692,0 
113.5719498,22.9039700,0 
113.5719488,22.9039707,0 
113.5719478,22.9039715,0 
113.5719468,22.9039723,0 
113.5719457,22.9039730,0 
113.5719446,22.9039738,0 
113.5719434,22.9039746,0 
113.5719423,22.9039754,0 
113.5719411,22.9039762,0 
113.5719398,22.9039770,0 
113.5719386,22.9039778,0 
113.5719373,22.9039786,0 
113.5719360,22.9039794,0 
113.5719346,22.9039802,0 
113.5719332,22.9039810,0 
113.5719318,22.9039818,0 
113.5719304,22.9039826,0 
113.5719290,22.9039835,0 
113.5719275,22.9039843,0 
113.5719260,22.9039851,0 
113.5719245,22.9039859,0 
113.5719229,22.9039867,0 
113.5719214,22.9039875,0 
113.5719198,22.9039883,0 
113.5719182,22.9039891,0 
113.5719166,22.9039899,0 
113.5719149,22.9039907,0 
113.5719133,22.9039915,0 
113.5719116,22.9039923,0 
113.5719099,22.9039931,0 
113.5719082,22.9039938,0 
113.5719065,22.9039946,0 
113.5719047,22.9039954,0 
113.5719030,22.9039962,0 
113.5719012,22.9039969,0 
113.5718995,22.9039977,0 
113.5718977,22.9039984,0 
113.5718959,22.9039992,0 
113.5718941,22.9039999,0 
113.5718923,22.9040006,0 
113.5718904,22.9040013,0 
113.5718886,22.9040020,0 
113.5718868,22.9040027,0 
113.5718849,22.9040034,0 
113.5718831,22.9040041,0 
113.5718812,22.9040048,0 
113.5718794,22.9040055,0 
113.5718775,22.9040061,0 
113.5718756,22.9040068,0 
113.5718738,22.9040074,0 
113.5718719,22.9040080,0 
113.5718701,22.9040086,0 
113.5718682,22.9040092,0 
113.5718664,22.9040098,0 
113.5718645,22.9040104,0 
113.5718627,22.9040110,0 
113.5718608,22.9040115,0 
113.5718590,22.9040121,0 
113.5718572,22.9040126,0 
113.5718553,22.9040131,0 
113.5718535,22.9040136,0 
113.5718517,22.9040141,0 
113.5718499,22.9040146,0 
113.5718481,22.9040151,0 
113.5718464,22.9040155,0 
113.5718446,22.9040160,0 
113.5718429,22.9040164,0 
113.5718411,22.9040168,0 
113.5718394,22.9040172,0 
113.5718377,22.9040175,0 
113.5718360,22.9040179,0 
113.5718343,22.9040183,0 
113.5718327,22.9040186,0 
113.5718310,22.9040189,0 
113.5718294,22.9040192,0 
113.5718278,22.9040195,0 
113.5718263,22.9040198,0 
113.5718247,22.9040200,0 
113.5718232,22.9040202,0 
113.5718216,22.9040205,0 
113.5718202,22.9040207,0 
113.5718187,22.9040208,0 
113.5718172,22.9040210,0 
113.5718158,22.9040212,0 
113.5718144,22.9040213,0 
113.5718131,22.9040214,0 
113.5718117,22.9040215,0 
113.5718104,22.9040216,0 
113.5718091,22.9040217,0 
113.5718079,22.9040217,0 
113.5718067,22.9040218,0 
113.5718055,22.9040218,0 
113.5718043,22.9040218,0 
113.5718032,22.9040218,0 
113.5718020,22.9040217,0 
113.5718010,22.9040217,0 
113.5717999,22.9040216,0 
113.5717989,22.9040215,0 
113.5717979,22.9040214,0 
113.5717970,22.9040213,0 
113.5717961,22.9040212,0 
113.5717952,22.9040210,0 
113.5717944,22.9040209,0 
113.5717936,22.9040207,0 
113.5717928,22.9040205,0 
113.5717921,22.9040203,0 
113.5717914,22.9040200,0 
113.5717907,22.9040198,0 
113.5717901,22.9040195,0 
113.5717895,22.9040192,0 
113.5717889,22.9040190,0 
113.5717884,22.9040186,0 
113.5717879,22.9040183,0 
113.5717875,22.9040180,0 
113.5717871,22.9040176,0 
113.5717867,22.9040172,0 
113.5717864,22.9040168,0 
113.5717861,22.9040164,0 
113.5717859,22.9040160,0 
113.5717857,22.9040156,0 
</coordinates>
</LineString>
</Placemark>
</Folder>