<Folder>
<name>SV 32 249.285667 8.729243</name>
<visibility>1</visibility>
<Placemark>
<name>circle</name>
<visibility>1</visibility>
<Style>
<geomColor></geomColor>
<geomScale>2</geomScale></Style>
<LineString>
<coordinates>
113.5714829,22.9036850,0 
113.5714831,22.9036845,0 
113.5714835,22.9036839,0 
113.5714840,22.9036834,0 
113.5714845,22.9036830,0 
113.5714851,22.9036825,0 
113.5714858,22.9036821,0 
113.5714866,22.9036817,0 
113.5714875,22.9036814,0 
113.5714885,22.9036811,0 
113.5714895,22.9036808,0 
113.5714906,22.9036805,0 
113.5714919,22.9036803,0 
113.5714932,22.9036801,0 
113.5714945,22.9036800,0 
113.5714960,22.9036799,0 
113.5714975,22.9036798,0 
113.5714991,22.9036797,0 
113.5715008,22.9036797,0 
113.5715026,22.9036797,0 
113.5715045,22.9036798,0 
113.5715064,22.9036798,0 
113.5715084,22.9036799,0 
113.5715105,22.9036801,0 
113.5715127,22.9036802,0 
113.5715149,22.9036804,0 
113.5715172,22.9036807,0 
113.5715196,22.9036810,0 
113.5715220,22.9036812,0 
113.5715245,22.9036816,0 
113.5715271,22.9036819,0 
113.5715298,22.9036823,0 
113.5715325,22.9036828,0 
113.5715353,22.9036832,0 
113.5715381,22.9036837,0 
113.5715410,22.9036842,0 
113.5715440,22.9036848,0 
113.5715470,22.9036853,0 
113.5715501,22.9036860,0 
113.5715532,22.9036866,0 
113.5715564,22.9036873,0 
113.5715597,22.9036880,0 
113.5715630,22.9036887,0 
113.5715663,22.9036894,0 
113.5715697,22.9036902,0 
113.5715732,22.9036910,0 
113.5715767,22.9036919,0 
113.5715802,22.9036927,0 
113.5715838,22.9036936,0 
113.5715874,22.9036945,0 
113.5715911,22.9036955,0 
113.5715948,22.9036964,0 
113.5715986,22.9036974,0 
113.5716023,22.9036985,0 
113.5716062,22.9036995,0 
113.5716100,22.9037006,0 
113.5716139,22.9037017,0 
113.5716178,22.9037028,0 
113.5716217,22.9037039,0 
113.5716257,22.9037051,0 
113.5716297,22.9037062,0 
113.5716337,22.9037074,0 
113.5716377,22.9037087,0 
113.5716418,22.9037099,0 
113.5716458,22.9037112,0 
113.5716499,22.9037124,0 
113.5716540,22.9037137,0 
113.5716581,22.9037150,0 
113.5716622,22.9037164,0 
113.5716663,22.9037177,0 
113.5716704,22.9037191,0 
113.5716746,22.9037204,0 
113.5716787,22.9037218,0 
113.5716828,22.9037232,0 
113.5716870,22.9037247,0 
113.5716911,22.9037261,0 
113.5716952,22.9037275,0 
113.5716993,22.9037290,0 
113.5717034,22.9037305,0 
113.5717075,22.9037319,0 
113.5717116,22.9037334,0 
113.5717157,22.9037349,0 
113.5717197,22.9037364,0 
113.5717238,22.9037379,0 
113.5717278,22.9037394,0 
113.5717318,22.9037410,0 
113.5717358,22.9037425,0 
113.5717397,22.9037440,0 
113.5717436,22.9037456,0 
113.5717475,22.9037471,0 
113.5717514,22.9037486,0 
113.5717552,22.9037502,0 
113.5717590,22.9037517,0 
113.5717628,22.9037533,0 
113.5717665,22.9037548,0 
113.5717702,22.9037564,0 
113.5717739,22.9037579,0 
113.5717775,22.9037595,0 
113.5717810,22.9037610,0 
113.5717846,22.9037625,0 
113.5717880,22.9037641,0 
113.5717915,22.9037656,0 
113.5717948,22.9037671,0 
113.5717982,22.9037687,0 
113.5718014,22.9037702,0 
113.5718047,22.9037717,0 
113.5718078,22.9037732,0 
113.5718110,22.9037747,0 
113.5718140,22.9037761,0 
113.5718170,22.9037776,0 
113.5718199,22.9037791,0 
113.5718228,22.9037805,0 
113.5718256,22.9037819,0 
113.5718284,22.9037834,0 
113.5718311,22.9037848,0 
113.5718337,22.9037862,0 
113.5718362,22.9037876,0 
113.5718387,22.9037889,0 
113.5718411,22.9037903,0 
113.5718435,22.9037916,0 
113.5718457,22.9037929,0 
113.5718479,22.9037942,0 
113.5718501,22.9037955,0 
113.5718521,22.9037968,0 
113.5718541,22.9037980,0 
113.5718560,22.9037993,0 
113.5718578,22.9038005,0 
113.5718595,22.9038017,0 
113.5718612,22.9038028,0 
113.5718628,22.9038040,0 
113.5718643,22.9038051,0 
113.5718657,22.9038062,0 
113.5718670,22.9038073,0 
113.5718683,22.9038083,0 
113.5718695,22.9038093,0 
113.5718706,22.9038104,0 
113.5718716,22.9038113,0 
113.5718725,22.9038123,0 
113.5718733,22.9038132,0 
113.5718741,22.9038141,0 
113.5718748,22.9038150,0 
113.5718753,22.9038158,0 
113.5718758,22.9038167,0 
113.5718762,22.9038175,0 
113.5718766,22.9038182,0 
113.5718768,22.9038190,0 
113.5718770,22.9038197,0 
113.5718770,22.9038204,0 
113.5718770,22.9038210,0 
113.5718769,22.9038216,0 
113.5718767,22.9038222,0 
113.5718764,22.9038228,0 
113.5718761,22.9038233,0 
113.5718756,22.9038238,0 
113.5718751,22.9038243,0 
113.5718744,22.9038247,0 
113.5718737,22.9038251,0 
113.5718729,22.9038255,0 
113.5718721,22.9038258,0 
113.5718711,22.9038262,0 
113.5718701,22.9038264,0 
113.5718689,22.9038267,0 
113.5718677,22.9038269,0 
113.5718664,22.9038271,0 
113.5718650,22.9038272,0 
113.5718636,22.9038274,0 
113.5718620,22.9038275,0 
113.5718604,22.9038275,0 
113.5718587,22.9038275,0 
113.5718569,22.9038275,0 
113.5718551,22.9038275,0 
113.5718532,22.9038274,0 
113.5718511,22.9038273,0 
113.5718491,22.9038272,0 
113.5718469,22.9038270,0 
113.5718447,22.9038268,0 
113.5718424,22.9038266,0 
113.5718400,22.9038263,0 
113.5718375,22.9038260,0 
113.5718350,22.9038257,0 
113.5718325,22.9038253,0 
113.5718298,22.9038249,0 
113.5718271,22.9038245,0 
113.5718243,22.9038240,0 
113.5718215,22.9038235,0 
113.5718186,22.9038230,0 
113.5718156,22.9038225,0 
113.5718126,22.9038219,0 
113.5718095,22.9038213,0 
113.5718063,22.9038206,0 
113.5718031,22.9038200,0 
113.5717999,22.9038193,0 
113.5717966,22.9038186,0 
113.5717932,22.9038178,0 
113.5717898,22.9038170,0 
113.5717864,22.9038162,0 
113.5717829,22.9038154,0 
113.5717793,22.9038145,0 
113.5717758,22.9038136,0 
113.5717721,22.9038127,0 
113.5717685,22.9038118,0 
113.5717647,22.9038108,0 
113.5717610,22.9038098,0 
113.5717572,22.9038088,0 
113.5717534,22.9038077,0 
113.5717496,22.9038067,0 
113.5717457,22.9038056,0 
113.5717418,22.9038045,0 
113.5717378,22.9038033,0 
113.5717339,22.9038022,0 
113.5717299,22.9038010,0 
113.5717259,22.9037998,0 
113.5717219,22.9037986,0 
113.5717178,22.9037973,0 
113.5717137,22.9037961,0 
113.5717097,22.9037948,0 
113.5717056,22.9037935,0 
113.5717015,22.9037922,0 
113.5716974,22.9037909,0 
113.5716932,22.9037895,0 
113.5716891,22.9037882,0 
113.5716850,22.9037868,0 
113.5716809,22.9037854,0 
113.5716767,22.9037840,0 
113.5716726,22.9037826,0 
113.5716685,22.9037811,0 
113.5716644,22.9037797,0 
113.5716602,22.9037783,0 
113.5716561,22.9037768,0 
113.5716520,22.9037753,0 
113.5716480,22.9037738,0 
113.5716439,22.9037723,0 
113.5716398,22.9037708,0 
113.5716358,22.9037693,0 
113.5716318,22.9037678,0 
113.5716278,22.9037663,0 
113.5716238,22.9037648,0 
113.5716199,22.9037632,0 
113.5716159,22.9037617,0 
113.5716120,22.9037601,0 
113.5716082,22.9037586,0 
113.5716043,22.9037571,0 
113.5716005,22.9037555,0 
113.5715968,22.9037540,0 
113.5715931,22.9037524,0 
113.5715894,22.9037509,0 
113.5715857,22.9037493,0 
113.5715821,22.9037478,0 
113.5715785,22.9037462,0 
113.5715750,22.9037447,0 
113.5715715,22.9037432,0 
113.5715681,22.9037416,0 
113.5715647,22.9037401,0 
113.5715614,22.9037386,0 
113.5715581,22.9037371,0 
113.5715549,22.9037356,0 
113.5715517,22.9037341,0 
113.5715486,22.9037326,0 
113.5715455,22.9037311,0 
113.5715426,22.9037296,0 
113.5715396,22.9037282,0 
113.5715367,22.9037267,0 
113.5715339,22.9037253,0 
113.5715312,22.9037239,0 
113.5715285,22.9037225,0 
113.5715259,22.9037211,0 
113.5715233,22.9037197,0 
113.5715208,22.9037183,0 
113.5715184,22.9037170,0 
113.5715161,22.9037156,0 
113.5715138,22.9037143,0 
113.5715116,22.9037130,0 
113.5715095,22.9037117,0 
113.5715075,22.9037105,0 
113.5715055,22.9037092,0 
113.5715036,22.9037080,0 
113.5715018,22.9037068,0 
113.5715000,22.9037056,0 
113.5714984,22.9037044,0 
113.5714968,22.9037033,0 
113.5714953,22.9037022,0 
113.5714939,22.9037011,0 
113.5714925,22.9037000,0 
113.5714913,22.9036989,0 
113.5714901,22.9036979,0 
113.5714890,22.9036969,0 
113.5714880,22.9036959,0 
113.5714871,22.9036950,0 
113.5714862,22.9036940,0 
113.5714855,22.9036931,0 
113.5714848,22.9036922,0 
113.5714842,22.9036914,0 
113.5714837,22.9036906,0 
113.5714833,22.9036898,0 
113.5714830,22.9036890,0 
113.5714828,22.9036883,0 
113.5714826,22.9036876,0 
113.5714825,22.9036869,0 
113.5714826,22.9036862,0 
113.5714827,22.9036856,0 
113.5714829,22.9036850,0 
</coordinates>
</LineString>
</Placemark>
</Folder>