<Folder>
<name>SV 32 246.780010 6.992479</name>
<visibility>1</visibility>
<Placemark>
<name>circle</name>
<visibility>1</visibility>
<Style>
<geomColor></geomColor>
<geomScale>2</geomScale></Style>
<LineString>
<coordinates>
113.5712973,22.9035828,0 
113.5712977,22.9035822,0 
113.5712982,22.9035816,0 
113.5712988,22.9035811,0 
113.5712995,22.9035806,0 
113.5713003,22.9035802,0 
113.5713013,22.9035798,0 
113.5713023,22.9035795,0 
113.5713035,22.9035792,0 
113.5713048,22.9035790,0 
113.5713062,22.9035788,0 
113.5713077,22.9035787,0 
113.5713094,22.9035786,0 
113.5713111,22.9035786,0 
113.5713130,22.9035786,0 
113.5713150,22.9035786,0 
113.5713171,22.9035788,0 
113.5713193,22.9035789,0 
113.5713216,22.9035791,0 
113.5713240,22.9035794,0 
113.5713266,22.9035797,0 
113.5713292,22.9035800,0 
113.5713319,22.9035804,0 
113.5713348,22.9035809,0 
113.5713377,22.9035814,0 
113.5713408,22.9035819,0 
113.5713439,22.9035825,0 
113.5713472,22.9035832,0 
113.5713505,22.9035839,0 
113.5713539,22.9035846,0 
113.5713575,22.9035854,0 
113.5713611,22.9035862,0 
113.5713648,22.9035871,0 
113.5713686,22.9035880,0 
113.5713725,22.9035890,0 
113.5713765,22.9035900,0 
113.5713806,22.9035910,0 
113.5713847,22.9035921,0 
113.5713889,22.9035933,0 
113.5713932,22.9035944,0 
113.5713976,22.9035957,0 
113.5714021,22.9035969,0 
113.5714066,22.9035982,0 
113.5714112,22.9035996,0 
113.5714159,22.9036010,0 
113.5714206,22.9036024,0 
113.5714254,22.9036038,0 
113.5714303,22.9036053,0 
113.5714352,22.9036069,0 
113.5714402,22.9036084,0 
113.5714453,22.9036101,0 
113.5714504,22.9036117,0 
113.5714555,22.9036134,0 
113.5714607,22.9036151,0 
113.5714659,22.9036168,0 
113.5714712,22.9036186,0 
113.5714766,22.9036204,0 
113.5714819,22.9036223,0 
113.5714874,22.9036241,0 
113.5714928,22.9036260,0 
113.5714983,22.9036279,0 
113.5715038,22.9036299,0 
113.5715093,22.9036319,0 
113.5715149,22.9036339,0 
113.5715205,22.9036359,0 
113.5715261,22.9036380,0 
113.5715317,22.9036400,0 
113.5715374,22.9036421,0 
113.5715430,22.9036442,0 
113.5715487,22.9036464,0 
113.5715544,22.9036485,0 
113.5715601,22.9036507,0 
113.5715657,22.9036529,0 
113.5715714,22.9036551,0 
113.5715771,22.9036573,0 
113.5715828,22.9036596,0 
113.5715885,22.9036618,0 
113.5715942,22.9036641,0 
113.5715998,22.9036664,0 
113.5716055,22.9036687,0 
113.5716111,22.9036710,0 
113.5716167,22.9036733,0 
113.5716223,22.9036756,0 
113.5716279,22.9036779,0 
113.5716334,22.9036802,0 
113.5716389,22.9036825,0 
113.5716444,22.9036849,0 
113.5716498,22.9036872,0 
113.5716552,22.9036895,0 
113.5716606,22.9036919,0 
113.5716660,22.9036942,0 
113.5716712,22.9036965,0 
113.5716765,22.9036989,0 
113.5716817,22.9037012,0 
113.5716868,22.9037035,0 
113.5716919,22.9037058,0 
113.5716970,22.9037081,0 
113.5717020,22.9037104,0 
113.5717069,22.9037127,0 
113.5717118,22.9037150,0 
113.5717166,22.9037173,0 
113.5717213,22.9037195,0 
113.5717260,22.9037218,0 
113.5717306,22.9037240,0 
113.5717351,22.9037262,0 
113.5717396,22.9037284,0 
113.5717440,22.9037306,0 
113.5717483,22.9037328,0 
113.5717525,22.9037349,0 
113.5717566,22.9037370,0 
113.5717607,22.9037391,0 
113.5717647,22.9037412,0 
113.5717686,22.9037433,0 
113.5717724,22.9037453,0 
113.5717761,22.9037473,0 
113.5717797,22.9037493,0 
113.5717833,22.9037513,0 
113.5717867,22.9037532,0 
113.5717901,22.9037551,0 
113.5717933,22.9037570,0 
113.5717965,22.9037589,0 
113.5717995,22.9037607,0 
113.5718025,22.9037625,0 
113.5718053,22.9037642,0 
113.5718080,22.9037660,0 
113.5718107,22.9037677,0 
113.5718132,22.9037693,0 
113.5718156,22.9037709,0 
113.5718179,22.9037725,0 
113.5718202,22.9037741,0 
113.5718222,22.9037756,0 
113.5718242,22.9037771,0 
113.5718261,22.9037785,0 
113.5718279,22.9037799,0 
113.5718295,22.9037813,0 
113.5718310,22.9037826,0 
113.5718325,22.9037839,0 
113.5718338,22.9037851,0 
113.5718349,22.9037863,0 
113.5718360,22.9037874,0 
113.5718370,22.9037886,0 
113.5718378,22.9037896,0 
113.5718385,22.9037907,0 
113.5718391,22.9037916,0 
113.5718396,22.9037926,0 
113.5718399,22.9037935,0 
113.5718402,22.9037943,0 
113.5718403,22.9037951,0 
113.5718403,22.9037959,0 
113.5718402,22.9037966,0 
113.5718399,22.9037972,0 
113.5718396,22.9037978,0 
113.5718391,22.9037984,0 
113.5718385,22.9037989,0 
113.5718378,22.9037994,0 
113.5718370,22.9037998,0 
113.5718360,22.9038002,0 
113.5718350,22.9038005,0 
113.5718338,22.9038008,0 
113.5718325,22.9038010,0 
113.5718311,22.9038012,0 
113.5718295,22.9038013,0 
113.5718279,22.9038014,0 
113.5718261,22.9038015,0 
113.5718243,22.9038014,0 
113.5718223,22.9038014,0 
113.5718202,22.9038013,0 
113.5718180,22.9038011,0 
113.5718157,22.9038009,0 
113.5718133,22.9038006,0 
113.5718107,22.9038003,0 
113.5718081,22.9038000,0 
113.5718053,22.9037996,0 
113.5718025,22.9037991,0 
113.5717996,22.9037986,0 
113.5717965,22.9037981,0 
113.5717934,22.9037975,0 
113.5717901,22.9037968,0 
113.5717868,22.9037962,0 
113.5717833,22.9037954,0 
113.5717798,22.9037946,0 
113.5717762,22.9037938,0 
113.5717725,22.9037929,0 
113.5717686,22.9037920,0 
113.5717648,22.9037911,0 
113.5717608,22.9037900,0 
113.5717567,22.9037890,0 
113.5717526,22.9037879,0 
113.5717483,22.9037868,0 
113.5717440,22.9037856,0 
113.5717396,22.9037844,0 
113.5717352,22.9037831,0 
113.5717307,22.9037818,0 
113.5717261,22.9037805,0 
113.5717214,22.9037791,0 
113.5717166,22.9037776,0 
113.5717118,22.9037762,0 
113.5717070,22.9037747,0 
113.5717020,22.9037731,0 
113.5716971,22.9037716,0 
113.5716920,22.9037700,0 
113.5716869,22.9037683,0 
113.5716818,22.9037666,0 
113.5716766,22.9037649,0 
113.5716713,22.9037632,0 
113.5716660,22.9037614,0 
113.5716607,22.9037596,0 
113.5716553,22.9037578,0 
113.5716499,22.9037559,0 
113.5716445,22.9037540,0 
113.5716390,22.9037521,0 
113.5716335,22.9037501,0 
113.5716279,22.9037481,0 
113.5716224,22.9037461,0 
113.5716168,22.9037441,0 
113.5716112,22.9037421,0 
113.5716056,22.9037400,0 
113.5715999,22.9037379,0 
113.5715943,22.9037358,0 
113.5715886,22.9037336,0 
113.5715829,22.9037315,0 
113.5715772,22.9037293,0 
113.5715715,22.9037271,0 
113.5715658,22.9037249,0 
113.5715602,22.9037227,0 
113.5715545,22.9037204,0 
113.5715488,22.9037182,0 
113.5715431,22.9037159,0 
113.5715375,22.9037136,0 
113.5715318,22.9037114,0 
113.5715262,22.9037091,0 
113.5715206,22.9037068,0 
113.5715150,22.9037044,0 
113.5715094,22.9037021,0 
113.5715039,22.9036998,0 
113.5714984,22.9036975,0 
113.5714929,22.9036951,0 
113.5714874,22.9036928,0 
113.5714820,22.9036905,0 
113.5714767,22.9036881,0 
113.5714713,22.9036858,0 
113.5714660,22.9036835,0 
113.5714608,22.9036812,0 
113.5714556,22.9036788,0 
113.5714504,22.9036765,0 
113.5714453,22.9036742,0 
113.5714403,22.9036719,0 
113.5714353,22.9036696,0 
113.5714304,22.9036673,0 
113.5714255,22.9036650,0 
113.5714207,22.9036627,0 
113.5714160,22.9036605,0 
113.5714113,22.9036582,0 
113.5714067,22.9036560,0 
113.5714022,22.9036538,0 
113.5713977,22.9036516,0 
113.5713933,22.9036494,0 
113.5713890,22.9036473,0 
113.5713848,22.9036451,0 
113.5713806,22.9036430,0 
113.5713766,22.9036409,0 
113.5713726,22.9036388,0 
113.5713687,22.9036367,0 
113.5713649,22.9036347,0 
113.5713612,22.9036327,0 
113.5713575,22.9036307,0 
113.5713540,22.9036287,0 
113.5713506,22.9036268,0 
113.5713472,22.9036249,0 
113.5713440,22.9036230,0 
113.5713408,22.9036212,0 
113.5713378,22.9036193,0 
113.5713348,22.9036175,0 
113.5713320,22.9036158,0 
113.5713292,22.9036141,0 
113.5713266,22.9036124,0 
113.5713241,22.9036107,0 
113.5713216,22.9036091,0 
113.5713193,22.9036075,0 
113.5713171,22.9036060,0 
113.5713150,22.9036044,0 
113.5713130,22.9036030,0 
113.5713112,22.9036015,0 
113.5713094,22.9036001,0 
113.5713078,22.9035988,0 
113.5713062,22.9035974,0 
113.5713048,22.9035962,0 
113.5713035,22.9035949,0 
113.5713023,22.9035937,0 
113.5713013,22.9035926,0 
113.5713003,22.9035915,0 
113.5712995,22.9035904,0 
113.5712988,22.9035894,0 
113.5712982,22.9035884,0 
113.5712977,22.9035875,0 
113.5712973,22.9035866,0 
113.5712971,22.9035857,0 
113.5712970,22.9035849,0 
113.5712970,22.9035842,0 
113.5712971,22.9035835,0 
113.5712973,22.9035828,0 
</coordinates>
</LineString>
</Placemark>
</Folder>