<Folder>
<name>SV  4 187.305076 6.198585</name>
<visibility>1</visibility>
<Placemark>
<name>circle</name>
<visibility>1</visibility>
<Style>
<geomColor></geomColor>
<geomScale>2</geomScale></Style>
<LineString>
<coordinates>
113.5719741,22.9029950,0 
113.5719748,22.9029950,0 
113.5719755,22.9029951,0 
113.5719763,22.9029953,0 
113.5719771,22.9029957,0 
113.5719778,22.9029962,0 
113.5719786,22.9029968,0 
113.5719795,22.9029975,0 
113.5719803,22.9029984,0 
113.5719812,22.9029994,0 
113.5719820,22.9030005,0 
113.5719829,22.9030018,0 
113.5719838,22.9030031,0 
113.5719847,22.9030046,0 
113.5719856,22.9030063,0 
113.5719866,22.9030080,0 
113.5719875,22.9030099,0 
113.5719885,22.9030118,0 
113.5719894,22.9030139,0 
113.5719904,22.9030162,0 
113.5719914,22.9030185,0 
113.5719924,22.9030210,0 
113.5719934,22.9030235,0 
113.5719945,22.9030262,0 
113.5719955,22.9030290,0 
113.5719965,22.9030320,0 
113.5719976,22.9030350,0 
113.5719986,22.9030381,0 
113.5719997,22.9030414,0 
113.5720007,22.9030447,0 
113.5720018,22.9030482,0 
113.5720029,22.9030517,0 
113.5720040,22.9030554,0 
113.5720051,22.9030592,0 
113.5720062,22.9030630,0 
113.5720073,22.9030670,0 
113.5720084,22.9030711,0 
113.5720095,22.9030752,0 
113.5720106,22.9030795,0 
113.5720117,22.9030838,0 
113.5720128,22.9030882,0 
113.5720139,22.9030927,0 
113.5720150,22.9030973,0 
113.5720161,22.9031020,0 
113.5720172,22.9031068,0 
113.5720183,22.9031116,0 
113.5720194,22.9031165,0 
113.5720205,22.9031215,0 
113.5720216,22.9031266,0 
113.5720227,22.9031317,0 
113.5720238,22.9031369,0 
113.5720249,22.9031422,0 
113.5720260,22.9031475,0 
113.5720271,22.9031529,0 
113.5720281,22.9031583,0 
113.5720292,22.9031639,0 
113.5720303,22.9031694,0 
113.5720313,22.9031750,0 
113.5720324,22.9031807,0 
113.5720334,22.9031864,0 
113.5720344,22.9031921,0 
113.5720355,22.9031979,0 
113.5720365,22.9032037,0 
113.5720375,22.9032096,0 
113.5720385,22.9032155,0 
113.5720395,22.9032214,0 
113.5720404,22.9032274,0 
113.5720414,22.9032333,0 
113.5720423,22.9032393,0 
113.5720433,22.9032454,0 
113.5720442,22.9032514,0 
113.5720451,22.9032575,0 
113.5720460,22.9032635,0 
113.5720469,22.9032696,0 
113.5720478,22.9032757,0 
113.5720486,22.9032818,0 
113.5720495,22.9032879,0 
113.5720503,22.9032940,0 
113.5720511,22.9033000,0 
113.5720519,22.9033061,0 
113.5720527,22.9033122,0 
113.5720534,22.9033183,0 
113.5720542,22.9033243,0 
113.5720549,22.9033303,0 
113.5720556,22.9033363,0 
113.5720563,22.9033423,0 
113.5720570,22.9033483,0 
113.5720576,22.9033542,0 
113.5720582,22.9033601,0 
113.5720589,22.9033660,0 
113.5720594,22.9033718,0 
113.5720600,22.9033776,0 
113.5720606,22.9033834,0 
113.5720611,22.9033891,0 
113.5720616,22.9033948,0 
113.5720621,22.9034004,0 
113.5720626,22.9034060,0 
113.5720631,22.9034115,0 
113.5720635,22.9034170,0 
113.5720639,22.9034224,0 
113.5720643,22.9034277,0 
113.5720646,22.9034330,0 
113.5720650,22.9034382,0 
113.5720653,22.9034434,0 
113.5720656,22.9034485,0 
113.5720659,22.9034535,0 
113.5720661,22.9034584,0 
113.5720664,22.9034633,0 
113.5720666,22.9034681,0 
113.5720668,22.9034728,0 
113.5720669,22.9034774,0 
113.5720671,22.9034819,0 
113.5720672,22.9034864,0 
113.5720673,22.9034908,0 
113.5720674,22.9034950,0 
113.5720674,22.9034992,0 
113.5720674,22.9035033,0 
113.5720674,22.9035073,0 
113.5720674,22.9035112,0 
113.5720674,22.9035150,0 
113.5720673,22.9035187,0 
113.5720672,22.9035223,0 
113.5720671,22.9035258,0 
113.5720670,22.9035292,0 
113.5720668,22.9035325,0 
113.5720666,22.9035356,0 
113.5720664,22.9035387,0 
113.5720662,22.9035416,0 
113.5720659,22.9035445,0 
113.5720657,22.9035472,0 
113.5720654,22.9035498,0 
113.5720650,22.9035523,0 
113.5720647,22.9035547,0 
113.5720643,22.9035570,0 
113.5720640,22.9035591,0 
113.5720635,22.9035611,0 
113.5720631,22.9035630,0 
113.5720627,22.9035648,0 
113.5720622,22.9035665,0 
113.5720617,22.9035680,0 
113.5720612,22.9035694,0 
113.5720607,22.9035707,0 
113.5720601,22.9035719,0 
113.5720595,22.9035729,0 
113.5720589,22.9035738,0 
113.5720583,22.9035746,0 
113.5720577,22.9035752,0 
113.5720571,22.9035758,0 
113.5720564,22.9035762,0 
113.5720557,22.9035765,0 
113.5720550,22.9035766,0 
113.5720543,22.9035766,0 
113.5720535,22.9035765,0 
113.5720528,22.9035763,0 
113.5720520,22.9035759,0 
113.5720512,22.9035754,0 
113.5720504,22.9035748,0 
113.5720496,22.9035741,0 
113.5720487,22.9035732,0 
113.5720479,22.9035722,0 
113.5720470,22.9035711,0 
113.5720461,22.9035698,0 
113.5720452,22.9035685,0 
113.5720443,22.9035670,0 
113.5720434,22.9035654,0 
113.5720425,22.9035636,0 
113.5720415,22.9035618,0 
113.5720406,22.9035598,0 
113.5720396,22.9035577,0 
113.5720386,22.9035554,0 
113.5720376,22.9035531,0 
113.5720366,22.9035506,0 
113.5720356,22.9035481,0 
113.5720346,22.9035454,0 
113.5720336,22.9035426,0 
113.5720325,22.9035397,0 
113.5720315,22.9035366,0 
113.5720304,22.9035335,0 
113.5720294,22.9035302,0 
113.5720283,22.9035269,0 
113.5720272,22.9035234,0 
113.5720262,22.9035199,0 
113.5720251,22.9035162,0 
113.5720240,22.9035124,0 
113.5720229,22.9035086,0 
113.5720218,22.9035046,0 
113.5720207,22.9035005,0 
113.5720196,22.9034964,0 
113.5720185,22.9034921,0 
113.5720174,22.9034878,0 
113.5720163,22.9034834,0 
113.5720152,22.9034789,0 
113.5720141,22.9034743,0 
113.5720130,22.9034696,0 
113.5720118,22.9034648,0 
113.5720107,22.9034600,0 
113.5720096,22.9034551,0 
113.5720085,22.9034501,0 
113.5720074,22.9034450,0 
113.5720063,22.9034399,0 
113.5720052,22.9034347,0 
113.5720042,22.9034294,0 
113.5720031,22.9034241,0 
113.5720020,22.9034187,0 
113.5720009,22.9034133,0 
113.5719998,22.9034078,0 
113.5719988,22.9034022,0 
113.5719977,22.9033966,0 
113.5719967,22.9033909,0 
113.5719956,22.9033852,0 
113.5719946,22.9033795,0 
113.5719936,22.9033737,0 
113.5719926,22.9033679,0 
113.5719916,22.9033620,0 
113.5719906,22.9033561,0 
113.5719896,22.9033502,0 
113.5719886,22.9033442,0 
113.5719877,22.9033383,0 
113.5719867,22.9033323,0 
113.5719858,22.9033262,0 
113.5719849,22.9033202,0 
113.5719839,22.9033142,0 
113.5719830,22.9033081,0 
113.5719822,22.9033020,0 
113.5719813,22.9032959,0 
113.5719804,22.9032898,0 
113.5719796,22.9032837,0 
113.5719788,22.9032777,0 
113.5719780,22.9032716,0 
113.5719772,22.9032655,0 
113.5719764,22.9032594,0 
113.5719756,22.9032534,0 
113.5719749,22.9032473,0 
113.5719742,22.9032413,0 
113.5719735,22.9032353,0 
113.5719728,22.9032293,0 
113.5719721,22.9032233,0 
113.5719714,22.9032174,0 
113.5719708,22.9032115,0 
113.5719702,22.9032056,0 
113.5719696,22.9031998,0 
113.5719690,22.9031940,0 
113.5719685,22.9031882,0 
113.5719679,22.9031825,0 
113.5719674,22.9031768,0 
113.5719669,22.9031712,0 
113.5719665,22.9031656,0 
113.5719660,22.9031601,0 
113.5719656,22.9031546,0 
113.5719652,22.9031492,0 
113.5719648,22.9031439,0 
113.5719644,22.9031386,0 
113.5719641,22.9031334,0 
113.5719637,22.9031282,0 
113.5719634,22.9031231,0 
113.5719632,22.9031181,0 
113.5719629,22.9031132,0 
113.5719627,22.9031083,0 
113.5719625,22.9031035,0 
113.5719623,22.9030988,0 
113.5719621,22.9030942,0 
113.5719620,22.9030897,0 
113.5719619,22.9030852,0 
113.5719618,22.9030809,0 
113.5719617,22.9030766,0 
113.5719616,22.9030724,0 
113.5719616,22.9030683,0 
113.5719616,22.9030643,0 
113.5719616,22.9030604,0 
113.5719617,22.9030566,0 
113.5719618,22.9030529,0 
113.5719618,22.9030493,0 
113.5719620,22.9030458,0 
113.5719621,22.9030424,0 
113.5719623,22.9030392,0 
113.5719624,22.9030360,0 
113.5719626,22.9030329,0 
113.5719629,22.9030300,0 
113.5719631,22.9030271,0 
113.5719634,22.9030244,0 
113.5719637,22.9030218,0 
113.5719640,22.9030193,0 
113.5719644,22.9030169,0 
113.5719647,22.9030147,0 
113.5719651,22.9030125,0 
113.5719655,22.9030105,0 
113.5719659,22.9030086,0 
113.5719664,22.9030068,0 
113.5719669,22.9030051,0 
113.5719673,22.9030036,0 
113.5719679,22.9030022,0 
113.5719684,22.9030009,0 
113.5719689,22.9029998,0 
113.5719695,22.9029987,0 
113.5719701,22.9029978,0 
113.5719707,22.9029970,0 
113.5719713,22.9029964,0 
113.5719720,22.9029958,0 
113.5719727,22.9029954,0 
113.5719734,22.9029952,0 
113.5719741,22.9029950,0 
</coordinates>
</LineString>
</Placemark>
</Folder>