<Folder>
<name>SV  4 186.081155 5.261179</name>
<visibility>1</visibility>
<Placemark>
<name>circle</name>
<visibility>1</visibility>
<Style>
<geomColor></geomColor>
<geomScale>2</geomScale></Style>
<LineString>
<coordinates>
113.5719709,22.9027840,0 
113.5719717,22.9027840,0 
113.5719725,22.9027842,0 
113.5719734,22.9027845,0 
113.5719742,22.9027850,0 
113.5719751,22.9027857,0 
113.5719759,22.9027865,0 
113.5719768,22.9027875,0 
113.5719778,22.9027886,0 
113.5719787,22.9027900,0 
113.5719796,22.9027914,0 
113.5719806,22.9027931,0 
113.5719816,22.9027949,0 
113.5719826,22.9027968,0 
113.5719836,22.9027989,0 
113.5719846,22.9028012,0 
113.5719856,22.9028036,0 
113.5719866,22.9028062,0 
113.5719877,22.9028090,0 
113.5719888,22.9028119,0 
113.5719898,22.9028149,0 
113.5719909,22.9028181,0 
113.5719920,22.9028215,0 
113.5719931,22.9028249,0 
113.5719943,22.9028286,0 
113.5719954,22.9028324,0 
113.5719965,22.9028363,0 
113.5719977,22.9028404,0 
113.5719988,22.9028446,0 
113.5720000,22.9028489,0 
113.5720011,22.9028534,0 
113.5720023,22.9028580,0 
113.5720035,22.9028628,0 
113.5720046,22.9028676,0 
113.5720058,22.9028726,0 
113.5720070,22.9028778,0 
113.5720082,22.9028830,0 
113.5720094,22.9028884,0 
113.5720106,22.9028939,0 
113.5720118,22.9028995,0 
113.5720130,22.9029052,0 
113.5720142,22.9029111,0 
113.5720154,22.9029170,0 
113.5720166,22.9029231,0 
113.5720178,22.9029292,0 
113.5720190,22.9029355,0 
113.5720201,22.9029418,0 
113.5720213,22.9029483,0 
113.5720225,22.9029548,0 
113.5720237,22.9029614,0 
113.5720249,22.9029681,0 
113.5720261,22.9029749,0 
113.5720272,22.9029818,0 
113.5720284,22.9029888,0 
113.5720295,22.9029958,0 
113.5720307,22.9030029,0 
113.5720318,22.9030101,0 
113.5720330,22.9030173,0 
113.5720341,22.9030246,0 
113.5720352,22.9030319,0 
113.5720363,22.9030394,0 
113.5720374,22.9030468,0 
113.5720385,22.9030543,0 
113.5720396,22.9030619,0 
113.5720407,22.9030695,0 
113.5720417,22.9030771,0 
113.5720428,22.9030848,0 
113.5720438,22.9030925,0 
113.5720448,22.9031002,0 
113.5720458,22.9031080,0 
113.5720468,22.9031158,0 
113.5720478,22.9031236,0 
113.5720487,22.9031314,0 
113.5720497,22.9031392,0 
113.5720506,22.9031471,0 
113.5720515,22.9031549,0 
113.5720524,22.9031628,0 
113.5720533,22.9031706,0 
113.5720542,22.9031785,0 
113.5720550,22.9031863,0 
113.5720559,22.9031941,0 
113.5720567,22.9032019,0 
113.5720575,22.9032097,0 
113.5720582,22.9032174,0 
113.5720590,22.9032252,0 
113.5720597,22.9032329,0 
113.5720604,22.9032406,0 
113.5720611,22.9032482,0 
113.5720618,22.9032558,0 
113.5720625,22.9032633,0 
113.5720631,22.9032709,0 
113.5720637,22.9032783,0 
113.5720643,22.9032857,0 
113.5720649,22.9032931,0 
113.5720654,22.9033004,0 
113.5720659,22.9033076,0 
113.5720664,22.9033148,0 
113.5720669,22.9033219,0 
113.5720674,22.9033289,0 
113.5720678,22.9033358,0 
113.5720682,22.9033427,0 
113.5720686,22.9033495,0 
113.5720689,22.9033562,0 
113.5720693,22.9033628,0 
113.5720696,22.9033694,0 
113.5720699,22.9033758,0 
113.5720701,22.9033821,0 
113.5720704,22.9033884,0 
113.5720706,22.9033945,0 
113.5720708,22.9034006,0 
113.5720709,22.9034065,0 
113.5720711,22.9034123,0 
113.5720712,22.9034180,0 
113.5720713,22.9034236,0 
113.5720714,22.9034291,0 
113.5720714,22.9034345,0 
113.5720714,22.9034397,0 
113.5720714,22.9034449,0 
113.5720714,22.9034499,0 
113.5720713,22.9034547,0 
113.5720712,22.9034595,0 
113.5720711,22.9034641,0 
113.5720710,22.9034685,0 
113.5720708,22.9034729,0 
113.5720706,22.9034771,0 
113.5720704,22.9034811,0 
113.5720702,22.9034851,0 
113.5720699,22.9034888,0 
113.5720696,22.9034925,0 
113.5720693,22.9034959,0 
113.5720690,22.9034993,0 
113.5720686,22.9035025,0 
113.5720683,22.9035055,0 
113.5720679,22.9035084,0 
113.5720674,22.9035111,0 
113.5720670,22.9035137,0 
113.5720665,22.9035161,0 
113.5720660,22.9035184,0 
113.5720655,22.9035205,0 
113.5720649,22.9035224,0 
113.5720644,22.9035242,0 
113.5720638,22.9035258,0 
113.5720632,22.9035273,0 
113.5720626,22.9035286,0 
113.5720619,22.9035297,0 
113.5720612,22.9035307,0 
113.5720605,22.9035315,0 
113.5720598,22.9035322,0 
113.5720591,22.9035327,0 
113.5720583,22.9035330,0 
113.5720576,22.9035332,0 
113.5720568,22.9035332,0 
113.5720560,22.9035330,0 
113.5720551,22.9035326,0 
113.5720543,22.9035321,0 
113.5720534,22.9035315,0 
113.5720526,22.9035307,0 
113.5720517,22.9035297,0 
113.5720507,22.9035285,0 
113.5720498,22.9035272,0 
113.5720489,22.9035257,0 
113.5720479,22.9035241,0 
113.5720469,22.9035223,0 
113.5720460,22.9035203,0 
113.5720449,22.9035182,0 
113.5720439,22.9035160,0 
113.5720429,22.9035135,0 
113.5720419,22.9035109,0 
113.5720408,22.9035082,0 
113.5720397,22.9035053,0 
113.5720387,22.9035023,0 
113.5720376,22.9034991,0 
113.5720365,22.9034957,0 
113.5720354,22.9034922,0 
113.5720343,22.9034886,0 
113.5720331,22.9034848,0 
113.5720320,22.9034809,0 
113.5720309,22.9034768,0 
113.5720297,22.9034726,0 
113.5720285,22.9034683,0 
113.5720274,22.9034638,0 
113.5720262,22.9034592,0 
113.5720250,22.9034544,0 
113.5720239,22.9034495,0 
113.5720227,22.9034445,0 
113.5720215,22.9034394,0 
113.5720203,22.9034341,0 
113.5720191,22.9034288,0 
113.5720179,22.9034233,0 
113.5720167,22.9034177,0 
113.5720155,22.9034119,0 
113.5720143,22.9034061,0 
113.5720131,22.9034002,0 
113.5720119,22.9033941,0 
113.5720107,22.9033880,0 
113.5720096,22.9033817,0 
113.5720084,22.9033754,0 
113.5720072,22.9033689,0 
113.5720060,22.9033624,0 
113.5720048,22.9033558,0 
113.5720036,22.9033490,0 
113.5720024,22.9033422,0 
113.5720013,22.9033354,0 
113.5720001,22.9033284,0 
113.5719990,22.9033214,0 
113.5719978,22.9033143,0 
113.5719967,22.9033071,0 
113.5719955,22.9032999,0 
113.5719944,22.9032926,0 
113.5719933,22.9032852,0 
113.5719922,22.9032778,0 
113.5719911,22.9032704,0 
113.5719900,22.9032628,0 
113.5719889,22.9032553,0 
113.5719878,22.9032477,0 
113.5719868,22.9032400,0 
113.5719857,22.9032324,0 
113.5719847,22.9032247,0 
113.5719837,22.9032169,0 
113.5719827,22.9032092,0 
113.5719817,22.9032014,0 
113.5719807,22.9031936,0 
113.5719798,22.9031858,0 
113.5719788,22.9031779,0 
113.5719779,22.9031701,0 
113.5719770,22.9031622,0 
113.5719761,22.9031544,0 
113.5719752,22.9031466,0 
113.5719743,22.9031387,0 
113.5719735,22.9031309,0 
113.5719726,22.9031231,0 
113.5719718,22.9031153,0 
113.5719710,22.9031075,0 
113.5719703,22.9030997,0 
113.5719695,22.9030920,0 
113.5719688,22.9030843,0 
113.5719681,22.9030766,0 
113.5719674,22.9030690,0 
113.5719667,22.9030614,0 
113.5719660,22.9030538,0 
113.5719654,22.9030463,0 
113.5719648,22.9030389,0 
113.5719642,22.9030315,0 
113.5719636,22.9030241,0 
113.5719631,22.9030168,0 
113.5719626,22.9030096,0 
113.5719621,22.9030024,0 
113.5719616,22.9029953,0 
113.5719611,22.9029883,0 
113.5719607,22.9029813,0 
113.5719603,22.9029745,0 
113.5719599,22.9029677,0 
113.5719596,22.9029610,0 
113.5719592,22.9029543,0 
113.5719589,22.9029478,0 
113.5719586,22.9029414,0 
113.5719584,22.9029350,0 
113.5719581,22.9029288,0 
113.5719579,22.9029226,0 
113.5719577,22.9029166,0 
113.5719576,22.9029107,0 
113.5719574,22.9029048,0 
113.5719573,22.9028991,0 
113.5719572,22.9028935,0 
113.5719571,22.9028880,0 
113.5719571,22.9028827,0 
113.5719571,22.9028774,0 
113.5719571,22.9028723,0 
113.5719571,22.9028673,0 
113.5719572,22.9028624,0 
113.5719573,22.9028577,0 
113.5719574,22.9028531,0 
113.5719575,22.9028486,0 
113.5719577,22.9028443,0 
113.5719579,22.9028401,0 
113.5719581,22.9028360,0 
113.5719583,22.9028321,0 
113.5719586,22.9028283,0 
113.5719589,22.9028247,0 
113.5719592,22.9028212,0 
113.5719595,22.9028179,0 
113.5719599,22.9028147,0 
113.5719602,22.9028117,0 
113.5719607,22.9028088,0 
113.5719611,22.9028061,0 
113.5719615,22.9028035,0 
113.5719620,22.9028011,0 
113.5719625,22.9027988,0 
113.5719630,22.9027967,0 
113.5719636,22.9027947,0 
113.5719641,22.9027930,0 
113.5719647,22.9027913,0 
113.5719653,22.9027899,0 
113.5719659,22.9027886,0 
113.5719666,22.9027874,0 
113.5719673,22.9027864,0 
113.5719680,22.9027856,0 
113.5719687,22.9027850,0 
113.5719694,22.9027845,0 
113.5719702,22.9027842,0 
113.5719709,22.9027840,0 
</coordinates>
</LineString>
</Placemark>
</Folder>