<Folder>
<name>SV 21 274.486793 13.081616</name>
<visibility>1</visibility>
<Placemark>
<name>circle</name>
<visibility>1</visibility>
<Style>
<geomColor></geomColor>
<geomScale>2</geomScale></Style>
<LineString>
<coordinates>
113.5716680,22.9039312,0 
113.5716679,22.9039307,0 
113.5716680,22.9039302,0 
113.5716681,22.9039296,0 
113.5716682,22.9039291,0 
113.5716684,22.9039285,0 
113.5716686,22.9039280,0 
113.5716689,22.9039274,0 
113.5716693,22.9039269,0 
113.5716697,22.9039263,0 
113.5716702,22.9039258,0 
113.5716707,22.9039252,0 
113.5716712,22.9039246,0 
113.5716719,22.9039241,0 
113.5716725,22.9039235,0 
113.5716732,22.9039230,0 
113.5716740,22.9039224,0 
113.5716748,22.9039218,0 
113.5716757,22.9039213,0 
113.5716766,22.9039207,0 
113.5716776,22.9039201,0 
113.5716786,22.9039196,0 
113.5716797,22.9039190,0 
113.5716808,22.9039185,0 
113.5716820,22.9039179,0 
113.5716832,22.9039174,0 
113.5716844,22.9039168,0 
113.5716857,22.9039163,0 
113.5716871,22.9039157,0 
113.5716885,22.9039152,0 
113.5716899,22.9039146,0 
113.5716914,22.9039141,0 
113.5716929,22.9039136,0 
113.5716945,22.9039130,0 
113.5716961,22.9039125,0 
113.5716978,22.9039120,0 
113.5716995,22.9039115,0 
113.5717012,22.9039110,0 
113.5717030,22.9039105,0 
113.5717048,22.9039099,0 
113.5717066,22.9039095,0 
113.5717085,22.9039090,0 
113.5717104,22.9039085,0 
113.5717124,22.9039080,0 
113.5717144,22.9039075,0 
113.5717164,22.9039071,0 
113.5717184,22.9039066,0 
113.5717205,22.9039062,0 
113.5717226,22.9039057,0 
113.5717248,22.9039053,0 
113.5717270,22.9039048,0 
113.5717292,22.9039044,0 
113.5717314,22.9039040,0 
113.5717336,22.9039036,0 
113.5717359,22.9039032,0 
113.5717382,22.9039028,0 
113.5717405,22.9039024,0 
113.5717429,22.9039021,0 
113.5717452,22.9039017,0 
113.5717476,22.9039014,0 
113.5717500,22.9039010,0 
113.5717524,22.9039007,0 
113.5717549,22.9039003,0 
113.5717573,22.9039000,0 
113.5717598,22.9038997,0 
113.5717623,22.9038994,0 
113.5717648,22.9038991,0 
113.5717673,22.9038989,0 
113.5717698,22.9038986,0 
113.5717723,22.9038983,0 
113.5717748,22.9038981,0 
113.5717774,22.9038979,0 
113.5717799,22.9038976,0 
113.5717824,22.9038974,0 
113.5717850,22.9038972,0 
113.5717875,22.9038970,0 
113.5717901,22.9038969,0 
113.5717926,22.9038967,0 
113.5717952,22.9038965,0 
113.5717977,22.9038964,0 
113.5718003,22.9038963,0 
113.5718028,22.9038961,0 
113.5718053,22.9038960,0 
113.5718079,22.9038959,0 
113.5718104,22.9038958,0 
113.5718129,22.9038958,0 
113.5718154,22.9038957,0 
113.5718179,22.9038957,0 
113.5718204,22.9038956,0 
113.5718228,22.9038956,0 
113.5718253,22.9038956,0 
113.5718277,22.9038956,0 
113.5718301,22.9038956,0 
113.5718325,22.9038956,0 
113.5718349,22.9038956,0 
113.5718372,22.9038957,0 
113.5718396,22.9038957,0 
113.5718419,22.9038958,0 
113.5718442,22.9038959,0 
113.5718465,22.9038959,0 
113.5718487,22.9038960,0 
113.5718509,22.9038962,0 
113.5718531,22.9038963,0 
113.5718553,22.9038964,0 
113.5718574,22.9038966,0 
113.5718595,22.9038967,0 
113.5718616,22.9038969,0 
113.5718636,22.9038971,0 
113.5718656,22.9038973,0 
113.5718676,22.9038975,0 
113.5718696,22.9038977,0 
113.5718715,22.9038979,0 
113.5718733,22.9038981,0 
113.5718752,22.9038984,0 
113.5718770,22.9038986,0 
113.5718787,22.9038989,0 
113.5718804,22.9038992,0 
113.5718821,22.9038995,0 
113.5718838,22.9038998,0 
113.5718854,22.9039001,0 
113.5718869,22.9039004,0 
113.5718884,22.9039007,0 
113.5718899,22.9039011,0 
113.5718913,22.9039014,0 
113.5718927,22.9039018,0 
113.5718941,22.9039021,0 
113.5718953,22.9039025,0 
113.5718966,22.9039029,0 
113.5718978,22.9039033,0 
113.5718989,22.9039037,0 
113.5719000,22.9039041,0 
113.5719011,22.9039045,0 
113.5719021,22.9039049,0 
113.5719031,22.9039053,0 
113.5719040,22.9039058,0 
113.5719048,22.9039062,0 
113.5719056,22.9039067,0 
113.5719064,22.9039071,0 
113.5719071,22.9039076,0 
113.5719077,22.9039081,0 
113.5719083,22.9039085,0 
113.5719089,22.9039090,0 
113.5719094,22.9039095,0 
113.5719098,22.9039100,0 
113.5719102,22.9039105,0 
113.5719105,22.9039110,0 
113.5719108,22.9039115,0 
113.5719111,22.9039121,0 
113.5719112,22.9039126,0 
113.5719114,22.9039131,0 
113.5719114,22.9039136,0 
113.5719115,22.9039142,0 
113.5719114,22.9039147,0 
113.5719113,22.9039152,0 
113.5719112,22.9039158,0 
113.5719110,22.9039163,0 
113.5719108,22.9039169,0 
113.5719105,22.9039174,0 
113.5719101,22.9039180,0 
113.5719097,22.9039185,0 
113.5719092,22.9039191,0 
113.5719087,22.9039197,0 
113.5719082,22.9039202,0 
113.5719075,22.9039208,0 
113.5719069,22.9039213,0 
113.5719062,22.9039219,0 
113.5719054,22.9039225,0 
113.5719046,22.9039230,0 
113.5719037,22.9039236,0 
113.5719028,22.9039242,0 
113.5719018,22.9039247,0 
113.5719008,22.9039253,0 
113.5718997,22.9039258,0 
113.5718986,22.9039264,0 
113.5718974,22.9039269,0 
113.5718962,22.9039275,0 
113.5718950,22.9039281,0 
113.5718936,22.9039286,0 
113.5718923,22.9039291,0 
113.5718909,22.9039297,0 
113.5718895,22.9039302,0 
113.5718880,22.9039308,0 
113.5718865,22.9039313,0 
113.5718849,22.9039318,0 
113.5718833,22.9039324,0 
113.5718816,22.9039329,0 
113.5718799,22.9039334,0 
113.5718782,22.9039339,0 
113.5718764,22.9039344,0 
113.5718746,22.9039349,0 
113.5718728,22.9039354,0 
113.5718709,22.9039359,0 
113.5718690,22.9039364,0 
113.5718670,22.9039369,0 
113.5718650,22.9039373,0 
113.5718630,22.9039378,0 
113.5718610,22.9039383,0 
113.5718589,22.9039387,0 
113.5718568,22.9039391,0 
113.5718546,22.9039396,0 
113.5718524,22.9039400,0 
113.5718502,22.9039404,0 
113.5718480,22.9039408,0 
113.5718458,22.9039413,0 
113.5718435,22.9039416,0 
113.5718412,22.9039420,0 
113.5718389,22.9039424,0 
113.5718365,22.9039428,0 
113.5718342,22.9039432,0 
113.5718318,22.9039435,0 
113.5718294,22.9039439,0 
113.5718270,22.9039442,0 
113.5718245,22.9039445,0 
113.5718221,22.9039448,0 
113.5718196,22.9039451,0 
113.5718171,22.9039454,0 
113.5718146,22.9039457,0 
113.5718121,22.9039460,0 
113.5718096,22.9039463,0 
113.5718071,22.9039465,0 
113.5718046,22.9039468,0 
113.5718020,22.9039470,0 
113.5717995,22.9039472,0 
113.5717970,22.9039474,0 
113.5717944,22.9039476,0 
113.5717919,22.9039478,0 
113.5717893,22.9039480,0 
113.5717868,22.9039482,0 
113.5717842,22.9039483,0 
113.5717817,22.9039485,0 
113.5717791,22.9039486,0 
113.5717766,22.9039487,0 
113.5717741,22.9039488,0 
113.5717715,22.9039489,0 
113.5717690,22.9039490,0 
113.5717665,22.9039491,0 
113.5717640,22.9039492,0 
113.5717615,22.9039492,0 
113.5717590,22.9039492,0 
113.5717566,22.9039493,0 
113.5717541,22.9039493,0 
113.5717517,22.9039493,0 
113.5717493,22.9039493,0 
113.5717469,22.9039493,0 
113.5717445,22.9039492,0 
113.5717422,22.9039492,0 
113.5717398,22.9039491,0 
113.5717375,22.9039491,0 
113.5717352,22.9039490,0 
113.5717329,22.9039489,0 
113.5717307,22.9039488,0 
113.5717285,22.9039487,0 
113.5717263,22.9039486,0 
113.5717241,22.9039484,0 
113.5717220,22.9039483,0 
113.5717199,22.9039481,0 
113.5717178,22.9039480,0 
113.5717158,22.9039478,0 
113.5717138,22.9039476,0 
113.5717118,22.9039474,0 
113.5717098,22.9039472,0 
113.5717079,22.9039470,0 
113.5717061,22.9039467,0 
113.5717042,22.9039465,0 
113.5717024,22.9039462,0 
113.5717007,22.9039460,0 
113.5716990,22.9039457,0 
113.5716973,22.9039454,0 
113.5716956,22.9039451,0 
113.5716940,22.9039448,0 
113.5716925,22.9039445,0 
113.5716910,22.9039441,0 
113.5716895,22.9039438,0 
113.5716881,22.9039435,0 
113.5716867,22.9039431,0 
113.5716853,22.9039427,0 
113.5716841,22.9039424,0 
113.5716828,22.9039420,0 
113.5716816,22.9039416,0 
113.5716805,22.9039412,0 
113.5716794,22.9039408,0 
113.5716783,22.9039404,0 
113.5716773,22.9039400,0 
113.5716763,22.9039395,0 
113.5716754,22.9039391,0 
113.5716746,22.9039386,0 
113.5716738,22.9039382,0 
113.5716730,22.9039377,0 
113.5716723,22.9039373,0 
113.5716717,22.9039368,0 
113.5716711,22.9039363,0 
113.5716705,22.9039358,0 
113.5716700,22.9039353,0 
113.5716696,22.9039348,0 
113.5716692,22.9039343,0 
113.5716688,22.9039338,0 
113.5716686,22.9039333,0 
113.5716683,22.9039328,0 
113.5716682,22.9039323,0 
113.5716680,22.9039318,0 
113.5716680,22.9039312,0 
</coordinates>
</LineString>
</Placemark>
</Folder>