<Folder>
<name>SV 21 279.614022 14.501443</name>
<visibility>1</visibility>
<Placemark>
<name>circle</name>
<visibility>1</visibility>
<Style>
<geomColor></geomColor>
<geomScale>2</geomScale></Style>
<LineString>
<coordinates>
113.5717230,22.9039588,0 
113.5717230,22.9039583,0 
113.5717229,22.9039578,0 
113.5717230,22.9039573,0 
113.5717230,22.9039568,0 
113.5717231,22.9039562,0 
113.5717233,22.9039557,0 
113.5717235,22.9039552,0 
113.5717237,22.9039546,0 
113.5717240,22.9039541,0 
113.5717244,22.9039535,0 
113.5717248,22.9039530,0 
113.5717252,22.9039524,0 
113.5717257,22.9039518,0 
113.5717262,22.9039512,0 
113.5717267,22.9039507,0 
113.5717273,22.9039501,0 
113.5717280,22.9039495,0 
113.5717287,22.9039489,0 
113.5717294,22.9039483,0 
113.5717302,22.9039477,0 
113.5717310,22.9039471,0 
113.5717319,22.9039465,0 
113.5717328,22.9039459,0 
113.5717337,22.9039454,0 
113.5717347,22.9039448,0 
113.5717357,22.9039441,0 
113.5717368,22.9039435,0 
113.5717379,22.9039429,0 
113.5717390,22.9039423,0 
113.5717402,22.9039417,0 
113.5717414,22.9039411,0 
113.5717426,22.9039405,0 
113.5717439,22.9039399,0 
113.5717453,22.9039393,0 
113.5717466,22.9039387,0 
113.5717480,22.9039381,0 
113.5717495,22.9039376,0 
113.5717509,22.9039370,0 
113.5717524,22.9039364,0 
113.5717539,22.9039358,0 
113.5717555,22.9039352,0 
113.5717571,22.9039346,0 
113.5717587,22.9039340,0 
113.5717604,22.9039335,0 
113.5717621,22.9039329,0 
113.5717638,22.9039323,0 
113.5717655,22.9039318,0 
113.5717673,22.9039312,0 
113.5717691,22.9039307,0 
113.5717709,22.9039301,0 
113.5717727,22.9039296,0 
113.5717746,22.9039291,0 
113.5717765,22.9039285,0 
113.5717784,22.9039280,0 
113.5717803,22.9039275,0 
113.5717822,22.9039270,0 
113.5717842,22.9039265,0 
113.5717862,22.9039260,0 
113.5717882,22.9039255,0 
113.5717902,22.9039250,0 
113.5717923,22.9039246,0 
113.5717943,22.9039241,0 
113.5717964,22.9039236,0 
113.5717985,22.9039232,0 
113.5718005,22.9039228,0 
113.5718026,22.9039223,0 
113.5718048,22.9039219,0 
113.5718069,22.9039215,0 
113.5718090,22.9039211,0 
113.5718112,22.9039207,0 
113.5718133,22.9039203,0 
113.5718154,22.9039199,0 
113.5718176,22.9039196,0 
113.5718198,22.9039192,0 
113.5718219,22.9039189,0 
113.5718241,22.9039186,0 
113.5718263,22.9039182,0 
113.5718284,22.9039179,0 
113.5718306,22.9039176,0 
113.5718327,22.9039173,0 
113.5718349,22.9039171,0 
113.5718371,22.9039168,0 
113.5718392,22.9039165,0 
113.5718414,22.9039163,0 
113.5718435,22.9039161,0 
113.5718456,22.9039158,0 
113.5718477,22.9039156,0 
113.5718499,22.9039154,0 
113.5718520,22.9039152,0 
113.5718541,22.9039151,0 
113.5718561,22.9039149,0 
113.5718582,22.9039148,0 
113.5718602,22.9039146,0 
113.5718623,22.9039145,0 
113.5718643,22.9039144,0 
113.5718663,22.9039143,0 
113.5718683,22.9039142,0 
113.5718703,22.9039141,0 
113.5718722,22.9039141,0 
113.5718741,22.9039140,0 
113.5718761,22.9039140,0 
113.5718779,22.9039140,0 
113.5718798,22.9039139,0 
113.5718816,22.9039139,0 
113.5718835,22.9039140,0 
113.5718853,22.9039140,0 
113.5718870,22.9039140,0 
113.5718888,22.9039141,0 
113.5718905,22.9039141,0 
113.5718922,22.9039142,0 
113.5718938,22.9039143,0 
113.5718954,22.9039144,0 
113.5718970,22.9039145,0 
113.5718986,22.9039147,0 
113.5719001,22.9039148,0 
113.5719016,22.9039149,0 
113.5719031,22.9039151,0 
113.5719045,22.9039153,0 
113.5719059,22.9039155,0 
113.5719073,22.9039157,0 
113.5719086,22.9039159,0 
113.5719099,22.9039161,0 
113.5719112,22.9039163,0 
113.5719124,22.9039166,0 
113.5719136,22.9039168,0 
113.5719147,22.9039171,0 
113.5719158,22.9039174,0 
113.5719169,22.9039177,0 
113.5719179,22.9039180,0 
113.5719189,22.9039183,0 
113.5719198,22.9039186,0 
113.5719207,22.9039190,0 
113.5719216,22.9039193,0 
113.5719224,22.9039197,0 
113.5719232,22.9039200,0 
113.5719239,22.9039204,0 
113.5719246,22.9039208,0 
113.5719252,22.9039212,0 
113.5719258,22.9039216,0 
113.5719264,22.9039220,0 
113.5719269,22.9039224,0 
113.5719274,22.9039228,0 
113.5719278,22.9039233,0 
113.5719282,22.9039237,0 
113.5719286,22.9039242,0 
113.5719288,22.9039247,0 
113.5719291,22.9039251,0 
113.5719293,22.9039256,0 
113.5719295,22.9039261,0 
113.5719296,22.9039266,0 
113.5719296,22.9039271,0 
113.5719297,22.9039276,0 
113.5719296,22.9039281,0 
113.5719296,22.9039286,0 
113.5719295,22.9039292,0 
113.5719293,22.9039297,0 
113.5719291,22.9039302,0 
113.5719289,22.9039308,0 
113.5719286,22.9039313,0 
113.5719282,22.9039319,0 
113.5719278,22.9039325,0 
113.5719274,22.9039330,0 
113.5719270,22.9039336,0 
113.5719264,22.9039342,0 
113.5719259,22.9039347,0 
113.5719253,22.9039353,0 
113.5719246,22.9039359,0 
113.5719239,22.9039365,0 
113.5719232,22.9039371,0 
113.5719224,22.9039377,0 
113.5719216,22.9039383,0 
113.5719208,22.9039389,0 
113.5719199,22.9039395,0 
113.5719189,22.9039401,0 
113.5719179,22.9039407,0 
113.5719169,22.9039413,0 
113.5719158,22.9039419,0 
113.5719147,22.9039425,0 
113.5719136,22.9039431,0 
113.5719124,22.9039437,0 
113.5719112,22.9039443,0 
113.5719100,22.9039449,0 
113.5719087,22.9039455,0 
113.5719073,22.9039461,0 
113.5719060,22.9039467,0 
113.5719046,22.9039473,0 
113.5719032,22.9039479,0 
113.5719017,22.9039485,0 
113.5719002,22.9039490,0 
113.5718987,22.9039496,0 
113.5718971,22.9039502,0 
113.5718955,22.9039508,0 
113.5718939,22.9039514,0 
113.5718922,22.9039519,0 
113.5718906,22.9039525,0 
113.5718888,22.9039531,0 
113.5718871,22.9039536,0 
113.5718853,22.9039542,0 
113.5718835,22.9039547,0 
113.5718817,22.9039553,0 
113.5718799,22.9039558,0 
113.5718780,22.9039564,0 
113.5718761,22.9039569,0 
113.5718742,22.9039574,0 
113.5718723,22.9039579,0 
113.5718704,22.9039584,0 
113.5718684,22.9039589,0 
113.5718664,22.9039594,0 
113.5718644,22.9039599,0 
113.5718624,22.9039604,0 
113.5718603,22.9039609,0 
113.5718583,22.9039613,0 
113.5718562,22.9039618,0 
113.5718542,22.9039622,0 
113.5718521,22.9039627,0 
113.5718500,22.9039631,0 
113.5718478,22.9039635,0 
113.5718457,22.9039639,0 
113.5718436,22.9039643,0 
113.5718415,22.9039647,0 
113.5718393,22.9039651,0 
113.5718372,22.9039655,0 
113.5718350,22.9039658,0 
113.5718328,22.9039662,0 
113.5718307,22.9039665,0 
113.5718285,22.9039669,0 
113.5718264,22.9039672,0 
113.5718242,22.9039675,0 
113.5718220,22.9039678,0 
113.5718199,22.9039681,0 
113.5718177,22.9039684,0 
113.5718156,22.9039686,0 
113.5718134,22.9039689,0 
113.5718113,22.9039691,0 
113.5718091,22.9039694,0 
113.5718070,22.9039696,0 
113.5718049,22.9039698,0 
113.5718028,22.9039700,0 
113.5718006,22.9039702,0 
113.5717986,22.9039703,0 
113.5717965,22.9039705,0 
113.5717944,22.9039706,0 
113.5717924,22.9039708,0 
113.5717903,22.9039709,0 
113.5717883,22.9039710,0 
113.5717863,22.9039711,0 
113.5717843,22.9039712,0 
113.5717823,22.9039713,0 
113.5717804,22.9039713,0 
113.5717785,22.9039714,0 
113.5717766,22.9039714,0 
113.5717747,22.9039715,0 
113.5717728,22.9039715,0 
113.5717710,22.9039715,0 
113.5717691,22.9039714,0 
113.5717674,22.9039714,0 
113.5717656,22.9039714,0 
113.5717639,22.9039713,0 
113.5717621,22.9039713,0 
113.5717605,22.9039712,0 
113.5717588,22.9039711,0 
113.5717572,22.9039710,0 
113.5717556,22.9039709,0 
113.5717540,22.9039708,0 
113.5717525,22.9039706,0 
113.5717510,22.9039705,0 
113.5717495,22.9039703,0 
113.5717481,22.9039701,0 
113.5717467,22.9039699,0 
113.5717453,22.9039697,0 
113.5717440,22.9039695,0 
113.5717427,22.9039693,0 
113.5717415,22.9039691,0 
113.5717402,22.9039688,0 
113.5717391,22.9039686,0 
113.5717379,22.9039683,0 
113.5717368,22.9039680,0 
113.5717357,22.9039677,0 
113.5717347,22.9039674,0 
113.5717337,22.9039671,0 
113.5717328,22.9039668,0 
113.5717319,22.9039665,0 
113.5717310,22.9039661,0 
113.5717302,22.9039658,0 
113.5717294,22.9039654,0 
113.5717287,22.9039650,0 
113.5717280,22.9039646,0 
113.5717274,22.9039642,0 
113.5717268,22.9039638,0 
113.5717262,22.9039634,0 
113.5717257,22.9039630,0 
113.5717252,22.9039626,0 
113.5717248,22.9039621,0 
113.5717244,22.9039617,0 
113.5717241,22.9039612,0 
113.5717238,22.9039608,0 
113.5717235,22.9039603,0 
113.5717233,22.9039598,0 
113.5717231,22.9039593,0 
113.5717230,22.9039588,0 
</coordinates>
</LineString>
</Placemark>
</Folder>