<Folder>
<name>SV 21 303.760543 14.991162</name>
<visibility>1</visibility>
<Placemark>
<name>circle</name>
<visibility>1</visibility>
<Style>
<geomColor></geomColor>
<geomScale>2</geomScale></Style>
<LineString>
<coordinates>
113.5717909,22.9040903,0 
113.5717906,22.9040899,0 
113.5717904,22.9040894,0 
113.5717902,22.9040890,0 
113.5717900,22.9040885,0 
113.5717899,22.9040880,0 
113.5717898,22.9040874,0 
113.5717897,22.9040869,0 
113.5717897,22.9040863,0 
113.5717897,22.9040857,0 
113.5717898,22.9040851,0 
113.5717898,22.9040845,0 
113.5717900,22.9040838,0 
113.5717901,22.9040831,0 
113.5717903,22.9040825,0 
113.5717905,22.9040817,0 
113.5717908,22.9040810,0 
113.5717911,22.9040803,0 
113.5717915,22.9040795,0 
113.5717918,22.9040787,0 
113.5717923,22.9040779,0 
113.5717927,22.9040771,0 
113.5717932,22.9040763,0 
113.5717937,22.9040754,0 
113.5717943,22.9040745,0 
113.5717948,22.9040737,0 
113.5717955,22.9040728,0 
113.5717961,22.9040718,0 
113.5717968,22.9040709,0 
113.5717975,22.9040700,0 
113.5717983,22.9040690,0 
113.5717991,22.9040681,0 
113.5717999,22.9040671,0 
113.5718008,22.9040661,0 
113.5718017,22.9040651,0 
113.5718026,22.9040641,0 
113.5718035,22.9040630,0 
113.5718045,22.9040620,0 
113.5718055,22.9040610,0 
113.5718066,22.9040599,0 
113.5718076,22.9040588,0 
113.5718087,22.9040578,0 
113.5718099,22.9040567,0 
113.5718110,22.9040556,0 
113.5718122,22.9040545,0 
113.5718134,22.9040534,0 
113.5718147,22.9040523,0 
113.5718159,22.9040512,0 
113.5718172,22.9040501,0 
113.5718185,22.9040490,0 
113.5718199,22.9040478,0 
113.5718212,22.9040467,0 
113.5718226,22.9040456,0 
113.5718240,22.9040444,0 
113.5718254,22.9040433,0 
113.5718269,22.9040421,0 
113.5718284,22.9040410,0 
113.5718298,22.9040399,0 
113.5718314,22.9040387,0 
113.5718329,22.9040376,0 
113.5718344,22.9040364,0 
113.5718360,22.9040353,0 
113.5718376,22.9040342,0 
113.5718392,22.9040330,0 
113.5718408,22.9040319,0 
113.5718424,22.9040308,0 
113.5718440,22.9040296,0 
113.5718457,22.9040285,0 
113.5718473,22.9040274,0 
113.5718490,22.9040263,0 
113.5718507,22.9040252,0 
113.5718524,22.9040241,0 
113.5718541,22.9040230,0 
113.5718558,22.9040219,0 
113.5718575,22.9040208,0 
113.5718593,22.9040197,0 
113.5718610,22.9040187,0 
113.5718627,22.9040176,0 
113.5718645,22.9040166,0 
113.5718662,22.9040156,0 
113.5718680,22.9040145,0 
113.5718697,22.9040135,0 
113.5718715,22.9040125,0 
113.5718732,22.9040115,0 
113.5718750,22.9040106,0 
113.5718768,22.9040096,0 
113.5718785,22.9040086,0 
113.5718803,22.9040077,0 
113.5718820,22.9040068,0 
113.5718838,22.9040059,0 
113.5718855,22.9040050,0 
113.5718872,22.9040041,0 
113.5718890,22.9040032,0 
113.5718907,22.9040024,0 
113.5718924,22.9040016,0 
113.5718941,22.9040008,0 
113.5718958,22.9040000,0 
113.5718975,22.9039992,0 
113.5718992,22.9039984,0 
113.5719008,22.9039977,0 
113.5719025,22.9039969,0 
113.5719041,22.9039962,0 
113.5719058,22.9039955,0 
113.5719074,22.9039949,0 
113.5719090,22.9039942,0 
113.5719106,22.9039936,0 
113.5719121,22.9039930,0 
113.5719137,22.9039924,0 
113.5719152,22.9039918,0 
113.5719167,22.9039913,0 
113.5719182,22.9039908,0 
113.5719197,22.9039903,0 
113.5719212,22.9039898,0 
113.5719226,22.9039893,0 
113.5719240,22.9039889,0 
113.5719254,22.9039884,0 
113.5719268,22.9039881,0 
113.5719281,22.9039877,0 
113.5719294,22.9039873,0 
113.5719307,22.9039870,0 
113.5719320,22.9039867,0 
113.5719332,22.9039864,0 
113.5719345,22.9039862,0 
113.5719357,22.9039859,0 
113.5719368,22.9039857,0 
113.5719380,22.9039855,0 
113.5719391,22.9039854,0 
113.5719402,22.9039852,0 
113.5719412,22.9039851,0 
113.5719422,22.9039850,0 
113.5719432,22.9039849,0 
113.5719442,22.9039849,0 
113.5719451,22.9039849,0 
113.5719460,22.9039849,0 
113.5719469,22.9039849,0 
113.5719477,22.9039850,0 
113.5719485,22.9039850,0 
113.5719493,22.9039851,0 
113.5719500,22.9039853,0 
113.5719507,22.9039854,0 
113.5719514,22.9039856,0 
113.5719520,22.9039858,0 
113.5719526,22.9039860,0 
113.5719532,22.9039862,0 
113.5719537,22.9039865,0 
113.5719542,22.9039868,0 
113.5719547,22.9039871,0 
113.5719551,22.9039874,0 
113.5719555,22.9039878,0 
113.5719559,22.9039882,0 
113.5719562,22.9039886,0 
113.5719565,22.9039890,0 
113.5719567,22.9039894,0 
113.5719569,22.9039899,0 
113.5719571,22.9039904,0 
113.5719572,22.9039909,0 
113.5719573,22.9039914,0 
113.5719574,22.9039920,0 
113.5719574,22.9039926,0 
113.5719574,22.9039931,0 
113.5719573,22.9039938,0 
113.5719573,22.9039944,0 
113.5719571,22.9039950,0 
113.5719570,22.9039957,0 
113.5719568,22.9039964,0 
113.5719566,22.9039971,0 
113.5719563,22.9039979,0 
113.5719560,22.9039986,0 
113.5719556,22.9039994,0 
113.5719553,22.9040002,0 
113.5719549,22.9040010,0 
113.5719544,22.9040018,0 
113.5719539,22.9040026,0 
113.5719534,22.9040035,0 
113.5719528,22.9040043,0 
113.5719523,22.9040052,0 
113.5719516,22.9040061,0 
113.5719510,22.9040070,0 
113.5719503,22.9040080,0 
113.5719496,22.9040089,0 
113.5719488,22.9040098,0 
113.5719480,22.9040108,0 
113.5719472,22.9040118,0 
113.5719463,22.9040128,0 
113.5719454,22.9040138,0 
113.5719445,22.9040148,0 
113.5719436,22.9040158,0 
113.5719426,22.9040169,0 
113.5719416,22.9040179,0 
113.5719405,22.9040190,0 
113.5719395,22.9040200,0 
113.5719384,22.9040211,0 
113.5719372,22.9040222,0 
113.5719361,22.9040233,0 
113.5719349,22.9040244,0 
113.5719337,22.9040255,0 
113.5719324,22.9040266,0 
113.5719312,22.9040277,0 
113.5719299,22.9040288,0 
113.5719286,22.9040299,0 
113.5719272,22.9040310,0 
113.5719259,22.9040322,0 
113.5719245,22.9040333,0 
113.5719231,22.9040344,0 
113.5719217,22.9040356,0 
113.5719202,22.9040367,0 
113.5719187,22.9040379,0 
113.5719173,22.9040390,0 
113.5719157,22.9040402,0 
113.5719142,22.9040413,0 
113.5719127,22.9040424,0 
113.5719111,22.9040436,0 
113.5719095,22.9040447,0 
113.5719079,22.9040459,0 
113.5719063,22.9040470,0 
113.5719047,22.9040481,0 
113.5719031,22.9040492,0 
113.5719014,22.9040504,0 
113.5718998,22.9040515,0 
113.5718981,22.9040526,0 
113.5718964,22.9040537,0 
113.5718947,22.9040548,0 
113.5718930,22.9040559,0 
113.5718913,22.9040570,0 
113.5718896,22.9040581,0 
113.5718878,22.9040591,0 
113.5718861,22.9040602,0 
113.5718844,22.9040612,0 
113.5718826,22.9040623,0 
113.5718809,22.9040633,0 
113.5718791,22.9040643,0 
113.5718774,22.9040653,0 
113.5718756,22.9040663,0 
113.5718739,22.9040673,0 
113.5718721,22.9040683,0 
113.5718703,22.9040693,0 
113.5718686,22.9040702,0 
113.5718668,22.9040712,0 
113.5718651,22.9040721,0 
113.5718633,22.9040730,0 
113.5718616,22.9040739,0 
113.5718599,22.9040748,0 
113.5718581,22.9040756,0 
113.5718564,22.9040765,0 
113.5718547,22.9040773,0 
113.5718530,22.9040781,0 
113.5718513,22.9040789,0 
113.5718496,22.9040797,0 
113.5718479,22.9040805,0 
113.5718463,22.9040812,0 
113.5718446,22.9040819,0 
113.5718430,22.9040826,0 
113.5718413,22.9040833,0 
113.5718397,22.9040840,0 
113.5718381,22.9040846,0 
113.5718365,22.9040853,0 
113.5718350,22.9040859,0 
113.5718334,22.9040865,0 
113.5718319,22.9040870,0 
113.5718304,22.9040876,0 
113.5718289,22.9040881,0 
113.5718274,22.9040886,0 
113.5718259,22.9040891,0 
113.5718245,22.9040896,0 
113.5718231,22.9040900,0 
113.5718217,22.9040904,0 
113.5718203,22.9040908,0 
113.5718190,22.9040912,0 
113.5718177,22.9040915,0 
113.5718164,22.9040919,0 
113.5718151,22.9040922,0 
113.5718139,22.9040925,0 
113.5718126,22.9040927,0 
113.5718114,22.9040929,0 
113.5718103,22.9040932,0 
113.5718091,22.9040933,0 
113.5718080,22.9040935,0 
113.5718069,22.9040936,0 
113.5718059,22.9040938,0 
113.5718049,22.9040939,0 
113.5718039,22.9040939,0 
113.5718029,22.9040940,0 
113.5718020,22.9040940,0 
113.5718011,22.9040940,0 
113.5718002,22.9040940,0 
113.5717994,22.9040939,0 
113.5717986,22.9040938,0 
113.5717978,22.9040937,0 
113.5717971,22.9040936,0 
113.5717964,22.9040935,0 
113.5717957,22.9040933,0 
113.5717951,22.9040931,0 
113.5717945,22.9040929,0 
113.5717939,22.9040926,0 
113.5717934,22.9040924,0 
113.5717929,22.9040921,0 
113.5717924,22.9040918,0 
113.5717920,22.9040915,0 
113.5717916,22.9040911,0 
113.5717912,22.9040907,0 
113.5717909,22.9040903,0 
</coordinates>
</LineString>
</Placemark>
</Folder>