<Folder>
<name>SV  5 292.296587 9.913001</name>
<visibility>1</visibility>
<Placemark>
<name>circle</name>
<visibility>1</visibility>
<Style>
<geomColor>FF006400</geomColor>
<geomScale>2</geomScale></Style>
<LineString>
<coordinates>
113.5715273,22.9041163,0 
113.5715271,22.9041157,0 
113.5715270,22.9041151,0 
113.5715269,22.9041145,0 
113.5715269,22.9041138,0 
113.5715270,22.9041131,0 
113.5715272,22.9041124,0 
113.5715274,22.9041116,0 
113.5715277,22.9041108,0 
113.5715281,22.9041100,0 
113.5715286,22.9041092,0 
113.5715291,22.9041083,0 
113.5715297,22.9041074,0 
113.5715304,22.9041065,0 
113.5715312,22.9041056,0 
113.5715320,22.9041046,0 
113.5715330,22.9041036,0 
113.5715339,22.9041026,0 
113.5715350,22.9041016,0 
113.5715361,22.9041006,0 
113.5715373,22.9040995,0 
113.5715386,22.9040984,0 
113.5715400,22.9040973,0 
113.5715414,22.9040961,0 
113.5715429,22.9040950,0 
113.5715444,22.9040938,0 
113.5715461,22.9040926,0 
113.5715477,22.9040914,0 
113.5715495,22.9040902,0 
113.5715513,22.9040889,0 
113.5715532,22.9040877,0 
113.5715552,22.9040864,0 
113.5715572,22.9040851,0 
113.5715593,22.9040838,0 
113.5715614,22.9040825,0 
113.5715636,22.9040811,0 
113.5715659,22.9040798,0 
113.5715682,22.9040784,0 
113.5715706,22.9040771,0 
113.5715730,22.9040757,0 
113.5715755,22.9040743,0 
113.5715781,22.9040729,0 
113.5715807,22.9040714,0 
113.5715834,22.9040700,0 
113.5715861,22.9040686,0 
113.5715888,22.9040671,0 
113.5715916,22.9040657,0 
113.5715945,22.9040642,0 
113.5715974,22.9040628,0 
113.5716003,22.9040613,0 
113.5716033,22.9040598,0 
113.5716063,22.9040584,0 
113.5716094,22.9040569,0 
113.5716125,22.9040554,0 
113.5716157,22.9040539,0 
113.5716189,22.9040524,0 
113.5716221,22.9040510,0 
113.5716254,22.9040495,0 
113.5716287,22.9040480,0 
113.5716320,22.9040465,0 
113.5716353,22.9040450,0 
113.5716387,22.9040435,0 
113.5716421,22.9040421,0 
113.5716456,22.9040406,0 
113.5716490,22.9040391,0 
113.5716525,22.9040377,0 
113.5716560,22.9040362,0 
113.5716595,22.9040348,0 
113.5716631,22.9040333,0 
113.5716666,22.9040319,0 
113.5716702,22.9040305,0 
113.5716738,22.9040290,0 
113.5716774,22.9040276,0 
113.5716810,22.9040262,0 
113.5716846,22.9040248,0 
113.5716882,22.9040235,0 
113.5716919,22.9040221,0 
113.5716955,22.9040208,0 
113.5716991,22.9040194,0 
113.5717028,22.9040181,0 
113.5717064,22.9040168,0 
113.5717100,22.9040155,0 
113.5717136,22.9040142,0 
113.5717173,22.9040130,0 
113.5717209,22.9040117,0 
113.5717245,22.9040105,0 
113.5717281,22.9040093,0 
113.5717317,22.9040081,0 
113.5717352,22.9040069,0 
113.5717388,22.9040057,0 
113.5717423,22.9040046,0 
113.5717458,22.9040035,0 
113.5717493,22.9040024,0 
113.5717528,22.9040013,0 
113.5717563,22.9040003,0 
113.5717597,22.9039993,0 
113.5717631,22.9039982,0 
113.5717665,22.9039973,0 
113.5717698,22.9039963,0 
113.5717731,22.9039954,0 
113.5717764,22.9039945,0 
113.5717797,22.9039936,0 
113.5717829,22.9039927,0 
113.5717861,22.9039919,0 
113.5717892,22.9039911,0 
113.5717923,22.9039903,0 
113.5717954,22.9039895,0 
113.5717984,22.9039888,0 
113.5718014,22.9039881,0 
113.5718043,22.9039874,0 
113.5718072,22.9039868,0 
113.5718100,22.9039862,0 
113.5718128,22.9039856,0 
113.5718156,22.9039850,0 
113.5718183,22.9039845,0 
113.5718209,22.9039840,0 
113.5718235,22.9039835,0 
113.5718260,22.9039830,0 
113.5718285,22.9039826,0 
113.5718309,22.9039822,0 
113.5718333,22.9039819,0 
113.5718356,22.9039816,0 
113.5718379,22.9039813,0 
113.5718401,22.9039810,0 
113.5718422,22.9039808,0 
113.5718442,22.9039806,0 
113.5718463,22.9039804,0 
113.5718482,22.9039803,0 
113.5718501,22.9039802,0 
113.5718519,22.9039801,0 
113.5718536,22.9039800,0 
113.5718553,22.9039800,0 
113.5718569,22.9039800,0 
113.5718584,22.9039801,0 
113.5718599,22.9039801,0 
113.5718613,22.9039803,0 
113.5718626,22.9039804,0 
113.5718639,22.9039806,0 
113.5718651,22.9039808,0 
113.5718662,22.9039810,0 
113.5718672,22.9039813,0 
113.5718682,22.9039816,0 
113.5718691,22.9039819,0 
113.5718699,22.9039822,0 
113.5718707,22.9039826,0 
113.5718713,22.9039830,0 
113.5718719,22.9039835,0 
113.5718724,22.9039839,0 
113.5718729,22.9039844,0 
113.5718733,22.9039850,0 
113.5718735,22.9039855,0 
113.5718738,22.9039861,0 
113.5718739,22.9039867,0 
113.5718740,22.9039874,0 
113.5718740,22.9039881,0 
113.5718739,22.9039888,0 
113.5718737,22.9039895,0 
113.5718735,22.9039902,0 
113.5718732,22.9039910,0 
113.5718728,22.9039918,0 
113.5718723,22.9039927,0 
113.5718718,22.9039935,0 
113.5718711,22.9039944,0 
113.5718705,22.9039953,0 
113.5718697,22.9039963,0 
113.5718689,22.9039972,0 
113.5718679,22.9039982,0 
113.5718670,22.9039992,0 
113.5718659,22.9040002,0 
113.5718648,22.9040013,0 
113.5718636,22.9040024,0 
113.5718623,22.9040034,0 
113.5718609,22.9040046,0 
113.5718595,22.9040057,0 
113.5718580,22.9040068,0 
113.5718565,22.9040080,0 
113.5718548,22.9040092,0 
113.5718531,22.9040104,0 
113.5718514,22.9040117,0 
113.5718496,22.9040129,0 
113.5718477,22.9040142,0 
113.5718457,22.9040154,0 
113.5718437,22.9040167,0 
113.5718416,22.9040180,0 
113.5718395,22.9040194,0 
113.5718373,22.9040207,0 
113.5718350,22.9040220,0 
113.5718327,22.9040234,0 
113.5718303,22.9040248,0 
113.5718279,22.9040262,0 
113.5718254,22.9040276,0 
113.5718228,22.9040290,0 
113.5718202,22.9040304,0 
113.5718175,22.9040318,0 
113.5718148,22.9040333,0 
113.5718121,22.9040347,0 
113.5718093,22.9040361,0 
113.5718064,22.9040376,0 
113.5718035,22.9040391,0 
113.5718006,22.9040405,0 
113.5717976,22.9040420,0 
113.5717945,22.9040435,0 
113.5717915,22.9040450,0 
113.5717884,22.9040464,0 
113.5717852,22.9040479,0 
113.5717820,22.9040494,0 
113.5717788,22.9040509,0 
113.5717755,22.9040524,0 
113.5717722,22.9040539,0 
113.5717689,22.9040553,0 
113.5717656,22.9040568,0 
113.5717622,22.9040583,0 
113.5717588,22.9040598,0 
113.5717553,22.9040612,0 
113.5717519,22.9040627,0 
113.5717484,22.9040642,0 
113.5717449,22.9040656,0 
113.5717414,22.9040671,0 
113.5717378,22.9040685,0 
113.5717343,22.9040700,0 
113.5717307,22.9040714,0 
113.5717271,22.9040728,0 
113.5717235,22.9040742,0 
113.5717199,22.9040756,0 
113.5717163,22.9040770,0 
113.5717127,22.9040784,0 
113.5717090,22.9040797,0 
113.5717054,22.9040811,0 
113.5717018,22.9040824,0 
113.5716981,22.9040837,0 
113.5716945,22.9040851,0 
113.5716909,22.9040864,0 
113.5716873,22.9040876,0 
113.5716836,22.9040889,0 
113.5716800,22.9040901,0 
113.5716764,22.9040914,0 
113.5716728,22.9040926,0 
113.5716692,22.9040938,0 
113.5716657,22.9040949,0 
113.5716621,22.9040961,0 
113.5716586,22.9040972,0 
113.5716551,22.9040983,0 
113.5716516,22.9040994,0 
113.5716481,22.9041005,0 
113.5716446,22.9041016,0 
113.5716412,22.9041026,0 
113.5716378,22.9041036,0 
113.5716344,22.9041046,0 
113.5716311,22.9041055,0 
113.5716278,22.9041065,0 
113.5716245,22.9041074,0 
113.5716212,22.9041083,0 
113.5716180,22.9041091,0 
113.5716148,22.9041100,0 
113.5716117,22.9041108,0 
113.5716086,22.9041116,0 
113.5716055,22.9041123,0 
113.5716025,22.9041130,0 
113.5715995,22.9041138,0 
113.5715966,22.9041144,0 
113.5715937,22.9041151,0 
113.5715909,22.9041157,0 
113.5715881,22.9041163,0 
113.5715853,22.9041168,0 
113.5715826,22.9041174,0 
113.5715800,22.9041179,0 
113.5715774,22.9041184,0 
113.5715749,22.9041188,0 
113.5715724,22.9041192,0 
113.5715700,22.9041196,0 
113.5715676,22.9041200,0 
113.5715653,22.9041203,0 
113.5715630,22.9041206,0 
113.5715608,22.9041208,0 
113.5715587,22.9041211,0 
113.5715567,22.9041213,0 
113.5715546,22.9041214,0 
113.5715527,22.9041216,0 
113.5715508,22.9041217,0 
113.5715490,22.9041218,0 
113.5715473,22.9041218,0 
113.5715456,22.9041218,0 
113.5715440,22.9041218,0 
113.5715425,22.9041218,0 
113.5715410,22.9041217,0 
113.5715396,22.9041216,0 
113.5715383,22.9041214,0 
113.5715370,22.9041213,0 
113.5715358,22.9041211,0 
113.5715347,22.9041208,0 
113.5715337,22.9041206,0 
113.5715327,22.9041203,0 
113.5715318,22.9041200,0 
113.5715310,22.9041196,0 
113.5715302,22.9041192,0 
113.5715296,22.9041188,0 
113.5715290,22.9041184,0 
113.5715285,22.9041179,0 
113.5715280,22.9041174,0 
113.5715276,22.9041169,0 
113.5715273,22.9041163,0 
</coordinates>
</LineString>
</Placemark>
</Folder>