<Folder>
<name>SV 21 303.760543 14.991162</name>
<visibility>1</visibility>
<Placemark>
<name>circle</name>
<visibility>1</visibility>
<Style>
<geomColor></geomColor>
<geomScale>2</geomScale></Style>
<LineString>
<coordinates>
113.5718049,22.9040817,0 
113.5718046,22.9040813,0 
113.5718044,22.9040810,0 
113.5718042,22.9040806,0 
113.5718041,22.9040801,0 
113.5718040,22.9040797,0 
113.5718039,22.9040792,0 
113.5718038,22.9040787,0 
113.5718038,22.9040782,0 
113.5718038,22.9040777,0 
113.5718039,22.9040772,0 
113.5718039,22.9040766,0 
113.5718040,22.9040761,0 
113.5718042,22.9040755,0 
113.5718044,22.9040749,0 
113.5718046,22.9040742,0 
113.5718048,22.9040736,0 
113.5718051,22.9040729,0 
113.5718054,22.9040723,0 
113.5718057,22.9040716,0 
113.5718060,22.9040709,0 
113.5718064,22.9040702,0 
113.5718069,22.9040695,0 
113.5718073,22.9040687,0 
113.5718078,22.9040680,0 
113.5718083,22.9040672,0 
113.5718089,22.9040664,0 
113.5718094,22.9040656,0 
113.5718100,22.9040648,0 
113.5718107,22.9040640,0 
113.5718113,22.9040632,0 
113.5718120,22.9040623,0 
113.5718127,22.9040615,0 
113.5718135,22.9040606,0 
113.5718143,22.9040597,0 
113.5718151,22.9040588,0 
113.5718159,22.9040579,0 
113.5718167,22.9040570,0 
113.5718176,22.9040561,0 
113.5718185,22.9040552,0 
113.5718195,22.9040543,0 
113.5718204,22.9040533,0 
113.5718214,22.9040524,0 
113.5718224,22.9040515,0 
113.5718234,22.9040505,0 
113.5718245,22.9040495,0 
113.5718256,22.9040486,0 
113.5718267,22.9040476,0 
113.5718278,22.9040466,0 
113.5718290,22.9040456,0 
113.5718301,22.9040447,0 
113.5718313,22.9040437,0 
113.5718325,22.9040427,0 
113.5718337,22.9040417,0 
113.5718350,22.9040407,0 
113.5718362,22.9040397,0 
113.5718375,22.9040387,0 
113.5718388,22.9040377,0 
113.5718401,22.9040367,0 
113.5718415,22.9040357,0 
113.5718428,22.9040347,0 
113.5718442,22.9040337,0 
113.5718456,22.9040327,0 
113.5718470,22.9040318,0 
113.5718484,22.9040308,0 
113.5718498,22.9040298,0 
113.5718512,22.9040288,0 
113.5718526,22.9040278,0 
113.5718541,22.9040268,0 
113.5718555,22.9040259,0 
113.5718570,22.9040249,0 
113.5718585,22.9040240,0 
113.5718600,22.9040230,0 
113.5718615,22.9040221,0 
113.5718630,22.9040211,0 
113.5718645,22.9040202,0 
113.5718660,22.9040193,0 
113.5718675,22.9040183,0 
113.5718690,22.9040174,0 
113.5718706,22.9040165,0 
113.5718721,22.9040156,0 
113.5718736,22.9040148,0 
113.5718751,22.9040139,0 
113.5718767,22.9040130,0 
113.5718782,22.9040122,0 
113.5718797,22.9040113,0 
113.5718813,22.9040105,0 
113.5718828,22.9040097,0 
113.5718843,22.9040089,0 
113.5718858,22.9040081,0 
113.5718874,22.9040073,0 
113.5718889,22.9040065,0 
113.5718904,22.9040058,0 
113.5718919,22.9040051,0 
113.5718934,22.9040043,0 
113.5718949,22.9040036,0 
113.5718963,22.9040029,0 
113.5718978,22.9040022,0 
113.5718993,22.9040016,0 
113.5719007,22.9040009,0 
113.5719022,22.9040003,0 
113.5719036,22.9039997,0 
113.5719050,22.9039991,0 
113.5719064,22.9039985,0 
113.5719078,22.9039979,0 
113.5719092,22.9039974,0 
113.5719106,22.9039969,0 
113.5719119,22.9039963,0 
113.5719133,22.9039958,0 
113.5719146,22.9039954,0 
113.5719159,22.9039949,0 
113.5719172,22.9039945,0 
113.5719184,22.9039940,0 
113.5719197,22.9039936,0 
113.5719209,22.9039933,0 
113.5719221,22.9039929,0 
113.5719233,22.9039925,0 
113.5719245,22.9039922,0 
113.5719257,22.9039919,0 
113.5719268,22.9039916,0 
113.5719279,22.9039914,0 
113.5719290,22.9039911,0 
113.5719301,22.9039909,0 
113.5719311,22.9039907,0 
113.5719321,22.9039905,0 
113.5719331,22.9039903,0 
113.5719341,22.9039902,0 
113.5719350,22.9039901,0 
113.5719359,22.9039900,0 
113.5719368,22.9039899,0 
113.5719377,22.9039898,0 
113.5719385,22.9039898,0 
113.5719393,22.9039898,0 
113.5719401,22.9039898,0 
113.5719409,22.9039898,0 
113.5719416,22.9039898,0 
113.5719423,22.9039899,0 
113.5719430,22.9039900,0 
113.5719436,22.9039901,0 
113.5719442,22.9039902,0 
113.5719448,22.9039904,0 
113.5719454,22.9039906,0 
113.5719459,22.9039907,0 
113.5719464,22.9039910,0 
113.5719469,22.9039912,0 
113.5719473,22.9039914,0 
113.5719477,22.9039917,0 
113.5719481,22.9039920,0 
113.5719484,22.9039923,0 
113.5719487,22.9039926,0 
113.5719490,22.9039930,0 
113.5719492,22.9039934,0 
113.5719494,22.9039937,0 
113.5719496,22.9039941,0 
113.5719498,22.9039946,0 
113.5719499,22.9039950,0 
113.5719500,22.9039955,0 
113.5719500,22.9039960,0 
113.5719501,22.9039965,0 
113.5719500,22.9039970,0 
113.5719500,22.9039975,0 
113.5719499,22.9039981,0 
113.5719498,22.9039986,0 
113.5719497,22.9039992,0 
113.5719495,22.9039998,0 
113.5719493,22.9040005,0 
113.5719491,22.9040011,0 
113.5719488,22.9040018,0 
113.5719485,22.9040024,0 
113.5719482,22.9040031,0 
113.5719478,22.9040038,0 
113.5719474,22.9040045,0 
113.5719470,22.9040052,0 
113.5719466,22.9040060,0 
113.5719461,22.9040067,0 
113.5719456,22.9040075,0 
113.5719450,22.9040083,0 
113.5719444,22.9040091,0 
113.5719438,22.9040099,0 
113.5719432,22.9040107,0 
113.5719426,22.9040115,0 
113.5719419,22.9040124,0 
113.5719411,22.9040132,0 
113.5719404,22.9040141,0 
113.5719396,22.9040150,0 
113.5719388,22.9040159,0 
113.5719380,22.9040168,0 
113.5719371,22.9040177,0 
113.5719363,22.9040186,0 
113.5719353,22.9040195,0 
113.5719344,22.9040204,0 
113.5719334,22.9040214,0 
113.5719325,22.9040223,0 
113.5719315,22.9040232,0 
113.5719304,22.9040242,0 
113.5719294,22.9040252,0 
113.5719283,22.9040261,0 
113.5719272,22.9040271,0 
113.5719261,22.9040281,0 
113.5719249,22.9040291,0 
113.5719238,22.9040300,0 
113.5719226,22.9040310,0 
113.5719214,22.9040320,0 
113.5719201,22.9040330,0 
113.5719189,22.9040340,0 
113.5719176,22.9040350,0 
113.5719163,22.9040360,0 
113.5719150,22.9040370,0 
113.5719137,22.9040380,0 
113.5719124,22.9040390,0 
113.5719111,22.9040400,0 
113.5719097,22.9040410,0 
113.5719083,22.9040420,0 
113.5719069,22.9040429,0 
113.5719055,22.9040439,0 
113.5719041,22.9040449,0 
113.5719027,22.9040459,0 
113.5719012,22.9040469,0 
113.5718998,22.9040479,0 
113.5718983,22.9040488,0 
113.5718969,22.9040498,0 
113.5718954,22.9040507,0 
113.5718939,22.9040517,0 
113.5718924,22.9040526,0 
113.5718909,22.9040536,0 
113.5718894,22.9040545,0 
113.5718879,22.9040554,0 
113.5718864,22.9040564,0 
113.5718848,22.9040573,0 
113.5718833,22.9040582,0 
113.5718818,22.9040591,0 
113.5718803,22.9040599,0 
113.5718787,22.9040608,0 
113.5718772,22.9040617,0 
113.5718757,22.9040625,0 
113.5718741,22.9040634,0 
113.5718726,22.9040642,0 
113.5718711,22.9040650,0 
113.5718696,22.9040658,0 
113.5718680,22.9040666,0 
113.5718665,22.9040674,0 
113.5718650,22.9040682,0 
113.5718635,22.9040689,0 
113.5718620,22.9040696,0 
113.5718605,22.9040704,0 
113.5718590,22.9040711,0 
113.5718575,22.9040718,0 
113.5718561,22.9040725,0 
113.5718546,22.9040731,0 
113.5718531,22.9040738,0 
113.5718517,22.9040744,0 
113.5718503,22.9040750,0 
113.5718488,22.9040756,0 
113.5718474,22.9040762,0 
113.5718460,22.9040768,0 
113.5718447,22.9040773,0 
113.5718433,22.9040778,0 
113.5718419,22.9040784,0 
113.5718406,22.9040789,0 
113.5718393,22.9040793,0 
113.5718380,22.9040798,0 
113.5718367,22.9040802,0 
113.5718354,22.9040807,0 
113.5718342,22.9040811,0 
113.5718329,22.9040814,0 
113.5718317,22.9040818,0 
113.5718305,22.9040822,0 
113.5718294,22.9040825,0 
113.5718282,22.9040828,0 
113.5718271,22.9040831,0 
113.5718260,22.9040833,0 
113.5718249,22.9040836,0 
113.5718238,22.9040838,0 
113.5718228,22.9040840,0 
113.5718218,22.9040842,0 
113.5718208,22.9040844,0 
113.5718198,22.9040845,0 
113.5718189,22.9040846,0 
113.5718179,22.9040847,0 
113.5718170,22.9040848,0 
113.5718162,22.9040849,0 
113.5718153,22.9040849,0 
113.5718145,22.9040849,0 
113.5718137,22.9040849,0 
113.5718130,22.9040849,0 
113.5718123,22.9040848,0 
113.5718116,22.9040848,0 
113.5718109,22.9040847,0 
113.5718102,22.9040846,0 
113.5718096,22.9040845,0 
113.5718090,22.9040843,0 
113.5718085,22.9040841,0 
113.5718080,22.9040840,0 
113.5718075,22.9040837,0 
113.5718070,22.9040835,0 
113.5718066,22.9040833,0 
113.5718062,22.9040830,0 
113.5718058,22.9040827,0 
113.5718055,22.9040824,0 
113.5718052,22.9040821,0 
113.5718049,22.9040817,0 
</coordinates>
</LineString>
</Placemark>
</Folder>