<Folder>
<name>SV  5 294.595868 10.084547</name>
<visibility>1</visibility>
<Placemark>
<name>circle</name>
<visibility>1</visibility>
<Style>
<geomColor>FF006400</geomColor>
<geomScale>2</geomScale></Style>
<LineString>
<coordinates>
113.5715591,22.9041281,0 
113.5715588,22.9041275,0 
113.5715587,22.9041270,0 
113.5715586,22.9041263,0 
113.5715586,22.9041257,0 
113.5715586,22.9041250,0 
113.5715587,22.9041243,0 
113.5715589,22.9041236,0 
113.5715592,22.9041229,0 
113.5715595,22.9041221,0 
113.5715599,22.9041213,0 
113.5715604,22.9041205,0 
113.5715609,22.9041196,0 
113.5715615,22.9041187,0 
113.5715622,22.9041178,0 
113.5715629,22.9041169,0 
113.5715637,22.9041159,0 
113.5715646,22.9041150,0 
113.5715655,22.9041140,0 
113.5715665,22.9041129,0 
113.5715676,22.9041119,0 
113.5715688,22.9041108,0 
113.5715700,22.9041097,0 
113.5715712,22.9041086,0 
113.5715726,22.9041075,0 
113.5715740,22.9041063,0 
113.5715754,22.9041052,0 
113.5715770,22.9041040,0 
113.5715785,22.9041027,0 
113.5715802,22.9041015,0 
113.5715819,22.9041003,0 
113.5715837,22.9040990,0 
113.5715855,22.9040977,0 
113.5715874,22.9040964,0 
113.5715893,22.9040951,0 
113.5715913,22.9040938,0 
113.5715934,22.9040924,0 
113.5715955,22.9040911,0 
113.5715976,22.9040897,0 
113.5715999,22.9040883,0 
113.5716021,22.9040869,0 
113.5716044,22.9040855,0 
113.5716068,22.9040841,0 
113.5716092,22.9040827,0 
113.5716117,22.9040812,0 
113.5716142,22.9040798,0 
113.5716167,22.9040783,0 
113.5716193,22.9040769,0 
113.5716220,22.9040754,0 
113.5716247,22.9040739,0 
113.5716274,22.9040725,0 
113.5716302,22.9040710,0 
113.5716330,22.9040695,0 
113.5716358,22.9040680,0 
113.5716387,22.9040665,0 
113.5716416,22.9040650,0 
113.5716445,22.9040635,0 
113.5716475,22.9040620,0 
113.5716505,22.9040605,0 
113.5716536,22.9040590,0 
113.5716566,22.9040575,0 
113.5716597,22.9040560,0 
113.5716628,22.9040545,0 
113.5716660,22.9040530,0 
113.5716691,22.9040515,0 
113.5716723,22.9040501,0 
113.5716755,22.9040486,0 
113.5716787,22.9040471,0 
113.5716820,22.9040456,0 
113.5716852,22.9040442,0 
113.5716885,22.9040427,0 
113.5716918,22.9040413,0 
113.5716951,22.9040398,0 
113.5716984,22.9040384,0 
113.5717017,22.9040370,0 
113.5717050,22.9040356,0 
113.5717084,22.9040342,0 
113.5717117,22.9040328,0 
113.5717150,22.9040314,0 
113.5717183,22.9040301,0 
113.5717217,22.9040287,0 
113.5717250,22.9040274,0 
113.5717283,22.9040261,0 
113.5717317,22.9040248,0 
113.5717350,22.9040235,0 
113.5717383,22.9040222,0 
113.5717416,22.9040210,0 
113.5717449,22.9040198,0 
113.5717482,22.9040185,0 
113.5717514,22.9040173,0 
113.5717547,22.9040162,0 
113.5717579,22.9040150,0 
113.5717611,22.9040139,0 
113.5717643,22.9040128,0 
113.5717675,22.9040117,0 
113.5717707,22.9040106,0 
113.5717738,22.9040095,0 
113.5717769,22.9040085,0 
113.5717800,22.9040075,0 
113.5717830,22.9040065,0 
113.5717861,22.9040056,0 
113.5717891,22.9040046,0 
113.5717920,22.9040037,0 
113.5717950,22.9040028,0 
113.5717979,22.9040020,0 
113.5718007,22.9040012,0 
113.5718035,22.9040003,0 
113.5718063,22.9039996,0 
113.5718091,22.9039988,0 
113.5718118,22.9039981,0 
113.5718145,22.9039974,0 
113.5718171,22.9039967,0 
113.5718197,22.9039961,0 
113.5718222,22.9039955,0 
113.5718247,22.9039949,0 
113.5718271,22.9039943,0 
113.5718295,22.9039938,0 
113.5718319,22.9039933,0 
113.5718342,22.9039929,0 
113.5718364,22.9039924,0 
113.5718386,22.9039920,0 
113.5718408,22.9039916,0 
113.5718429,22.9039913,0 
113.5718449,22.9039910,0 
113.5718469,22.9039907,0 
113.5718488,22.9039904,0 
113.5718507,22.9039902,0 
113.5718525,22.9039900,0 
113.5718542,22.9039899,0 
113.5718559,22.9039897,0 
113.5718575,22.9039897,0 
113.5718591,22.9039896,0 
113.5718606,22.9039896,0 
113.5718620,22.9039896,0 
113.5718634,22.9039896,0 
113.5718647,22.9039896,0 
113.5718660,22.9039897,0 
113.5718671,22.9039899,0 
113.5718683,22.9039900,0 
113.5718693,22.9039902,0 
113.5718703,22.9039904,0 
113.5718712,22.9039907,0 
113.5718721,22.9039909,0 
113.5718729,22.9039913,0 
113.5718736,22.9039916,0 
113.5718742,22.9039920,0 
113.5718748,22.9039924,0 
113.5718753,22.9039928,0 
113.5718757,22.9039933,0 
113.5718761,22.9039938,0 
113.5718764,22.9039943,0 
113.5718766,22.9039948,0 
113.5718768,22.9039954,0 
113.5718769,22.9039960,0 
113.5718769,22.9039967,0 
113.5718769,22.9039973,0 
113.5718768,22.9039980,0 
113.5718766,22.9039987,0 
113.5718763,22.9039995,0 
113.5718760,22.9040003,0 
113.5718756,22.9040011,0 
113.5718751,22.9040019,0 
113.5718746,22.9040027,0 
113.5718740,22.9040036,0 
113.5718733,22.9040045,0 
113.5718726,22.9040055,0 
113.5718718,22.9040064,0 
113.5718709,22.9040074,0 
113.5718699,22.9040084,0 
113.5718689,22.9040094,0 
113.5718679,22.9040105,0 
113.5718667,22.9040115,0 
113.5718655,22.9040126,0 
113.5718642,22.9040137,0 
113.5718629,22.9040149,0 
113.5718615,22.9040160,0 
113.5718600,22.9040172,0 
113.5718585,22.9040184,0 
113.5718569,22.9040196,0 
113.5718553,22.9040209,0 
113.5718536,22.9040221,0 
113.5718518,22.9040234,0 
113.5718500,22.9040246,0 
113.5718481,22.9040259,0 
113.5718462,22.9040273,0 
113.5718442,22.9040286,0 
113.5718421,22.9040299,0 
113.5718400,22.9040313,0 
113.5718378,22.9040327,0 
113.5718356,22.9040340,0 
113.5718334,22.9040354,0 
113.5718310,22.9040368,0 
113.5718287,22.9040383,0 
113.5718263,22.9040397,0 
113.5718238,22.9040411,0 
113.5718213,22.9040426,0 
113.5718187,22.9040440,0 
113.5718161,22.9040455,0 
113.5718135,22.9040469,0 
113.5718108,22.9040484,0 
113.5718081,22.9040499,0 
113.5718053,22.9040514,0 
113.5718025,22.9040529,0 
113.5717997,22.9040544,0 
113.5717968,22.9040559,0 
113.5717939,22.9040573,0 
113.5717910,22.9040588,0 
113.5717880,22.9040603,0 
113.5717850,22.9040618,0 
113.5717819,22.9040633,0 
113.5717789,22.9040648,0 
113.5717758,22.9040663,0 
113.5717727,22.9040678,0 
113.5717695,22.9040693,0 
113.5717664,22.9040708,0 
113.5717632,22.9040723,0 
113.5717600,22.9040738,0 
113.5717567,22.9040753,0 
113.5717535,22.9040767,0 
113.5717502,22.9040782,0 
113.5717470,22.9040796,0 
113.5717437,22.9040811,0 
113.5717404,22.9040825,0 
113.5717371,22.9040839,0 
113.5717338,22.9040854,0 
113.5717305,22.9040868,0 
113.5717271,22.9040882,0 
113.5717238,22.9040896,0 
113.5717205,22.9040909,0 
113.5717171,22.9040923,0 
113.5717138,22.9040936,0 
113.5717105,22.9040950,0 
113.5717071,22.9040963,0 
113.5717038,22.9040976,0 
113.5717005,22.9040989,0 
113.5716972,22.9041001,0 
113.5716939,22.9041014,0 
113.5716906,22.9041026,0 
113.5716873,22.9041038,0 
113.5716841,22.9041050,0 
113.5716808,22.9041062,0 
113.5716776,22.9041074,0 
113.5716744,22.9041085,0 
113.5716712,22.9041096,0 
113.5716680,22.9041107,0 
113.5716648,22.9041118,0 
113.5716617,22.9041128,0 
113.5716586,22.9041139,0 
113.5716555,22.9041149,0 
113.5716524,22.9041158,0 
113.5716494,22.9041168,0 
113.5716464,22.9041177,0 
113.5716435,22.9041186,0 
113.5716405,22.9041195,0 
113.5716376,22.9041204,0 
113.5716348,22.9041212,0 
113.5716319,22.9041220,0 
113.5716292,22.9041228,0 
113.5716264,22.9041235,0 
113.5716237,22.9041243,0 
113.5716210,22.9041250,0 
113.5716184,22.9041256,0 
113.5716158,22.9041263,0 
113.5716133,22.9041269,0 
113.5716108,22.9041275,0 
113.5716083,22.9041280,0 
113.5716059,22.9041285,0 
113.5716036,22.9041290,0 
113.5716013,22.9041295,0 
113.5715990,22.9041299,0 
113.5715969,22.9041303,0 
113.5715947,22.9041307,0 
113.5715926,22.9041311,0 
113.5715906,22.9041314,0 
113.5715886,22.9041317,0 
113.5715867,22.9041319,0 
113.5715848,22.9041321,0 
113.5715830,22.9041323,0 
113.5715813,22.9041325,0 
113.5715796,22.9041326,0 
113.5715780,22.9041327,0 
113.5715764,22.9041328,0 
113.5715749,22.9041328,0 
113.5715735,22.9041328,0 
113.5715721,22.9041328,0 
113.5715708,22.9041327,0 
113.5715695,22.9041326,0 
113.5715683,22.9041325,0 
113.5715672,22.9041323,0 
113.5715662,22.9041322,0 
113.5715652,22.9041319,0 
113.5715643,22.9041317,0 
113.5715634,22.9041314,0 
113.5715626,22.9041311,0 
113.5715619,22.9041308,0 
113.5715613,22.9041304,0 
113.5715607,22.9041300,0 
113.5715602,22.9041296,0 
113.5715597,22.9041291,0 
113.5715594,22.9041286,0 
113.5715591,22.9041281,0 
</coordinates>
</LineString>
</Placemark>
</Folder>