<Folder>
<name>SV 32 246.780010 6.992479</name>
<visibility>1</visibility>
<Placemark>
<name>circle</name>
<visibility>1</visibility>
<Style>
<geomColor></geomColor>
<geomScale>2</geomScale></Style>
<LineString>
<coordinates>
113.5712814,22.9035765,0 
113.5712818,22.9035759,0 
113.5712822,22.9035754,0 
113.5712827,22.9035749,0 
113.5712834,22.9035745,0 
113.5712842,22.9035741,0 
113.5712850,22.9035738,0 
113.5712860,22.9035735,0 
113.5712871,22.9035732,0 
113.5712883,22.9035730,0 
113.5712896,22.9035728,0 
113.5712910,22.9035727,0 
113.5712925,22.9035726,0 
113.5712942,22.9035726,0 
113.5712959,22.9035726,0 
113.5712977,22.9035727,0 
113.5712996,22.9035728,0 
113.5713017,22.9035729,0 
113.5713038,22.9035731,0 
113.5713060,22.9035734,0 
113.5713084,22.9035736,0 
113.5713108,22.9035740,0 
113.5713133,22.9035743,0 
113.5713160,22.9035748,0 
113.5713187,22.9035752,0 
113.5713215,22.9035757,0 
113.5713244,22.9035763,0 
113.5713274,22.9035769,0 
113.5713305,22.9035775,0 
113.5713336,22.9035782,0 
113.5713369,22.9035789,0 
113.5713402,22.9035797,0 
113.5713437,22.9035805,0 
113.5713472,22.9035813,0 
113.5713508,22.9035822,0 
113.5713544,22.9035831,0 
113.5713582,22.9035841,0 
113.5713620,22.9035851,0 
113.5713659,22.9035862,0 
113.5713699,22.9035872,0 
113.5713739,22.9035884,0 
113.5713780,22.9035895,0 
113.5713822,22.9035907,0 
113.5713864,22.9035920,0 
113.5713908,22.9035933,0 
113.5713951,22.9035946,0 
113.5713996,22.9035959,0 
113.5714040,22.9035973,0 
113.5714086,22.9035987,0 
113.5714132,22.9036002,0 
113.5714178,22.9036016,0 
113.5714225,22.9036032,0 
113.5714273,22.9036047,0 
113.5714321,22.9036063,0 
113.5714369,22.9036079,0 
113.5714418,22.9036095,0 
113.5714467,22.9036112,0 
113.5714517,22.9036129,0 
113.5714566,22.9036146,0 
113.5714617,22.9036164,0 
113.5714667,22.9036181,0 
113.5714718,22.9036199,0 
113.5714769,22.9036218,0 
113.5714820,22.9036236,0 
113.5714872,22.9036255,0 
113.5714924,22.9036274,0 
113.5714976,22.9036293,0 
113.5715028,22.9036312,0 
113.5715080,22.9036332,0 
113.5715132,22.9036351,0 
113.5715184,22.9036371,0 
113.5715237,22.9036391,0 
113.5715289,22.9036412,0 
113.5715342,22.9036432,0 
113.5715394,22.9036453,0 
113.5715447,22.9036473,0 
113.5715499,22.9036494,0 
113.5715551,22.9036515,0 
113.5715604,22.9036536,0 
113.5715656,22.9036557,0 
113.5715707,22.9036578,0 
113.5715759,22.9036599,0 
113.5715811,22.9036621,0 
113.5715862,22.9036642,0 
113.5715913,22.9036663,0 
113.5715964,22.9036685,0 
113.5716014,22.9036706,0 
113.5716065,22.9036728,0 
113.5716115,22.9036749,0 
113.5716164,22.9036771,0 
113.5716213,22.9036792,0 
113.5716262,22.9036814,0 
113.5716311,22.9036835,0 
113.5716358,22.9036857,0 
113.5716406,22.9036878,0 
113.5716453,22.9036900,0 
113.5716499,22.9036921,0 
113.5716545,22.9036942,0 
113.5716591,22.9036963,0 
113.5716636,22.9036984,0 
113.5716680,22.9037005,0 
113.5716724,22.9037026,0 
113.5716767,22.9037047,0 
113.5716809,22.9037067,0 
113.5716851,22.9037088,0 
113.5716892,22.9037108,0 
113.5716933,22.9037128,0 
113.5716972,22.9037148,0 
113.5717011,22.9037168,0 
113.5717050,22.9037187,0 
113.5717087,22.9037207,0 
113.5717124,22.9037226,0 
113.5717160,22.9037245,0 
113.5717195,22.9037264,0 
113.5717229,22.9037282,0 
113.5717263,22.9037301,0 
113.5717295,22.9037319,0 
113.5717327,22.9037337,0 
113.5717358,22.9037354,0 
113.5717388,22.9037372,0 
113.5717417,22.9037389,0 
113.5717445,22.9037405,0 
113.5717472,22.9037422,0 
113.5717498,22.9037438,0 
113.5717524,22.9037454,0 
113.5717548,22.9037470,0 
113.5717571,22.9037485,0 
113.5717594,22.9037500,0 
113.5717615,22.9037515,0 
113.5717635,22.9037529,0 
113.5717655,22.9037543,0 
113.5717673,22.9037556,0 
113.5717690,22.9037570,0 
113.5717706,22.9037583,0 
113.5717722,22.9037595,0 
113.5717736,22.9037607,0 
113.5717749,22.9037619,0 
113.5717761,22.9037631,0 
113.5717772,22.9037642,0 
113.5717781,22.9037652,0 
113.5717790,22.9037662,0 
113.5717798,22.9037672,0 
113.5717805,22.9037682,0 
113.5717810,22.9037691,0 
113.5717814,22.9037699,0 
113.5717818,22.9037708,0 
113.5717820,22.9037715,0 
113.5717821,22.9037723,0 
113.5717821,22.9037730,0 
113.5717820,22.9037736,0 
113.5717818,22.9037742,0 
113.5717814,22.9037748,0 
113.5717810,22.9037753,0 
113.5717805,22.9037758,0 
113.5717798,22.9037762,0 
113.5717790,22.9037766,0 
113.5717782,22.9037770,0 
113.5717772,22.9037773,0 
113.5717761,22.9037775,0 
113.5717749,22.9037777,0 
113.5717736,22.9037779,0 
113.5717722,22.9037780,0 
113.5717707,22.9037781,0 
113.5717690,22.9037781,0 
113.5717673,22.9037781,0 
113.5717655,22.9037781,0 
113.5717636,22.9037780,0 
113.5717615,22.9037778,0 
113.5717594,22.9037776,0 
113.5717572,22.9037774,0 
113.5717548,22.9037771,0 
113.5717524,22.9037768,0 
113.5717499,22.9037764,0 
113.5717473,22.9037760,0 
113.5717445,22.9037755,0 
113.5717417,22.9037750,0 
113.5717388,22.9037745,0 
113.5717358,22.9037739,0 
113.5717327,22.9037732,0 
113.5717296,22.9037726,0 
113.5717263,22.9037718,0 
113.5717230,22.9037711,0 
113.5717195,22.9037703,0 
113.5717160,22.9037694,0 
113.5717124,22.9037685,0 
113.5717088,22.9037676,0 
113.5717050,22.9037666,0 
113.5717012,22.9037656,0 
113.5716973,22.9037646,0 
113.5716933,22.9037635,0 
113.5716893,22.9037624,0 
113.5716852,22.9037612,0 
113.5716810,22.9037600,0 
113.5716768,22.9037588,0 
113.5716724,22.9037575,0 
113.5716681,22.9037562,0 
113.5716636,22.9037548,0 
113.5716592,22.9037535,0 
113.5716546,22.9037520,0 
113.5716500,22.9037506,0 
113.5716454,22.9037491,0 
113.5716407,22.9037476,0 
113.5716359,22.9037460,0 
113.5716311,22.9037445,0 
113.5716263,22.9037429,0 
113.5716214,22.9037412,0 
113.5716165,22.9037395,0 
113.5716115,22.9037379,0 
113.5716066,22.9037361,0 
113.5716015,22.9037344,0 
113.5715965,22.9037326,0 
113.5715914,22.9037308,0 
113.5715863,22.9037290,0 
113.5715812,22.9037271,0 
113.5715760,22.9037253,0 
113.5715708,22.9037234,0 
113.5715656,22.9037215,0 
113.5715604,22.9037195,0 
113.5715552,22.9037176,0 
113.5715500,22.9037156,0 
113.5715448,22.9037136,0 
113.5715395,22.9037116,0 
113.5715343,22.9037096,0 
113.5715290,22.9037075,0 
113.5715238,22.9037055,0 
113.5715185,22.9037034,0 
113.5715133,22.9037014,0 
113.5715081,22.9036993,0 
113.5715029,22.9036972,0 
113.5714976,22.9036951,0 
113.5714925,22.9036929,0 
113.5714873,22.9036908,0 
113.5714821,22.9036887,0 
113.5714770,22.9036865,0 
113.5714719,22.9036844,0 
113.5714668,22.9036823,0 
113.5714618,22.9036801,0 
113.5714567,22.9036780,0 
113.5714517,22.9036758,0 
113.5714468,22.9036737,0 
113.5714419,22.9036715,0 
113.5714370,22.9036694,0 
113.5714322,22.9036672,0 
113.5714274,22.9036651,0 
113.5714226,22.9036629,0 
113.5714179,22.9036608,0 
113.5714133,22.9036587,0 
113.5714087,22.9036565,0 
113.5714041,22.9036544,0 
113.5713996,22.9036523,0 
113.5713952,22.9036502,0 
113.5713908,22.9036482,0 
113.5713865,22.9036461,0 
113.5713823,22.9036440,0 
113.5713781,22.9036420,0 
113.5713740,22.9036400,0 
113.5713699,22.9036379,0 
113.5713660,22.9036359,0 
113.5713621,22.9036340,0 
113.5713582,22.9036320,0 
113.5713545,22.9036301,0 
113.5713508,22.9036281,0 
113.5713472,22.9036262,0 
113.5713437,22.9036244,0 
113.5713403,22.9036225,0 
113.5713369,22.9036207,0 
113.5713337,22.9036189,0 
113.5713305,22.9036171,0 
113.5713274,22.9036153,0 
113.5713244,22.9036136,0 
113.5713215,22.9036119,0 
113.5713187,22.9036102,0 
113.5713160,22.9036085,0 
113.5713134,22.9036069,0 
113.5713108,22.9036053,0 
113.5713084,22.9036038,0 
113.5713061,22.9036023,0 
113.5713038,22.9036008,0 
113.5713017,22.9035993,0 
113.5712997,22.9035979,0 
113.5712977,22.9035965,0 
113.5712959,22.9035951,0 
113.5712942,22.9035938,0 
113.5712926,22.9035925,0 
113.5712910,22.9035912,0 
113.5712896,22.9035900,0 
113.5712883,22.9035888,0 
113.5712871,22.9035877,0 
113.5712860,22.9035866,0 
113.5712851,22.9035855,0 
113.5712842,22.9035845,0 
113.5712834,22.9035835,0 
113.5712828,22.9035826,0 
113.5712822,22.9035817,0 
113.5712818,22.9035808,0 
113.5712814,22.9035800,0 
113.5712812,22.9035792,0 
113.5712811,22.9035785,0 
113.5712811,22.9035778,0 
113.5712812,22.9035771,0 
113.5712814,22.9035765,0 
</coordinates>
</LineString>
</Placemark>
</Folder>