<Folder>
<name>SV 25 266.451396 13.359339</name>
<visibility>1</visibility>
<Placemark>
<name>circle</name>
<visibility>1</visibility>
<Style>
<geomColor>FFFF007A</geomColor>
<geomScale>2</geomScale></Style>
<LineString>
<coordinates>
113.5716714,22.9038755,0 
113.5716715,22.9038750,0 
113.5716716,22.9038745,0 
113.5716718,22.9038739,0 
113.5716720,22.9038734,0 
113.5716722,22.9038729,0 
113.5716726,22.9038724,0 
113.5716729,22.9038719,0 
113.5716734,22.9038714,0 
113.5716738,22.9038709,0 
113.5716744,22.9038704,0 
113.5716750,22.9038699,0 
113.5716756,22.9038694,0 
113.5716763,22.9038689,0 
113.5716770,22.9038685,0 
113.5716778,22.9038680,0 
113.5716786,22.9038675,0 
113.5716795,22.9038671,0 
113.5716804,22.9038666,0 
113.5716814,22.9038662,0 
113.5716824,22.9038658,0 
113.5716835,22.9038654,0 
113.5716846,22.9038649,0 
113.5716858,22.9038645,0 
113.5716870,22.9038641,0 
113.5716882,22.9038637,0 
113.5716895,22.9038633,0 
113.5716909,22.9038630,0 
113.5716923,22.9038626,0 
113.5716937,22.9038622,0 
113.5716952,22.9038619,0 
113.5716967,22.9038616,0 
113.5716983,22.9038612,0 
113.5716999,22.9038609,0 
113.5717015,22.9038606,0 
113.5717032,22.9038603,0 
113.5717049,22.9038600,0 
113.5717067,22.9038597,0 
113.5717085,22.9038594,0 
113.5717103,22.9038592,0 
113.5717122,22.9038589,0 
113.5717140,22.9038587,0 
113.5717160,22.9038584,0 
113.5717179,22.9038582,0 
113.5717199,22.9038580,0 
113.5717220,22.9038578,0 
113.5717240,22.9038576,0 
113.5717261,22.9038574,0 
113.5717282,22.9038572,0 
113.5717304,22.9038571,0 
113.5717325,22.9038569,0 
113.5717347,22.9038568,0 
113.5717369,22.9038567,0 
113.5717392,22.9038566,0 
113.5717415,22.9038565,0 
113.5717437,22.9038564,0 
113.5717460,22.9038563,0 
113.5717484,22.9038562,0 
113.5717507,22.9038562,0 
113.5717531,22.9038561,0 
113.5717555,22.9038561,0 
113.5717579,22.9038561,0 
113.5717603,22.9038560,0 
113.5717627,22.9038560,0 
113.5717651,22.9038561,0 
113.5717676,22.9038561,0 
113.5717700,22.9038561,0 
113.5717725,22.9038562,0 
113.5717750,22.9038562,0 
113.5717774,22.9038563,0 
113.5717799,22.9038564,0 
113.5717824,22.9038565,0 
113.5717849,22.9038566,0 
113.5717874,22.9038567,0 
113.5717899,22.9038568,0 
113.5717924,22.9038569,0 
113.5717949,22.9038571,0 
113.5717974,22.9038572,0 
113.5717999,22.9038574,0 
113.5718024,22.9038576,0 
113.5718049,22.9038578,0 
113.5718073,22.9038580,0 
113.5718098,22.9038582,0 
113.5718123,22.9038584,0 
113.5718147,22.9038587,0 
113.5718172,22.9038589,0 
113.5718196,22.9038592,0 
113.5718220,22.9038594,0 
113.5718244,22.9038597,0 
113.5718268,22.9038600,0 
113.5718292,22.9038603,0 
113.5718315,22.9038606,0 
113.5718339,22.9038609,0 
113.5718362,22.9038612,0 
113.5718385,22.9038616,0 
113.5718408,22.9038619,0 
113.5718430,22.9038623,0 
113.5718453,22.9038626,0 
113.5718475,22.9038630,0 
113.5718497,22.9038634,0 
113.5718518,22.9038638,0 
113.5718540,22.9038641,0 
113.5718561,22.9038645,0 
113.5718581,22.9038650,0 
113.5718602,22.9038654,0 
113.5718622,22.9038658,0 
113.5718642,22.9038662,0 
113.5718661,22.9038667,0 
113.5718681,22.9038671,0 
113.5718699,22.9038676,0 
113.5718718,22.9038680,0 
113.5718736,22.9038685,0 
113.5718754,22.9038690,0 
113.5718771,22.9038694,0 
113.5718788,22.9038699,0 
113.5718805,22.9038704,0 
113.5718821,22.9038709,0 
113.5718837,22.9038714,0 
113.5718852,22.9038719,0 
113.5718867,22.9038724,0 
113.5718882,22.9038729,0 
113.5718896,22.9038734,0 
113.5718910,22.9038740,0 
113.5718923,22.9038745,0 
113.5718936,22.9038750,0 
113.5718949,22.9038755,0 
113.5718961,22.9038761,0 
113.5718972,22.9038766,0 
113.5718983,22.9038771,0 
113.5718994,22.9038777,0 
113.5719004,22.9038782,0 
113.5719013,22.9038788,0 
113.5719022,22.9038793,0 
113.5719031,22.9038799,0 
113.5719039,22.9038804,0 
113.5719047,22.9038810,0 
113.5719054,22.9038815,0 
113.5719061,22.9038821,0 
113.5719067,22.9038826,0 
113.5719072,22.9038832,0 
113.5719077,22.9038837,0 
113.5719082,22.9038843,0 
113.5719086,22.9038848,0 
113.5719090,22.9038854,0 
113.5719093,22.9038859,0 
113.5719095,22.9038865,0 
113.5719097,22.9038870,0 
113.5719099,22.9038875,0 
113.5719100,22.9038881,0 
113.5719100,22.9038886,0 
113.5719100,22.9038891,0 
113.5719099,22.9038897,0 
113.5719098,22.9038902,0 
113.5719096,22.9038907,0 
113.5719094,22.9038912,0 
113.5719092,22.9038918,0 
113.5719088,22.9038923,0 
113.5719085,22.9038928,0 
113.5719080,22.9038933,0 
113.5719076,22.9038938,0 
113.5719070,22.9038943,0 
113.5719064,22.9038948,0 
113.5719058,22.9038952,0 
113.5719051,22.9038957,0 
113.5719044,22.9038962,0 
113.5719036,22.9038967,0 
113.5719028,22.9038971,0 
113.5719019,22.9038976,0 
113.5719010,22.9038980,0 
113.5719000,22.9038985,0 
113.5718990,22.9038989,0 
113.5718979,22.9038993,0 
113.5718968,22.9038997,0 
113.5718956,22.9039001,0 
113.5718944,22.9039005,0 
113.5718932,22.9039009,0 
113.5718918,22.9039013,0 
113.5718905,22.9039017,0 
113.5718891,22.9039021,0 
113.5718877,22.9039024,0 
113.5718862,22.9039028,0 
113.5718847,22.9039031,0 
113.5718831,22.9039034,0 
113.5718815,22.9039038,0 
113.5718799,22.9039041,0 
113.5718782,22.9039044,0 
113.5718765,22.9039047,0 
113.5718747,22.9039050,0 
113.5718729,22.9039052,0 
113.5718711,22.9039055,0 
113.5718692,22.9039058,0 
113.5718674,22.9039060,0 
113.5718654,22.9039062,0 
113.5718635,22.9039065,0 
113.5718615,22.9039067,0 
113.5718594,22.9039069,0 
113.5718574,22.9039071,0 
113.5718553,22.9039072,0 
113.5718532,22.9039074,0 
113.5718510,22.9039076,0 
113.5718489,22.9039077,0 
113.5718467,22.9039079,0 
113.5718445,22.9039080,0 
113.5718422,22.9039081,0 
113.5718399,22.9039082,0 
113.5718377,22.9039083,0 
113.5718353,22.9039084,0 
113.5718330,22.9039084,0 
113.5718307,22.9039085,0 
113.5718283,22.9039085,0 
113.5718259,22.9039086,0 
113.5718235,22.9039086,0 
113.5718211,22.9039086,0 
113.5718187,22.9039086,0 
113.5718163,22.9039086,0 
113.5718138,22.9039086,0 
113.5718114,22.9039085,0 
113.5718089,22.9039085,0 
113.5718064,22.9039084,0 
113.5718040,22.9039084,0 
113.5718015,22.9039083,0 
113.5717990,22.9039082,0 
113.5717965,22.9039081,0 
113.5717940,22.9039080,0 
113.5717915,22.9039079,0 
113.5717890,22.9039077,0 
113.5717865,22.9039076,0 
113.5717840,22.9039074,0 
113.5717815,22.9039072,0 
113.5717790,22.9039071,0 
113.5717765,22.9039069,0 
113.5717741,22.9039067,0 
113.5717716,22.9039065,0 
113.5717691,22.9039062,0 
113.5717667,22.9039060,0 
113.5717642,22.9039057,0 
113.5717618,22.9039055,0 
113.5717594,22.9039052,0 
113.5717570,22.9039050,0 
113.5717546,22.9039047,0 
113.5717522,22.9039044,0 
113.5717499,22.9039041,0 
113.5717475,22.9039038,0 
113.5717452,22.9039034,0 
113.5717429,22.9039031,0 
113.5717406,22.9039028,0 
113.5717384,22.9039024,0 
113.5717361,22.9039020,0 
113.5717339,22.9039017,0 
113.5717317,22.9039013,0 
113.5717296,22.9039009,0 
113.5717274,22.9039005,0 
113.5717253,22.9039001,0 
113.5717233,22.9038997,0 
113.5717212,22.9038993,0 
113.5717192,22.9038989,0 
113.5717172,22.9038984,0 
113.5717153,22.9038980,0 
113.5717133,22.9038976,0 
113.5717115,22.9038971,0 
113.5717096,22.9038966,0 
113.5717078,22.9038962,0 
113.5717060,22.9038957,0 
113.5717043,22.9038952,0 
113.5717026,22.9038947,0 
113.5717009,22.9038943,0 
113.5716993,22.9038938,0 
113.5716977,22.9038933,0 
113.5716962,22.9038928,0 
113.5716946,22.9038923,0 
113.5716932,22.9038917,0 
113.5716918,22.9038912,0 
113.5716904,22.9038907,0 
113.5716891,22.9038902,0 
113.5716878,22.9038897,0 
113.5716865,22.9038891,0 
113.5716853,22.9038886,0 
113.5716842,22.9038881,0 
113.5716831,22.9038875,0 
113.5716820,22.9038870,0 
113.5716810,22.9038864,0 
113.5716801,22.9038859,0 
113.5716792,22.9038853,0 
113.5716783,22.9038848,0 
113.5716775,22.9038842,0 
113.5716767,22.9038837,0 
113.5716760,22.9038831,0 
113.5716753,22.9038826,0 
113.5716747,22.9038820,0 
113.5716742,22.9038815,0 
113.5716737,22.9038809,0 
113.5716732,22.9038804,0 
113.5716728,22.9038798,0 
113.5716724,22.9038793,0 
113.5716721,22.9038788,0 
113.5716719,22.9038782,0 
113.5716717,22.9038777,0 
113.5716715,22.9038771,0 
113.5716714,22.9038766,0 
113.5716714,22.9038760,0 
113.5716714,22.9038755,0 
</coordinates>
</LineString>
</Placemark>
</Folder>