<Folder>
<name>SV  2 294.599224 7.119047</name>
<visibility>1</visibility>
<Placemark>
<name>circle</name>
<visibility>1</visibility>
<Style>
<geomColor></geomColor>
<geomScale>2</geomScale></Style>
<LineString>
<coordinates>
113.5713079,22.9042340,0 
113.5713077,22.9042334,0 
113.5713076,22.9042328,0 
113.5713075,22.9042321,0 
113.5713076,22.9042314,0 
113.5713078,22.9042306,0 
113.5713081,22.9042298,0 
113.5713085,22.9042289,0 
113.5713090,22.9042280,0 
113.5713096,22.9042271,0 
113.5713103,22.9042261,0 
113.5713112,22.9042251,0 
113.5713121,22.9042240,0 
113.5713131,22.9042229,0 
113.5713142,22.9042218,0 
113.5713155,22.9042206,0 
113.5713168,22.9042193,0 
113.5713183,22.9042181,0 
113.5713198,22.9042168,0 
113.5713214,22.9042154,0 
113.5713232,22.9042141,0 
113.5713250,22.9042127,0 
113.5713270,22.9042112,0 
113.5713290,22.9042097,0 
113.5713311,22.9042082,0 
113.5713333,22.9042067,0 
113.5713357,22.9042051,0 
113.5713381,22.9042035,0 
113.5713406,22.9042019,0 
113.5713432,22.9042002,0 
113.5713459,22.9041985,0 
113.5713487,22.9041967,0 
113.5713515,22.9041950,0 
113.5713545,22.9041932,0 
113.5713575,22.9041914,0 
113.5713606,22.9041896,0 
113.5713638,22.9041877,0 
113.5713671,22.9041858,0 
113.5713705,22.9041839,0 
113.5713739,22.9041820,0 
113.5713774,22.9041800,0 
113.5713810,22.9041780,0 
113.5713847,22.9041760,0 
113.5713885,22.9041740,0 
113.5713923,22.9041720,0 
113.5713961,22.9041699,0 
113.5714001,22.9041679,0 
113.5714041,22.9041658,0 
113.5714082,22.9041637,0 
113.5714123,22.9041616,0 
113.5714165,22.9041594,0 
113.5714208,22.9041573,0 
113.5714251,22.9041552,0 
113.5714294,22.9041530,0 
113.5714339,22.9041508,0 
113.5714383,22.9041487,0 
113.5714428,22.9041465,0 
113.5714474,22.9041443,0 
113.5714520,22.9041421,0 
113.5714567,22.9041399,0 
113.5714613,22.9041377,0 
113.5714661,22.9041355,0 
113.5714708,22.9041333,0 
113.5714756,22.9041311,0 
113.5714805,22.9041289,0 
113.5714853,22.9041267,0 
113.5714902,22.9041245,0 
113.5714951,22.9041223,0 
113.5715001,22.9041201,0 
113.5715050,22.9041179,0 
113.5715100,22.9041157,0 
113.5715150,22.9041136,0 
113.5715200,22.9041114,0 
113.5715250,22.9041092,0 
113.5715301,22.9041071,0 
113.5715351,22.9041050,0 
113.5715401,22.9041028,0 
113.5715452,22.9041007,0 
113.5715503,22.9040986,0 
113.5715553,22.9040966,0 
113.5715604,22.9040945,0 
113.5715654,22.9040925,0 
113.5715704,22.9040904,0 
113.5715755,22.9040884,0 
113.5715805,22.9040864,0 
113.5715855,22.9040845,0 
113.5715905,22.9040825,0 
113.5715954,22.9040806,0 
113.5716004,22.9040787,0 
113.5716053,22.9040768,0 
113.5716102,22.9040749,0 
113.5716151,22.9040731,0 
113.5716199,22.9040713,0 
113.5716247,22.9040695,0 
113.5716295,22.9040678,0 
113.5716342,22.9040660,0 
113.5716390,22.9040643,0 
113.5716436,22.9040627,0 
113.5716482,22.9040610,0 
113.5716528,22.9040594,0 
113.5716574,22.9040579,0 
113.5716618,22.9040563,0 
113.5716663,22.9040548,0 
113.5716707,22.9040534,0 
113.5716750,22.9040519,0 
113.5716793,22.9040505,0 
113.5716835,22.9040492,0 
113.5716877,22.9040478,0 
113.5716918,22.9040465,0 
113.5716958,22.9040453,0 
113.5716998,22.9040441,0 
113.5717037,22.9040429,0 
113.5717075,22.9040418,0 
113.5717113,22.9040407,0 
113.5717150,22.9040396,0 
113.5717186,22.9040386,0 
113.5717222,22.9040376,0 
113.5717256,22.9040367,0 
113.5717290,22.9040358,0 
113.5717324,22.9040349,0 
113.5717356,22.9040341,0 
113.5717387,22.9040334,0 
113.5717418,22.9040326,0 
113.5717448,22.9040320,0 
113.5717477,22.9040313,0 
113.5717505,22.9040308,0 
113.5717532,22.9040302,0 
113.5717559,22.9040297,0 
113.5717584,22.9040293,0 
113.5717609,22.9040289,0 
113.5717632,22.9040285,0 
113.5717655,22.9040282,0 
113.5717677,22.9040279,0 
113.5717698,22.9040277,0 
113.5717717,22.9040275,0 
113.5717736,22.9040274,0 
113.5717754,22.9040273,0 
113.5717771,22.9040272,0 
113.5717787,22.9040272,0 
113.5717801,22.9040273,0 
113.5717815,22.9040274,0 
113.5717828,22.9040275,0 
113.5717840,22.9040277,0 
113.5717850,22.9040280,0 
113.5717860,22.9040282,0 
113.5717869,22.9040286,0 
113.5717876,22.9040289,0 
113.5717883,22.9040294,0 
113.5717888,22.9040298,0 
113.5717893,22.9040303,0 
113.5717896,22.9040309,0 
113.5717899,22.9040315,0 
113.5717900,22.9040321,0 
113.5717900,22.9040328,0 
113.5717899,22.9040336,0 
113.5717897,22.9040343,0 
113.5717894,22.9040351,0 
113.5717890,22.9040360,0 
113.5717885,22.9040369,0 
113.5717879,22.9040378,0 
113.5717872,22.9040388,0 
113.5717864,22.9040399,0 
113.5717855,22.9040409,0 
113.5717844,22.9040420,0 
113.5717833,22.9040432,0 
113.5717821,22.9040444,0 
113.5717807,22.9040456,0 
113.5717793,22.9040468,0 
113.5717777,22.9040481,0 
113.5717761,22.9040495,0 
113.5717744,22.9040509,0 
113.5717725,22.9040523,0 
113.5717706,22.9040537,0 
113.5717685,22.9040552,0 
113.5717664,22.9040567,0 
113.5717642,22.9040582,0 
113.5717619,22.9040598,0 
113.5717595,22.9040614,0 
113.5717569,22.9040631,0 
113.5717543,22.9040648,0 
113.5717517,22.9040665,0 
113.5717489,22.9040682,0 
113.5717460,22.9040699,0 
113.5717431,22.9040717,0 
113.5717400,22.9040735,0 
113.5717369,22.9040754,0 
113.5717337,22.9040772,0 
113.5717304,22.9040791,0 
113.5717270,22.9040810,0 
113.5717236,22.9040830,0 
113.5717201,22.9040849,0 
113.5717165,22.9040869,0 
113.5717128,22.9040889,0 
113.5717091,22.9040909,0 
113.5717053,22.9040930,0 
113.5717014,22.9040950,0 
113.5716974,22.9040971,0 
113.5716934,22.9040992,0 
113.5716894,22.9041013,0 
113.5716852,22.9041034,0 
113.5716810,22.9041055,0 
113.5716768,22.9041076,0 
113.5716725,22.9041098,0 
113.5716681,22.9041119,0 
113.5716637,22.9041141,0 
113.5716592,22.9041163,0 
113.5716547,22.9041185,0 
113.5716501,22.9041206,0 
113.5716455,22.9041228,0 
113.5716409,22.9041250,0 
113.5716362,22.9041272,0 
113.5716315,22.9041294,0 
113.5716267,22.9041316,0 
113.5716219,22.9041338,0 
113.5716171,22.9041360,0 
113.5716122,22.9041382,0 
113.5716073,22.9041404,0 
113.5716024,22.9041426,0 
113.5715975,22.9041448,0 
113.5715925,22.9041470,0 
113.5715875,22.9041492,0 
113.5715825,22.9041514,0 
113.5715775,22.9041535,0 
113.5715725,22.9041557,0 
113.5715675,22.9041578,0 
113.5715624,22.9041600,0 
113.5715574,22.9041621,0 
113.5715523,22.9041642,0 
113.5715473,22.9041663,0 
113.5715422,22.9041684,0 
113.5715372,22.9041704,0 
113.5715321,22.9041725,0 
113.5715271,22.9041745,0 
113.5715221,22.9041765,0 
113.5715171,22.9041785,0 
113.5715121,22.9041805,0 
113.5715071,22.9041824,0 
113.5715021,22.9041844,0 
113.5714972,22.9041863,0 
113.5714922,22.9041881,0 
113.5714873,22.9041900,0 
113.5714825,22.9041918,0 
113.5714776,22.9041936,0 
113.5714728,22.9041954,0 
113.5714680,22.9041972,0 
113.5714633,22.9041989,0 
113.5714586,22.9042006,0 
113.5714539,22.9042023,0 
113.5714493,22.9042039,0 
113.5714447,22.9042055,0 
113.5714402,22.9042071,0 
113.5714357,22.9042086,0 
113.5714312,22.9042101,0 
113.5714269,22.9042116,0 
113.5714225,22.9042130,0 
113.5714183,22.9042144,0 
113.5714140,22.9042158,0 
113.5714099,22.9042171,0 
113.5714058,22.9042184,0 
113.5714017,22.9042197,0 
113.5713978,22.9042209,0 
113.5713939,22.9042220,0 
113.5713900,22.9042232,0 
113.5713862,22.9042243,0 
113.5713825,22.9042253,0 
113.5713789,22.9042263,0 
113.5713754,22.9042273,0 
113.5713719,22.9042283,0 
113.5713685,22.9042291,0 
113.5713652,22.9042300,0 
113.5713619,22.9042308,0 
113.5713588,22.9042316,0 
113.5713557,22.9042323,0 
113.5713527,22.9042330,0 
113.5713498,22.9042336,0 
113.5713470,22.9042342,0 
113.5713443,22.9042347,0 
113.5713417,22.9042352,0 
113.5713391,22.9042357,0 
113.5713367,22.9042361,0 
113.5713343,22.9042364,0 
113.5713320,22.9042368,0 
113.5713299,22.9042370,0 
113.5713278,22.9042373,0 
113.5713258,22.9042374,0 
113.5713239,22.9042376,0 
113.5713221,22.9042377,0 
113.5713205,22.9042377,0 
113.5713189,22.9042377,0 
113.5713174,22.9042376,0 
113.5713160,22.9042375,0 
113.5713147,22.9042374,0 
113.5713136,22.9042372,0 
113.5713125,22.9042370,0 
113.5713115,22.9042367,0 
113.5713107,22.9042364,0 
113.5713099,22.9042360,0 
113.5713092,22.9042356,0 
113.5713087,22.9042351,0 
113.5713083,22.9042346,0 
113.5713079,22.9042340,0 
</coordinates>
</LineString>
</Placemark>
</Folder>