<Folder>
<name>SV 25 273.779716 14.983979</name>
<visibility>1</visibility>
<Placemark>
<name>circle</name>
<visibility>1</visibility>
<Style>
<geomColor>FFFF007A</geomColor>
<geomScale>2</geomScale></Style>
<LineString>
<coordinates>
113.5717337,22.9039223,0 
113.5717337,22.9039218,0 
113.5717338,22.9039213,0 
113.5717338,22.9039208,0 
113.5717339,22.9039203,0 
113.5717341,22.9039198,0 
113.5717343,22.9039193,0 
113.5717345,22.9039188,0 
113.5717348,22.9039183,0 
113.5717352,22.9039178,0 
113.5717355,22.9039173,0 
113.5717359,22.9039168,0 
113.5717364,22.9039163,0 
113.5717369,22.9039158,0 
113.5717374,22.9039153,0 
113.5717380,22.9039148,0 
113.5717386,22.9039143,0 
113.5717393,22.9039138,0 
113.5717400,22.9039133,0 
113.5717407,22.9039128,0 
113.5717415,22.9039123,0 
113.5717423,22.9039118,0 
113.5717432,22.9039113,0 
113.5717441,22.9039108,0 
113.5717450,22.9039103,0 
113.5717460,22.9039098,0 
113.5717470,22.9039094,0 
113.5717481,22.9039089,0 
113.5717492,22.9039084,0 
113.5717503,22.9039079,0 
113.5717514,22.9039075,0 
113.5717526,22.9039070,0 
113.5717539,22.9039065,0 
113.5717551,22.9039061,0 
113.5717564,22.9039056,0 
113.5717577,22.9039052,0 
113.5717591,22.9039047,0 
113.5717605,22.9039043,0 
113.5717619,22.9039039,0 
113.5717634,22.9039034,0 
113.5717649,22.9039030,0 
113.5717664,22.9039026,0 
113.5717679,22.9039022,0 
113.5717695,22.9039018,0 
113.5717711,22.9039014,0 
113.5717727,22.9039010,0 
113.5717743,22.9039006,0 
113.5717760,22.9039002,0 
113.5717777,22.9038999,0 
113.5717794,22.9038995,0 
113.5717812,22.9038991,0 
113.5717830,22.9038988,0 
113.5717847,22.9038985,0 
113.5717866,22.9038981,0 
113.5717884,22.9038978,0 
113.5717902,22.9038975,0 
113.5717921,22.9038972,0 
113.5717940,22.9038969,0 
113.5717959,22.9038966,0 
113.5717978,22.9038963,0 
113.5717997,22.9038960,0 
113.5718017,22.9038958,0 
113.5718036,22.9038955,0 
113.5718056,22.9038953,0 
113.5718076,22.9038950,0 
113.5718096,22.9038948,0 
113.5718116,22.9038946,0 
113.5718136,22.9038944,0 
113.5718156,22.9038942,0 
113.5718176,22.9038940,0 
113.5718196,22.9038938,0 
113.5718217,22.9038936,0 
113.5718237,22.9038935,0 
113.5718258,22.9038933,0 
113.5718278,22.9038932,0 
113.5718299,22.9038930,0 
113.5718319,22.9038929,0 
113.5718340,22.9038928,0 
113.5718360,22.9038927,0 
113.5718381,22.9038926,0 
113.5718401,22.9038926,0 
113.5718421,22.9038925,0 
113.5718442,22.9038924,0 
113.5718462,22.9038924,0 
113.5718482,22.9038923,0 
113.5718502,22.9038923,0 
113.5718522,22.9038923,0 
113.5718542,22.9038923,0 
113.5718562,22.9038923,0 
113.5718582,22.9038923,0 
113.5718602,22.9038923,0 
113.5718621,22.9038924,0 
113.5718641,22.9038924,0 
113.5718660,22.9038925,0 
113.5718679,22.9038926,0 
113.5718698,22.9038926,0 
113.5718717,22.9038927,0 
113.5718735,22.9038928,0 
113.5718754,22.9038929,0 
113.5718772,22.9038931,0 
113.5718790,22.9038932,0 
113.5718808,22.9038933,0 
113.5718825,22.9038935,0 
113.5718843,22.9038936,0 
113.5718860,22.9038938,0 
113.5718877,22.9038940,0 
113.5718893,22.9038942,0 
113.5718910,22.9038944,0 
113.5718926,22.9038946,0 
113.5718942,22.9038948,0 
113.5718957,22.9038950,0 
113.5718973,22.9038953,0 
113.5718988,22.9038955,0 
113.5719002,22.9038958,0 
113.5719017,22.9038961,0 
113.5719031,22.9038963,0 
113.5719045,22.9038966,0 
113.5719058,22.9038969,0 
113.5719071,22.9038972,0 
113.5719084,22.9038975,0 
113.5719097,22.9038978,0 
113.5719109,22.9038982,0 
113.5719121,22.9038985,0 
113.5719132,22.9038988,0 
113.5719143,22.9038992,0 
113.5719154,22.9038995,0 
113.5719164,22.9038999,0 
113.5719174,22.9039003,0 
113.5719184,22.9039007,0 
113.5719193,22.9039010,0 
113.5719202,22.9039014,0 
113.5719210,22.9039018,0 
113.5719218,22.9039022,0 
113.5719226,22.9039026,0 
113.5719233,22.9039031,0 
113.5719240,22.9039035,0 
113.5719247,22.9039039,0 
113.5719253,22.9039043,0 
113.5719258,22.9039048,0 
113.5719264,22.9039052,0 
113.5719268,22.9039057,0 
113.5719273,22.9039061,0 
113.5719277,22.9039066,0 
113.5719280,22.9039070,0 
113.5719283,22.9039075,0 
113.5719286,22.9039080,0 
113.5719288,22.9039085,0 
113.5719290,22.9039089,0 
113.5719292,22.9039094,0 
113.5719293,22.9039099,0 
113.5719293,22.9039104,0 
113.5719293,22.9039109,0 
113.5719293,22.9039114,0 
113.5719292,22.9039119,0 
113.5719291,22.9039124,0 
113.5719290,22.9039129,0 
113.5719288,22.9039134,0 
113.5719285,22.9039139,0 
113.5719282,22.9039144,0 
113.5719279,22.9039149,0 
113.5719275,22.9039154,0 
113.5719271,22.9039159,0 
113.5719267,22.9039164,0 
113.5719262,22.9039169,0 
113.5719256,22.9039174,0 
113.5719251,22.9039179,0 
113.5719244,22.9039184,0 
113.5719238,22.9039189,0 
113.5719231,22.9039194,0 
113.5719223,22.9039199,0 
113.5719216,22.9039204,0 
113.5719207,22.9039209,0 
113.5719199,22.9039214,0 
113.5719190,22.9039219,0 
113.5719180,22.9039223,0 
113.5719171,22.9039228,0 
113.5719160,22.9039233,0 
113.5719150,22.9039238,0 
113.5719139,22.9039243,0 
113.5719128,22.9039247,0 
113.5719116,22.9039252,0 
113.5719104,22.9039257,0 
113.5719092,22.9039261,0 
113.5719079,22.9039266,0 
113.5719067,22.9039271,0 
113.5719053,22.9039275,0 
113.5719040,22.9039279,0 
113.5719026,22.9039284,0 
113.5719011,22.9039288,0 
113.5718997,22.9039292,0 
113.5718982,22.9039297,0 
113.5718967,22.9039301,0 
113.5718952,22.9039305,0 
113.5718936,22.9039309,0 
113.5718920,22.9039313,0 
113.5718904,22.9039317,0 
113.5718887,22.9039321,0 
113.5718870,22.9039324,0 
113.5718853,22.9039328,0 
113.5718836,22.9039332,0 
113.5718819,22.9039335,0 
113.5718801,22.9039339,0 
113.5718783,22.9039342,0 
113.5718765,22.9039346,0 
113.5718747,22.9039349,0 
113.5718728,22.9039352,0 
113.5718710,22.9039355,0 
113.5718691,22.9039358,0 
113.5718672,22.9039361,0 
113.5718653,22.9039364,0 
113.5718633,22.9039366,0 
113.5718614,22.9039369,0 
113.5718594,22.9039372,0 
113.5718575,22.9039374,0 
113.5718555,22.9039377,0 
113.5718535,22.9039379,0 
113.5718515,22.9039381,0 
113.5718495,22.9039383,0 
113.5718475,22.9039385,0 
113.5718454,22.9039387,0 
113.5718434,22.9039389,0 
113.5718414,22.9039390,0 
113.5718393,22.9039392,0 
113.5718373,22.9039394,0 
113.5718352,22.9039395,0 
113.5718332,22.9039396,0 
113.5718312,22.9039397,0 
113.5718291,22.9039399,0 
113.5718271,22.9039400,0 
113.5718250,22.9039400,0 
113.5718230,22.9039401,0 
113.5718209,22.9039402,0 
113.5718189,22.9039402,0 
113.5718169,22.9039403,0 
113.5718148,22.9039403,0 
113.5718128,22.9039404,0 
113.5718108,22.9039404,0 
113.5718088,22.9039404,0 
113.5718068,22.9039404,0 
113.5718049,22.9039404,0 
113.5718029,22.9039403,0 
113.5718009,22.9039403,0 
113.5717990,22.9039402,0 
113.5717971,22.9039402,0 
113.5717952,22.9039401,0 
113.5717933,22.9039400,0 
113.5717914,22.9039399,0 
113.5717895,22.9039398,0 
113.5717877,22.9039397,0 
113.5717859,22.9039396,0 
113.5717841,22.9039395,0 
113.5717823,22.9039393,0 
113.5717805,22.9039392,0 
113.5717788,22.9039390,0 
113.5717771,22.9039389,0 
113.5717754,22.9039387,0 
113.5717737,22.9039385,0 
113.5717721,22.9039383,0 
113.5717705,22.9039381,0 
113.5717689,22.9039379,0 
113.5717673,22.9039376,0 
113.5717658,22.9039374,0 
113.5717643,22.9039371,0 
113.5717628,22.9039369,0 
113.5717614,22.9039366,0 
113.5717600,22.9039363,0 
113.5717586,22.9039361,0 
113.5717572,22.9039358,0 
113.5717559,22.9039355,0 
113.5717546,22.9039352,0 
113.5717534,22.9039348,0 
113.5717522,22.9039345,0 
113.5717510,22.9039342,0 
113.5717499,22.9039338,0 
113.5717487,22.9039335,0 
113.5717477,22.9039331,0 
113.5717466,22.9039328,0 
113.5717456,22.9039324,0 
113.5717447,22.9039320,0 
113.5717438,22.9039316,0 
113.5717429,22.9039312,0 
113.5717420,22.9039308,0 
113.5717412,22.9039304,0 
113.5717405,22.9039300,0 
113.5717397,22.9039296,0 
113.5717390,22.9039292,0 
113.5717384,22.9039288,0 
113.5717378,22.9039283,0 
113.5717372,22.9039279,0 
113.5717367,22.9039275,0 
113.5717362,22.9039270,0 
113.5717358,22.9039265,0 
113.5717354,22.9039261,0 
113.5717350,22.9039256,0 
113.5717347,22.9039252,0 
113.5717344,22.9039247,0 
113.5717342,22.9039242,0 
113.5717340,22.9039237,0 
113.5717339,22.9039233,0 
113.5717338,22.9039228,0 
113.5717337,22.9039223,0 
</coordinates>
</LineString>
</Placemark>
</Folder>