<Folder>
<name>SV  2 302.002065 6.625918</name>
<visibility>1</visibility>
<Placemark>
<name>circle</name>
<visibility>1</visibility>
<Style>
<geomColor></geomColor>
<geomScale>2</geomScale></Style>
<LineString>
<coordinates>
113.5712927,22.9043647,0 
113.5712923,22.9043642,0 
113.5712921,22.9043635,0 
113.5712920,22.9043628,0 
113.5712920,22.9043620,0 
113.5712921,22.9043612,0 
113.5712924,22.9043603,0 
113.5712927,22.9043593,0 
113.5712931,22.9043583,0 
113.5712937,22.9043572,0 
113.5712944,22.9043561,0 
113.5712951,22.9043549,0 
113.5712960,22.9043536,0 
113.5712970,22.9043523,0 
113.5712981,22.9043509,0 
113.5712993,22.9043495,0 
113.5713006,22.9043480,0 
113.5713021,22.9043464,0 
113.5713036,22.9043448,0 
113.5713052,22.9043432,0 
113.5713070,22.9043414,0 
113.5713088,22.9043397,0 
113.5713107,22.9043379,0 
113.5713128,22.9043360,0 
113.5713149,22.9043341,0 
113.5713172,22.9043321,0 
113.5713195,22.9043301,0 
113.5713220,22.9043280,0 
113.5713245,22.9043259,0 
113.5713272,22.9043238,0 
113.5713299,22.9043216,0 
113.5713327,22.9043193,0 
113.5713356,22.9043170,0 
113.5713386,22.9043147,0 
113.5713417,22.9043123,0 
113.5713449,22.9043099,0 
113.5713482,22.9043074,0 
113.5713515,22.9043049,0 
113.5713550,22.9043024,0 
113.5713585,22.9042998,0 
113.5713621,22.9042972,0 
113.5713658,22.9042946,0 
113.5713696,22.9042919,0 
113.5713734,22.9042892,0 
113.5713773,22.9042865,0 
113.5713813,22.9042838,0 
113.5713854,22.9042810,0 
113.5713895,22.9042782,0 
113.5713937,22.9042753,0 
113.5713980,22.9042725,0 
113.5714023,22.9042696,0 
113.5714067,22.9042667,0 
113.5714111,22.9042637,0 
113.5714156,22.9042608,0 
113.5714202,22.9042578,0 
113.5714248,22.9042549,0 
113.5714294,22.9042519,0 
113.5714342,22.9042489,0 
113.5714389,22.9042458,0 
113.5714437,22.9042428,0 
113.5714486,22.9042398,0 
113.5714535,22.9042367,0 
113.5714584,22.9042337,0 
113.5714634,22.9042306,0 
113.5714684,22.9042275,0 
113.5714734,22.9042245,0 
113.5714785,22.9042214,0 
113.5714836,22.9042183,0 
113.5714887,22.9042153,0 
113.5714939,22.9042122,0 
113.5714990,22.9042091,0 
113.5715042,22.9042061,0 
113.5715094,22.9042030,0 
113.5715146,22.9042000,0 
113.5715199,22.9041969,0 
113.5715251,22.9041939,0 
113.5715304,22.9041909,0 
113.5715356,22.9041879,0 
113.5715409,22.9041849,0 
113.5715461,22.9041819,0 
113.5715514,22.9041790,0 
113.5715567,22.9041760,0 
113.5715619,22.9041731,0 
113.5715672,22.9041702,0 
113.5715724,22.9041673,0 
113.5715776,22.9041645,0 
113.5715828,22.9041617,0 
113.5715880,22.9041589,0 
113.5715932,22.9041561,0 
113.5715983,22.9041534,0 
113.5716034,22.9041506,0 
113.5716085,22.9041480,0 
113.5716136,22.9041453,0 
113.5716186,22.9041427,0 
113.5716236,22.9041401,0 
113.5716286,22.9041375,0 
113.5716335,22.9041350,0 
113.5716384,22.9041326,0 
113.5716432,22.9041301,0 
113.5716480,22.9041277,0 
113.5716528,22.9041254,0 
113.5716575,22.9041230,0 
113.5716622,22.9041208,0 
113.5716668,22.9041185,0 
113.5716713,22.9041164,0 
113.5716758,22.9041142,0 
113.5716803,22.9041121,0 
113.5716846,22.9041101,0 
113.5716890,22.9041081,0 
113.5716932,22.9041061,0 
113.5716974,22.9041042,0 
113.5717015,22.9041024,0 
113.5717056,22.9041006,0 
113.5717095,22.9040989,0 
113.5717134,22.9040972,0 
113.5717173,22.9040955,0 
113.5717210,22.9040940,0 
113.5717247,22.9040924,0 
113.5717283,22.9040910,0 
113.5717318,22.9040896,0 
113.5717353,22.9040882,0 
113.5717386,22.9040869,0 
113.5717419,22.9040857,0 
113.5717450,22.9040845,0 
113.5717481,22.9040834,0 
113.5717511,22.9040823,0 
113.5717540,22.9040813,0 
113.5717568,22.9040804,0 
113.5717596,22.9040795,0 
113.5717622,22.9040787,0 
113.5717647,22.9040779,0 
113.5717671,22.9040773,0 
113.5717695,22.9040766,0 
113.5717717,22.9040761,0 
113.5717738,22.9040756,0 
113.5717759,22.9040751,0 
113.5717778,22.9040748,0 
113.5717796,22.9040745,0 
113.5717814,22.9040742,0 
113.5717830,22.9040740,0 
113.5717845,22.9040739,0 
113.5717859,22.9040739,0 
113.5717872,22.9040739,0 
113.5717884,22.9040740,0 
113.5717895,22.9040741,0 
113.5717905,22.9040743,0 
113.5717913,22.9040746,0 
113.5717921,22.9040749,0 
113.5717927,22.9040753,0 
113.5717933,22.9040758,0 
113.5717937,22.9040763,0 
113.5717940,22.9040769,0 
113.5717943,22.9040776,0 
113.5717944,22.9040783,0 
113.5717943,22.9040790,0 
113.5717942,22.9040799,0 
113.5717940,22.9040808,0 
113.5717937,22.9040817,0 
113.5717932,22.9040828,0 
113.5717927,22.9040839,0 
113.5717920,22.9040850,0 
113.5717912,22.9040862,0 
113.5717903,22.9040875,0 
113.5717893,22.9040888,0 
113.5717882,22.9040902,0 
113.5717870,22.9040916,0 
113.5717857,22.9040931,0 
113.5717843,22.9040946,0 
113.5717828,22.9040962,0 
113.5717811,22.9040979,0 
113.5717794,22.9040996,0 
113.5717776,22.9041014,0 
113.5717756,22.9041032,0 
113.5717736,22.9041051,0 
113.5717714,22.9041070,0 
113.5717692,22.9041089,0 
113.5717668,22.9041110,0 
113.5717644,22.9041130,0 
113.5717619,22.9041151,0 
113.5717592,22.9041173,0 
113.5717565,22.9041195,0 
113.5717537,22.9041218,0 
113.5717507,22.9041240,0 
113.5717477,22.9041264,0 
113.5717446,22.9041288,0 
113.5717415,22.9041312,0 
113.5717382,22.9041336,0 
113.5717348,22.9041361,0 
113.5717314,22.9041387,0 
113.5717279,22.9041412,0 
113.5717242,22.9041438,0 
113.5717206,22.9041465,0 
113.5717168,22.9041491,0 
113.5717130,22.9041518,0 
113.5717090,22.9041545,0 
113.5717051,22.9041573,0 
113.5717010,22.9041601,0 
113.5716969,22.9041629,0 
113.5716927,22.9041657,0 
113.5716884,22.9041686,0 
113.5716841,22.9041715,0 
113.5716797,22.9041744,0 
113.5716753,22.9041773,0 
113.5716708,22.9041803,0 
113.5716662,22.9041832,0 
113.5716616,22.9041862,0 
113.5716569,22.9041892,0 
113.5716522,22.9041922,0 
113.5716474,22.9041952,0 
113.5716426,22.9041982,0 
113.5716378,22.9042013,0 
113.5716329,22.9042043,0 
113.5716280,22.9042074,0 
113.5716230,22.9042105,0 
113.5716180,22.9042135,0 
113.5716129,22.9042166,0 
113.5716079,22.9042197,0 
113.5716028,22.9042227,0 
113.5715977,22.9042258,0 
113.5715925,22.9042289,0 
113.5715873,22.9042319,0 
113.5715822,22.9042350,0 
113.5715769,22.9042380,0 
113.5715717,22.9042411,0 
113.5715665,22.9042441,0 
113.5715612,22.9042472,0 
113.5715560,22.9042502,0 
113.5715507,22.9042532,0 
113.5715455,22.9042562,0 
113.5715402,22.9042591,0 
113.5715350,22.9042621,0 
113.5715297,22.9042650,0 
113.5715245,22.9042679,0 
113.5715192,22.9042708,0 
113.5715140,22.9042737,0 
113.5715088,22.9042766,0 
113.5715036,22.9042794,0 
113.5714984,22.9042822,0 
113.5714932,22.9042850,0 
113.5714881,22.9042877,0 
113.5714829,22.9042904,0 
113.5714779,22.9042931,0 
113.5714728,22.9042958,0 
113.5714678,22.9042984,0 
113.5714628,22.9043010,0 
113.5714578,22.9043035,0 
113.5714529,22.9043060,0 
113.5714480,22.9043085,0 
113.5714431,22.9043109,0 
113.5714383,22.9043133,0 
113.5714336,22.9043157,0 
113.5714289,22.9043180,0 
113.5714242,22.9043203,0 
113.5714196,22.9043225,0 
113.5714150,22.9043247,0 
113.5714105,22.9043268,0 
113.5714061,22.9043289,0 
113.5714017,22.9043310,0 
113.5713974,22.9043330,0 
113.5713932,22.9043349,0 
113.5713890,22.9043368,0 
113.5713849,22.9043387,0 
113.5713808,22.9043405,0 
113.5713768,22.9043422,0 
113.5713729,22.9043439,0 
113.5713691,22.9043455,0 
113.5713653,22.9043471,0 
113.5713617,22.9043486,0 
113.5713581,22.9043501,0 
113.5713546,22.9043515,0 
113.5713511,22.9043529,0 
113.5713478,22.9043541,0 
113.5713445,22.9043554,0 
113.5713413,22.9043566,0 
113.5713382,22.9043577,0 
113.5713353,22.9043587,0 
113.5713323,22.9043597,0 
113.5713295,22.9043607,0 
113.5713268,22.9043615,0 
113.5713242,22.9043624,0 
113.5713217,22.9043631,0 
113.5713192,22.9043638,0 
113.5713169,22.9043644,0 
113.5713147,22.9043650,0 
113.5713125,22.9043655,0 
113.5713105,22.9043659,0 
113.5713086,22.9043663,0 
113.5713067,22.9043666,0 
113.5713050,22.9043668,0 
113.5713034,22.9043670,0 
113.5713019,22.9043671,0 
113.5713005,22.9043672,0 
113.5712992,22.9043672,0 
113.5712980,22.9043671,0 
113.5712969,22.9043669,0 
113.5712959,22.9043667,0 
113.5712950,22.9043665,0 
113.5712943,22.9043661,0 
113.5712936,22.9043657,0 
113.5712931,22.9043653,0 
113.5712927,22.9043647,0 
</coordinates>
</LineString>
</Placemark>
</Folder>