<Folder>
<name>SV  4 194.331077 12.788131</name>
<visibility>1</visibility>
<Placemark>
<name>circle</name>
<visibility>1</visibility>
<Style>
<geomColor></geomColor>
<geomScale>2</geomScale></Style>
<LineString>
<coordinates>
113.5719879,22.9034957,0 
113.5719885,22.9034956,0 
113.5719891,22.9034956,0 
113.5719897,22.9034956,0 
113.5719903,22.9034956,0 
113.5719909,22.9034957,0 
113.5719916,22.9034958,0 
113.5719922,22.9034960,0 
113.5719929,22.9034963,0 
113.5719936,22.9034966,0 
113.5719943,22.9034969,0 
113.5719950,22.9034973,0 
113.5719957,22.9034977,0 
113.5719964,22.9034982,0 
113.5719971,22.9034987,0 
113.5719979,22.9034993,0 
113.5719986,22.9035000,0 
113.5719994,22.9035006,0 
113.5720002,22.9035014,0 
113.5720010,22.9035021,0 
113.5720017,22.9035030,0 
113.5720025,22.9035038,0 
113.5720033,22.9035048,0 
113.5720042,22.9035057,0 
113.5720050,22.9035067,0 
113.5720058,22.9035078,0 
113.5720066,22.9035089,0 
113.5720075,22.9035100,0 
113.5720083,22.9035112,0 
113.5720091,22.9035124,0 
113.5720100,22.9035137,0 
113.5720109,22.9035150,0 
113.5720117,22.9035164,0 
113.5720126,22.9035178,0 
113.5720134,22.9035192,0 
113.5720143,22.9035207,0 
113.5720152,22.9035222,0 
113.5720160,22.9035237,0 
113.5720169,22.9035253,0 
113.5720178,22.9035270,0 
113.5720187,22.9035286,0 
113.5720195,22.9035303,0 
113.5720204,22.9035321,0 
113.5720213,22.9035338,0 
113.5720222,22.9035356,0 
113.5720230,22.9035375,0 
113.5720239,22.9035393,0 
113.5720248,22.9035412,0 
113.5720256,22.9035432,0 
113.5720265,22.9035451,0 
113.5720274,22.9035471,0 
113.5720282,22.9035491,0 
113.5720291,22.9035512,0 
113.5720299,22.9035532,0 
113.5720308,22.9035553,0 
113.5720316,22.9035574,0 
113.5720325,22.9035596,0 
113.5720333,22.9035617,0 
113.5720341,22.9035639,0 
113.5720349,22.9035661,0 
113.5720357,22.9035683,0 
113.5720365,22.9035705,0 
113.5720373,22.9035728,0 
113.5720381,22.9035751,0 
113.5720389,22.9035773,0 
113.5720397,22.9035796,0 
113.5720404,22.9035820,0 
113.5720412,22.9035843,0 
113.5720419,22.9035866,0 
113.5720427,22.9035890,0 
113.5720434,22.9035913,0 
113.5720441,22.9035937,0 
113.5720448,22.9035960,0 
113.5720455,22.9035984,0 
113.5720462,22.9036008,0 
113.5720468,22.9036032,0 
113.5720475,22.9036056,0 
113.5720481,22.9036079,0 
113.5720488,22.9036103,0 
113.5720494,22.9036127,0 
113.5720500,22.9036151,0 
113.5720506,22.9036175,0 
113.5720511,22.9036199,0 
113.5720517,22.9036223,0 
113.5720523,22.9036246,0 
113.5720528,22.9036270,0 
113.5720533,22.9036293,0 
113.5720538,22.9036317,0 
113.5720543,22.9036340,0 
113.5720548,22.9036364,0 
113.5720552,22.9036387,0 
113.5720557,22.9036410,0 
113.5720561,22.9036433,0 
113.5720565,22.9036455,0 
113.5720569,22.9036478,0 
113.5720573,22.9036500,0 
113.5720577,22.9036523,0 
113.5720580,22.9036545,0 
113.5720583,22.9036567,0 
113.5720587,22.9036588,0 
113.5720590,22.9036610,0 
113.5720592,22.9036631,0 
113.5720595,22.9036652,0 
113.5720597,22.9036673,0 
113.5720600,22.9036693,0 
113.5720602,22.9036713,0 
113.5720604,22.9036733,0 
113.5720605,22.9036753,0 
113.5720607,22.9036772,0 
113.5720608,22.9036791,0 
113.5720609,22.9036810,0 
113.5720610,22.9036829,0 
113.5720611,22.9036847,0 
113.5720612,22.9036865,0 
113.5720612,22.9036882,0 
113.5720612,22.9036899,0 
113.5720613,22.9036916,0 
113.5720612,22.9036933,0 
113.5720612,22.9036949,0 
113.5720612,22.9036964,0 
113.5720611,22.9036980,0 
113.5720610,22.9036994,0 
113.5720609,22.9037009,0 
113.5720608,22.9037023,0 
113.5720607,22.9037037,0 
113.5720605,22.9037050,0 
113.5720603,22.9037063,0 
113.5720601,22.9037075,0 
113.5720599,22.9037088,0 
113.5720597,22.9037099,0 
113.5720594,22.9037110,0 
113.5720592,22.9037121,0 
113.5720589,22.9037131,0 
113.5720586,22.9037141,0 
113.5720583,22.9037150,0 
113.5720580,22.9037159,0 
113.5720576,22.9037168,0 
113.5720572,22.9037176,0 
113.5720569,22.9037183,0 
113.5720565,22.9037190,0 
113.5720560,22.9037197,0 
113.5720556,22.9037203,0 
113.5720552,22.9037208,0 
113.5720547,22.9037213,0 
113.5720542,22.9037218,0 
113.5720537,22.9037222,0 
113.5720532,22.9037226,0 
113.5720527,22.9037229,0 
113.5720522,22.9037231,0 
113.5720516,22.9037233,0 
113.5720510,22.9037235,0 
113.5720505,22.9037236,0 
113.5720499,22.9037237,0 
113.5720493,22.9037237,0 
113.5720486,22.9037236,0 
113.5720480,22.9037235,0 
113.5720474,22.9037234,0 
113.5720467,22.9037232,0 
113.5720460,22.9037230,0 
113.5720454,22.9037227,0 
113.5720447,22.9037223,0 
113.5720440,22.9037220,0 
113.5720432,22.9037215,0 
113.5720425,22.9037210,0 
113.5720418,22.9037205,0 
113.5720410,22.9037199,0 
113.5720403,22.9037193,0 
113.5720395,22.9037186,0 
113.5720388,22.9037179,0 
113.5720380,22.9037171,0 
113.5720372,22.9037163,0 
113.5720364,22.9037154,0 
113.5720356,22.9037145,0 
113.5720348,22.9037135,0 
113.5720340,22.9037125,0 
113.5720331,22.9037115,0 
113.5720323,22.9037104,0 
113.5720315,22.9037092,0 
113.5720306,22.9037080,0 
113.5720298,22.9037068,0 
113.5720289,22.9037055,0 
113.5720281,22.9037042,0 
113.5720272,22.9037029,0 
113.5720264,22.9037015,0 
113.5720255,22.9037000,0 
113.5720246,22.9036985,0 
113.5720238,22.9036970,0 
113.5720229,22.9036955,0 
113.5720220,22.9036939,0 
113.5720211,22.9036923,0 
113.5720203,22.9036906,0 
113.5720194,22.9036889,0 
113.5720185,22.9036872,0 
113.5720176,22.9036854,0 
113.5720168,22.9036836,0 
113.5720159,22.9036818,0 
113.5720150,22.9036799,0 
113.5720142,22.9036780,0 
113.5720133,22.9036761,0 
113.5720124,22.9036741,0 
113.5720116,22.9036721,0 
113.5720107,22.9036701,0 
113.5720098,22.9036681,0 
113.5720090,22.9036660,0 
113.5720082,22.9036639,0 
113.5720073,22.9036618,0 
113.5720065,22.9036597,0 
113.5720056,22.9036575,0 
113.5720048,22.9036553,0 
113.5720040,22.9036531,0 
113.5720032,22.9036509,0 
113.5720024,22.9036487,0 
113.5720016,22.9036464,0 
113.5720008,22.9036442,0 
113.5720000,22.9036419,0 
113.5719993,22.9036396,0 
113.5719985,22.9036373,0 
113.5719978,22.9036350,0 
113.5719970,22.9036326,0 
113.5719963,22.9036303,0 
113.5719956,22.9036279,0 
113.5719948,22.9036256,0 
113.5719941,22.9036232,0 
113.5719934,22.9036208,0 
113.5719928,22.9036184,0 
113.5719921,22.9036161,0 
113.5719914,22.9036137,0 
113.5719908,22.9036113,0 
113.5719902,22.9036089,0 
113.5719896,22.9036065,0 
113.5719890,22.9036041,0 
113.5719884,22.9036017,0 
113.5719878,22.9035993,0 
113.5719872,22.9035970,0 
113.5719867,22.9035946,0 
113.5719861,22.9035922,0 
113.5719856,22.9035899,0 
113.5719851,22.9035875,0 
113.5719846,22.9035852,0 
113.5719841,22.9035829,0 
113.5719837,22.9035805,0 
113.5719832,22.9035782,0 
113.5719828,22.9035760,0 
113.5719824,22.9035737,0 
113.5719820,22.9035714,0 
113.5719816,22.9035692,0 
113.5719813,22.9035670,0 
113.5719809,22.9035647,0 
113.5719806,22.9035626,0 
113.5719803,22.9035604,0 
113.5719800,22.9035583,0 
113.5719797,22.9035561,0 
113.5719794,22.9035540,0 
113.5719792,22.9035520,0 
113.5719790,22.9035499,0 
113.5719788,22.9035479,0 
113.5719786,22.9035459,0 
113.5719784,22.9035439,0 
113.5719782,22.9035420,0 
113.5719781,22.9035401,0 
113.5719780,22.9035382,0 
113.5719779,22.9035364,0 
113.5719778,22.9035345,0 
113.5719778,22.9035328,0 
113.5719777,22.9035310,0 
113.5719777,22.9035293,0 
113.5719777,22.9035276,0 
113.5719777,22.9035260,0 
113.5719777,22.9035244,0 
113.5719778,22.9035228,0 
113.5719778,22.9035213,0 
113.5719779,22.9035198,0 
113.5719780,22.9035183,0 
113.5719781,22.9035169,0 
113.5719783,22.9035155,0 
113.5719784,22.9035142,0 
113.5719786,22.9035129,0 
113.5719788,22.9035117,0 
113.5719790,22.9035105,0 
113.5719792,22.9035093,0 
113.5719795,22.9035082,0 
113.5719797,22.9035071,0 
113.5719800,22.9035061,0 
113.5719803,22.9035051,0 
113.5719806,22.9035042,0 
113.5719810,22.9035033,0 
113.5719813,22.9035025,0 
113.5719817,22.9035017,0 
113.5719821,22.9035009,0 
113.5719825,22.9035002,0 
113.5719829,22.9034996,0 
113.5719833,22.9034990,0 
113.5719838,22.9034984,0 
113.5719842,22.9034979,0 
113.5719847,22.9034974,0 
113.5719852,22.9034970,0 
113.5719857,22.9034967,0 
113.5719862,22.9034964,0 
113.5719868,22.9034961,0 
113.5719873,22.9034959,0 
113.5719879,22.9034957,0 
</coordinates>
</LineString>
</Placemark>
</Folder>