<Folder>
<name>SV  5 294.595868 10.084547</name>
<visibility>1</visibility>
<Placemark>
<name>circle</name>
<visibility>1</visibility>
<Style>
<geomColor>FF006400</geomColor>
<geomScale>2</geomScale></Style>
<LineString>
<coordinates>
113.5715490,22.9041323,0 
113.5715488,22.9041318,0 
113.5715486,22.9041311,0 
113.5715485,22.9041305,0 
113.5715485,22.9041298,0 
113.5715485,22.9041291,0 
113.5715487,22.9041284,0 
113.5715489,22.9041277,0 
113.5715491,22.9041269,0 
113.5715495,22.9041261,0 
113.5715499,22.9041252,0 
113.5715504,22.9041244,0 
113.5715509,22.9041235,0 
113.5715516,22.9041226,0 
113.5715523,22.9041216,0 
113.5715530,22.9041206,0 
113.5715539,22.9041196,0 
113.5715548,22.9041186,0 
113.5715558,22.9041176,0 
113.5715568,22.9041165,0 
113.5715579,22.9041154,0 
113.5715591,22.9041143,0 
113.5715604,22.9041131,0 
113.5715617,22.9041120,0 
113.5715631,22.9041108,0 
113.5715646,22.9041096,0 
113.5715661,22.9041084,0 
113.5715677,22.9041071,0 
113.5715694,22.9041059,0 
113.5715711,22.9041046,0 
113.5715729,22.9041033,0 
113.5715747,22.9041019,0 
113.5715766,22.9041006,0 
113.5715786,22.9040992,0 
113.5715806,22.9040979,0 
113.5715827,22.9040965,0 
113.5715848,22.9040951,0 
113.5715871,22.9040937,0 
113.5715893,22.9040922,0 
113.5715916,22.9040908,0 
113.5715940,22.9040893,0 
113.5715964,22.9040879,0 
113.5715989,22.9040864,0 
113.5716014,22.9040849,0 
113.5716040,22.9040834,0 
113.5716066,22.9040819,0 
113.5716093,22.9040804,0 
113.5716120,22.9040788,0 
113.5716147,22.9040773,0 
113.5716175,22.9040758,0 
113.5716204,22.9040742,0 
113.5716233,22.9040727,0 
113.5716262,22.9040711,0 
113.5716292,22.9040696,0 
113.5716322,22.9040680,0 
113.5716352,22.9040664,0 
113.5716383,22.9040649,0 
113.5716414,22.9040633,0 
113.5716445,22.9040617,0 
113.5716477,22.9040602,0 
113.5716509,22.9040586,0 
113.5716542,22.9040570,0 
113.5716574,22.9040555,0 
113.5716607,22.9040539,0 
113.5716640,22.9040524,0 
113.5716673,22.9040508,0 
113.5716707,22.9040493,0 
113.5716740,22.9040477,0 
113.5716774,22.9040462,0 
113.5716808,22.9040447,0 
113.5716842,22.9040431,0 
113.5716877,22.9040416,0 
113.5716911,22.9040401,0 
113.5716946,22.9040386,0 
113.5716980,22.9040372,0 
113.5717015,22.9040357,0 
113.5717050,22.9040342,0 
113.5717084,22.9040328,0 
113.5717119,22.9040314,0 
113.5717154,22.9040299,0 
113.5717189,22.9040285,0 
113.5717224,22.9040271,0 
113.5717259,22.9040258,0 
113.5717293,22.9040244,0 
113.5717328,22.9040231,0 
113.5717362,22.9040217,0 
113.5717397,22.9040204,0 
113.5717431,22.9040192,0 
113.5717466,22.9040179,0 
113.5717500,22.9040166,0 
113.5717534,22.9040154,0 
113.5717567,22.9040142,0 
113.5717601,22.9040130,0 
113.5717634,22.9040118,0 
113.5717668,22.9040107,0 
113.5717701,22.9040096,0 
113.5717733,22.9040085,0 
113.5717766,22.9040074,0 
113.5717798,22.9040064,0 
113.5717830,22.9040053,0 
113.5717862,22.9040043,0 
113.5717893,22.9040034,0 
113.5717924,22.9040024,0 
113.5717954,22.9040015,0 
113.5717985,22.9040006,0 
113.5718015,22.9039997,0 
113.5718044,22.9039989,0 
113.5718073,22.9039981,0 
113.5718102,22.9039973,0 
113.5718130,22.9039965,0 
113.5718158,22.9039958,0 
113.5718186,22.9039951,0 
113.5718213,22.9039944,0 
113.5718239,22.9039938,0 
113.5718265,22.9039932,0 
113.5718291,22.9039926,0 
113.5718316,22.9039920,0 
113.5718340,22.9039915,0 
113.5718364,22.9039910,0 
113.5718388,22.9039906,0 
113.5718411,22.9039902,0 
113.5718433,22.9039898,0 
113.5718455,22.9039894,0 
113.5718476,22.9039891,0 
113.5718497,22.9039888,0 
113.5718517,22.9039885,0 
113.5718536,22.9039883,0 
113.5718555,22.9039881,0 
113.5718573,22.9039879,0 
113.5718591,22.9039878,0 
113.5718608,22.9039877,0 
113.5718624,22.9039876,0 
113.5718640,22.9039876,0 
113.5718655,22.9039876,0 
113.5718670,22.9039876,0 
113.5718683,22.9039877,0 
113.5718696,22.9039878,0 
113.5718709,22.9039879,0 
113.5718720,22.9039881,0 
113.5718731,22.9039883,0 
113.5718742,22.9039885,0 
113.5718751,22.9039888,0 
113.5718760,22.9039891,0 
113.5718768,22.9039894,0 
113.5718776,22.9039897,0 
113.5718782,22.9039901,0 
113.5718789,22.9039905,0 
113.5718794,22.9039910,0 
113.5718798,22.9039915,0 
113.5718802,22.9039920,0 
113.5718805,22.9039925,0 
113.5718808,22.9039931,0 
113.5718810,22.9039937,0 
113.5718811,22.9039944,0 
113.5718811,22.9039950,0 
113.5718810,22.9039957,0 
113.5718809,22.9039964,0 
113.5718807,22.9039972,0 
113.5718804,22.9039980,0 
113.5718801,22.9039988,0 
113.5718797,22.9039996,0 
113.5718792,22.9040005,0 
113.5718786,22.9040014,0 
113.5718780,22.9040023,0 
113.5718773,22.9040032,0 
113.5718765,22.9040042,0 
113.5718757,22.9040052,0 
113.5718748,22.9040062,0 
113.5718738,22.9040073,0 
113.5718727,22.9040084,0 
113.5718716,22.9040095,0 
113.5718704,22.9040106,0 
113.5718692,22.9040117,0 
113.5718678,22.9040129,0 
113.5718664,22.9040141,0 
113.5718650,22.9040153,0 
113.5718635,22.9040165,0 
113.5718619,22.9040177,0 
113.5718602,22.9040190,0 
113.5718585,22.9040203,0 
113.5718567,22.9040216,0 
113.5718548,22.9040229,0 
113.5718529,22.9040243,0 
113.5718510,22.9040256,0 
113.5718489,22.9040270,0 
113.5718469,22.9040284,0 
113.5718447,22.9040298,0 
113.5718425,22.9040312,0 
113.5718403,22.9040326,0 
113.5718379,22.9040341,0 
113.5718356,22.9040355,0 
113.5718332,22.9040370,0 
113.5718307,22.9040385,0 
113.5718282,22.9040400,0 
113.5718256,22.9040415,0 
113.5718230,22.9040430,0 
113.5718203,22.9040445,0 
113.5718176,22.9040460,0 
113.5718148,22.9040476,0 
113.5718120,22.9040491,0 
113.5718092,22.9040506,0 
113.5718063,22.9040522,0 
113.5718034,22.9040537,0 
113.5718004,22.9040553,0 
113.5717974,22.9040569,0 
113.5717943,22.9040584,0 
113.5717913,22.9040600,0 
113.5717882,22.9040616,0 
113.5717850,22.9040631,0 
113.5717818,22.9040647,0 
113.5717786,22.9040663,0 
113.5717754,22.9040678,0 
113.5717722,22.9040694,0 
113.5717689,22.9040709,0 
113.5717656,22.9040725,0 
113.5717622,22.9040741,0 
113.5717589,22.9040756,0 
113.5717555,22.9040771,0 
113.5717521,22.9040787,0 
113.5717487,22.9040802,0 
113.5717453,22.9040817,0 
113.5717419,22.9040832,0 
113.5717384,22.9040847,0 
113.5717350,22.9040862,0 
113.5717315,22.9040877,0 
113.5717281,22.9040892,0 
113.5717246,22.9040906,0 
113.5717211,22.9040921,0 
113.5717176,22.9040935,0 
113.5717142,22.9040949,0 
113.5717107,22.9040963,0 
113.5717072,22.9040977,0 
113.5717037,22.9040991,0 
113.5717002,22.9041004,0 
113.5716968,22.9041018,0 
113.5716933,22.9041031,0 
113.5716899,22.9041044,0 
113.5716864,22.9041057,0 
113.5716830,22.9041070,0 
113.5716796,22.9041082,0 
113.5716762,22.9041095,0 
113.5716728,22.9041107,0 
113.5716695,22.9041119,0 
113.5716661,22.9041130,0 
113.5716628,22.9041142,0 
113.5716595,22.9041153,0 
113.5716562,22.9041164,0 
113.5716530,22.9041175,0 
113.5716498,22.9041185,0 
113.5716466,22.9041195,0 
113.5716434,22.9041205,0 
113.5716403,22.9041215,0 
113.5716372,22.9041225,0 
113.5716341,22.9041234,0 
113.5716311,22.9041243,0 
113.5716281,22.9041251,0 
113.5716251,22.9041260,0 
113.5716222,22.9041268,0 
113.5716194,22.9041276,0 
113.5716165,22.9041283,0 
113.5716137,22.9041291,0 
113.5716110,22.9041298,0 
113.5716083,22.9041304,0 
113.5716056,22.9041311,0 
113.5716030,22.9041317,0 
113.5716005,22.9041323,0 
113.5715980,22.9041328,0 
113.5715955,22.9041333,0 
113.5715931,22.9041338,0 
113.5715908,22.9041343,0 
113.5715885,22.9041347,0 
113.5715862,22.9041351,0 
113.5715841,22.9041354,0 
113.5715819,22.9041358,0 
113.5715799,22.9041361,0 
113.5715779,22.9041363,0 
113.5715759,22.9041366,0 
113.5715740,22.9041368,0 
113.5715722,22.9041369,0 
113.5715705,22.9041371,0 
113.5715688,22.9041372,0 
113.5715671,22.9041372,0 
113.5715655,22.9041373,0 
113.5715640,22.9041373,0 
113.5715626,22.9041372,0 
113.5715612,22.9041372,0 
113.5715599,22.9041371,0 
113.5715587,22.9041369,0 
113.5715575,22.9041368,0 
113.5715564,22.9041366,0 
113.5715554,22.9041364,0 
113.5715544,22.9041361,0 
113.5715536,22.9041358,0 
113.5715527,22.9041355,0 
113.5715520,22.9041351,0 
113.5715513,22.9041347,0 
113.5715507,22.9041343,0 
113.5715502,22.9041339,0 
113.5715497,22.9041334,0 
113.5715493,22.9041329,0 
113.5715490,22.9041323,0 
</coordinates>
</LineString>
</Placemark>
</Folder>