<Folder>
<name>SV 25 266.451396 13.359339</name>
<visibility>1</visibility>
<Placemark>
<name>circle</name>
<visibility>1</visibility>
<Style>
<geomColor>FFFF007A</geomColor>
<geomScale>2</geomScale></Style>
<LineString>
<coordinates>
113.5716790,22.9038760,0 
113.5716791,22.9038754,0 
113.5716792,22.9038749,0 
113.5716794,22.9038744,0 
113.5716796,22.9038739,0 
113.5716798,22.9038734,0 
113.5716802,22.9038729,0 
113.5716805,22.9038724,0 
113.5716809,22.9038719,0 
113.5716814,22.9038714,0 
113.5716819,22.9038710,0 
113.5716825,22.9038705,0 
113.5716831,22.9038700,0 
113.5716838,22.9038696,0 
113.5716845,22.9038691,0 
113.5716852,22.9038686,0 
113.5716860,22.9038682,0 
113.5716869,22.9038678,0 
113.5716878,22.9038673,0 
113.5716887,22.9038669,0 
113.5716897,22.9038665,0 
113.5716908,22.9038661,0 
113.5716919,22.9038657,0 
113.5716930,22.9038653,0 
113.5716942,22.9038649,0 
113.5716954,22.9038645,0 
113.5716967,22.9038641,0 
113.5716980,22.9038638,0 
113.5716993,22.9038634,0 
113.5717007,22.9038630,0 
113.5717022,22.9038627,0 
113.5717036,22.9038624,0 
113.5717052,22.9038620,0 
113.5717067,22.9038617,0 
113.5717083,22.9038614,0 
113.5717099,22.9038611,0 
113.5717116,22.9038608,0 
113.5717133,22.9038606,0 
113.5717151,22.9038603,0 
113.5717168,22.9038600,0 
113.5717187,22.9038598,0 
113.5717205,22.9038596,0 
113.5717224,22.9038593,0 
113.5717243,22.9038591,0 
113.5717262,22.9038589,0 
113.5717282,22.9038587,0 
113.5717302,22.9038585,0 
113.5717322,22.9038583,0 
113.5717343,22.9038582,0 
113.5717364,22.9038580,0 
113.5717385,22.9038579,0 
113.5717406,22.9038577,0 
113.5717428,22.9038576,0 
113.5717450,22.9038575,0 
113.5717472,22.9038574,0 
113.5717494,22.9038573,0 
113.5717516,22.9038572,0 
113.5717539,22.9038572,0 
113.5717562,22.9038571,0 
113.5717585,22.9038571,0 
113.5717608,22.9038570,0 
113.5717631,22.9038570,0 
113.5717655,22.9038570,0 
113.5717678,22.9038570,0 
113.5717702,22.9038570,0 
113.5717726,22.9038570,0 
113.5717749,22.9038571,0 
113.5717773,22.9038571,0 
113.5717797,22.9038572,0 
113.5717822,22.9038573,0 
113.5717846,22.9038573,0 
113.5717870,22.9038574,0 
113.5717894,22.9038575,0 
113.5717919,22.9038576,0 
113.5717943,22.9038578,0 
113.5717967,22.9038579,0 
113.5717991,22.9038580,0 
113.5718016,22.9038582,0 
113.5718040,22.9038584,0 
113.5718064,22.9038585,0 
113.5718088,22.9038587,0 
113.5718112,22.9038589,0 
113.5718136,22.9038591,0 
113.5718160,22.9038593,0 
113.5718184,22.9038596,0 
113.5718208,22.9038598,0 
113.5718232,22.9038601,0 
113.5718255,22.9038603,0 
113.5718278,22.9038606,0 
113.5718302,22.9038609,0 
113.5718325,22.9038611,0 
113.5718348,22.9038614,0 
113.5718370,22.9038617,0 
113.5718393,22.9038621,0 
113.5718415,22.9038624,0 
113.5718438,22.9038627,0 
113.5718459,22.9038631,0 
113.5718481,22.9038634,0 
113.5718503,22.9038638,0 
113.5718524,22.9038641,0 
113.5718545,22.9038645,0 
113.5718566,22.9038649,0 
113.5718586,22.9038653,0 
113.5718606,22.9038657,0 
113.5718626,22.9038661,0 
113.5718646,22.9038665,0 
113.5718665,22.9038669,0 
113.5718684,22.9038673,0 
113.5718703,22.9038678,0 
113.5718721,22.9038682,0 
113.5718739,22.9038687,0 
113.5718757,22.9038691,0 
113.5718774,22.9038696,0 
113.5718791,22.9038700,0 
113.5718808,22.9038705,0 
113.5718824,22.9038710,0 
113.5718840,22.9038715,0 
113.5718855,22.9038719,0 
113.5718870,22.9038724,0 
113.5718885,22.9038729,0 
113.5718899,22.9038734,0 
113.5718913,22.9038739,0 
113.5718926,22.9038744,0 
113.5718939,22.9038749,0 
113.5718951,22.9038755,0 
113.5718964,22.9038760,0 
113.5718975,22.9038765,0 
113.5718986,22.9038770,0 
113.5718997,22.9038775,0 
113.5719007,22.9038781,0 
113.5719017,22.9038786,0 
113.5719026,22.9038791,0 
113.5719035,22.9038797,0 
113.5719044,22.9038802,0 
113.5719052,22.9038807,0 
113.5719059,22.9038813,0 
113.5719066,22.9038818,0 
113.5719072,22.9038823,0 
113.5719078,22.9038829,0 
113.5719084,22.9038834,0 
113.5719089,22.9038839,0 
113.5719093,22.9038845,0 
113.5719097,22.9038850,0 
113.5719101,22.9038855,0 
113.5719104,22.9038861,0 
113.5719106,22.9038866,0 
113.5719108,22.9038871,0 
113.5719109,22.9038876,0 
113.5719110,22.9038882,0 
113.5719111,22.9038887,0 
113.5719111,22.9038892,0 
113.5719110,22.9038897,0 
113.5719109,22.9038902,0 
113.5719107,22.9038907,0 
113.5719105,22.9038912,0 
113.5719103,22.9038918,0 
113.5719099,22.9038922,0 
113.5719096,22.9038927,0 
113.5719092,22.9038932,0 
113.5719087,22.9038937,0 
113.5719082,22.9038942,0 
113.5719076,22.9038947,0 
113.5719070,22.9038951,0 
113.5719063,22.9038956,0 
113.5719056,22.9038961,0 
113.5719049,22.9038965,0 
113.5719041,22.9038970,0 
113.5719032,22.9038974,0 
113.5719023,22.9038978,0 
113.5719014,22.9038983,0 
113.5719004,22.9038987,0 
113.5718993,22.9038991,0 
113.5718982,22.9038995,0 
113.5718971,22.9038999,0 
113.5718959,22.9039003,0 
113.5718947,22.9039007,0 
113.5718934,22.9039010,0 
113.5718921,22.9039014,0 
113.5718908,22.9039018,0 
113.5718894,22.9039021,0 
113.5718879,22.9039025,0 
113.5718865,22.9039028,0 
113.5718849,22.9039031,0 
113.5718834,22.9039034,0 
113.5718818,22.9039037,0 
113.5718802,22.9039040,0 
113.5718785,22.9039043,0 
113.5718768,22.9039046,0 
113.5718750,22.9039049,0 
113.5718733,22.9039051,0 
113.5718714,22.9039054,0 
113.5718696,22.9039056,0 
113.5718677,22.9039058,0 
113.5718658,22.9039060,0 
113.5718639,22.9039063,0 
113.5718619,22.9039065,0 
113.5718599,22.9039066,0 
113.5718579,22.9039068,0 
113.5718558,22.9039070,0 
113.5718537,22.9039071,0 
113.5718516,22.9039073,0 
113.5718495,22.9039074,0 
113.5718473,22.9039075,0 
113.5718451,22.9039076,0 
113.5718429,22.9039077,0 
113.5718407,22.9039078,0 
113.5718385,22.9039079,0 
113.5718362,22.9039080,0 
113.5718339,22.9039080,0 
113.5718316,22.9039081,0 
113.5718293,22.9039081,0 
113.5718270,22.9039081,0 
113.5718246,22.9039081,0 
113.5718223,22.9039081,0 
113.5718199,22.9039081,0 
113.5718175,22.9039081,0 
113.5718152,22.9039081,0 
113.5718128,22.9039080,0 
113.5718104,22.9039080,0 
113.5718079,22.9039079,0 
113.5718055,22.9039078,0 
113.5718031,22.9039077,0 
113.5718007,22.9039076,0 
113.5717982,22.9039075,0 
113.5717958,22.9039074,0 
113.5717934,22.9039073,0 
113.5717910,22.9039071,0 
113.5717885,22.9039070,0 
113.5717861,22.9039068,0 
113.5717837,22.9039066,0 
113.5717813,22.9039064,0 
113.5717789,22.9039062,0 
113.5717765,22.9039060,0 
113.5717741,22.9039058,0 
113.5717717,22.9039056,0 
113.5717693,22.9039054,0 
113.5717669,22.9039051,0 
113.5717646,22.9039048,0 
113.5717622,22.9039046,0 
113.5717599,22.9039043,0 
113.5717576,22.9039040,0 
113.5717553,22.9039037,0 
113.5717531,22.9039034,0 
113.5717508,22.9039031,0 
113.5717486,22.9039028,0 
113.5717463,22.9039024,0 
113.5717441,22.9039021,0 
113.5717420,22.9039018,0 
113.5717398,22.9039014,0 
113.5717377,22.9039010,0 
113.5717356,22.9039007,0 
113.5717335,22.9039003,0 
113.5717315,22.9038999,0 
113.5717295,22.9038995,0 
113.5717275,22.9038991,0 
113.5717255,22.9038987,0 
113.5717236,22.9038982,0 
113.5717217,22.9038978,0 
113.5717198,22.9038974,0 
113.5717180,22.9038969,0 
113.5717162,22.9038965,0 
113.5717144,22.9038960,0 
113.5717127,22.9038956,0 
113.5717110,22.9038951,0 
113.5717093,22.9038947,0 
113.5717077,22.9038942,0 
113.5717061,22.9038937,0 
113.5717046,22.9038932,0 
113.5717031,22.9038927,0 
113.5717016,22.9038922,0 
113.5717002,22.9038917,0 
113.5716988,22.9038912,0 
113.5716975,22.9038907,0 
113.5716962,22.9038902,0 
113.5716950,22.9038897,0 
113.5716937,22.9038892,0 
113.5716926,22.9038887,0 
113.5716915,22.9038881,0 
113.5716904,22.9038876,0 
113.5716894,22.9038871,0 
113.5716884,22.9038866,0 
113.5716875,22.9038860,0 
113.5716866,22.9038855,0 
113.5716857,22.9038850,0 
113.5716849,22.9038844,0 
113.5716842,22.9038839,0 
113.5716835,22.9038834,0 
113.5716829,22.9038828,0 
113.5716823,22.9038823,0 
113.5716817,22.9038818,0 
113.5716812,22.9038812,0 
113.5716808,22.9038807,0 
113.5716804,22.9038802,0 
113.5716800,22.9038796,0 
113.5716797,22.9038791,0 
113.5716795,22.9038786,0 
113.5716793,22.9038780,0 
113.5716792,22.9038775,0 
113.5716791,22.9038770,0 
113.5716790,22.9038765,0 
113.5716790,22.9038760,0 
</coordinates>
</LineString>
</Placemark>
</Folder>