<Folder>
<name>SV 36 232.533862 13.317057</name>
<visibility>1</visibility>
<Placemark>
<name>circle</name>
<visibility>1</visibility>
<Style>
<geomColor></geomColor>
<geomScale>2</geomScale></Style>
<LineString>
<coordinates>
113.5717632,22.9036622,0 
113.5717636,22.9036619,0 
113.5717640,22.9036615,0 
113.5717644,22.9036612,0 
113.5717649,22.9036608,0 
113.5717654,22.9036606,0 
113.5717660,22.9036603,0 
113.5717666,22.9036601,0 
113.5717672,22.9036599,0 
113.5717679,22.9036598,0 
113.5717686,22.9036596,0 
113.5717693,22.9036595,0 
113.5717701,22.9036595,0 
113.5717709,22.9036594,0 
113.5717718,22.9036594,0 
113.5717727,22.9036594,0 
113.5717736,22.9036595,0 
113.5717746,22.9036595,0 
113.5717756,22.9036596,0 
113.5717766,22.9036598,0 
113.5717777,22.9036599,0 
113.5717788,22.9036601,0 
113.5717799,22.9036604,0 
113.5717811,22.9036606,0 
113.5717823,22.9036609,0 
113.5717835,22.9036612,0 
113.5717848,22.9036615,0 
113.5717861,22.9036619,0 
113.5717874,22.9036623,0 
113.5717887,22.9036627,0 
113.5717901,22.9036632,0 
113.5717915,22.9036636,0 
113.5717930,22.9036642,0 
113.5717944,22.9036647,0 
113.5717959,22.9036652,0 
113.5717975,22.9036658,0 
113.5717990,22.9036665,0 
113.5718006,22.9036671,0 
113.5718022,22.9036678,0 
113.5718038,22.9036685,0 
113.5718054,22.9036692,0 
113.5718071,22.9036699,0 
113.5718087,22.9036707,0 
113.5718104,22.9036715,0 
113.5718122,22.9036723,0 
113.5718139,22.9036731,0 
113.5718156,22.9036740,0 
113.5718174,22.9036749,0 
113.5718192,22.9036758,0 
113.5718210,22.9036767,0 
113.5718228,22.9036777,0 
113.5718247,22.9036787,0 
113.5718265,22.9036797,0 
113.5718284,22.9036807,0 
113.5718302,22.9036817,0 
113.5718321,22.9036828,0 
113.5718340,22.9036839,0 
113.5718359,22.9036850,0 
113.5718378,22.9036861,0 
113.5718397,22.9036872,0 
113.5718416,22.9036884,0 
113.5718436,22.9036895,0 
113.5718455,22.9036907,0 
113.5718474,22.9036919,0 
113.5718494,22.9036931,0 
113.5718513,22.9036943,0 
113.5718532,22.9036956,0 
113.5718552,22.9036968,0 
113.5718571,22.9036981,0 
113.5718591,22.9036994,0 
113.5718610,22.9037007,0 
113.5718629,22.9037020,0 
113.5718649,22.9037033,0 
113.5718668,22.9037046,0 
113.5718687,22.9037060,0 
113.5718706,22.9037073,0 
113.5718725,22.9037087,0 
113.5718744,22.9037100,0 
113.5718763,22.9037114,0 
113.5718782,22.9037128,0 
113.5718801,22.9037142,0 
113.5718820,22.9037156,0 
113.5718838,22.9037169,0 
113.5718856,22.9037183,0 
113.5718875,22.9037197,0 
113.5718893,22.9037212,0 
113.5718911,22.9037226,0 
113.5718928,22.9037240,0 
113.5718946,22.9037254,0 
113.5718963,22.9037268,0 
113.5718981,22.9037282,0 
113.5718998,22.9037296,0 
113.5719014,22.9037310,0 
113.5719031,22.9037324,0 
113.5719048,22.9037338,0 
113.5719064,22.9037352,0 
113.5719080,22.9037366,0 
113.5719095,22.9037380,0 
113.5719111,22.9037394,0 
113.5719126,22.9037408,0 
113.5719141,22.9037421,0 
113.5719156,22.9037435,0 
113.5719170,22.9037449,0 
113.5719185,22.9037462,0 
113.5719199,22.9037476,0 
113.5719212,22.9037489,0 
113.5719226,22.9037502,0 
113.5719239,22.9037516,0 
113.5719251,22.9037529,0 
113.5719264,22.9037541,0 
113.5719276,22.9037554,0 
113.5719288,22.9037567,0 
113.5719299,22.9037580,0 
113.5719310,22.9037592,0 
113.5719321,22.9037604,0 
113.5719332,22.9037616,0 
113.5719342,22.9037628,0 
113.5719351,22.9037640,0 
113.5719361,22.9037652,0 
113.5719370,22.9037663,0 
113.5719379,22.9037675,0 
113.5719387,22.9037686,0 
113.5719395,22.9037697,0 
113.5719402,22.9037707,0 
113.5719410,22.9037718,0 
113.5719416,22.9037728,0 
113.5719423,22.9037738,0 
113.5719429,22.9037748,0 
113.5719435,22.9037758,0 
113.5719440,22.9037768,0 
113.5719445,22.9037777,0 
113.5719449,22.9037786,0 
113.5719453,22.9037795,0 
113.5719457,22.9037804,0 
113.5719460,22.9037812,0 
113.5719463,22.9037820,0 
113.5719466,22.9037828,0 
113.5719468,22.9037836,0 
113.5719470,22.9037843,0 
113.5719471,22.9037850,0 
113.5719472,22.9037857,0 
113.5719472,22.9037864,0 
113.5719472,22.9037870,0 
113.5719472,22.9037876,0 
113.5719471,22.9037882,0 
113.5719470,22.9037888,0 
113.5719468,22.9037893,0 
113.5719466,22.9037898,0 
113.5719464,22.9037903,0 
113.5719461,22.9037907,0 
113.5719458,22.9037912,0 
113.5719455,22.9037915,0 
113.5719451,22.9037919,0 
113.5719446,22.9037922,0 
113.5719441,22.9037925,0 
113.5719436,22.9037928,0 
113.5719431,22.9037931,0 
113.5719425,22.9037933,0 
113.5719419,22.9037935,0 
113.5719412,22.9037936,0 
113.5719405,22.9037938,0 
113.5719397,22.9037939,0 
113.5719389,22.9037939,0 
113.5719381,22.9037940,0 
113.5719373,22.9037940,0 
113.5719364,22.9037940,0 
113.5719354,22.9037939,0 
113.5719345,22.9037939,0 
113.5719335,22.9037938,0 
113.5719324,22.9037936,0 
113.5719314,22.9037935,0 
113.5719303,22.9037933,0 
113.5719291,22.9037930,0 
113.5719280,22.9037928,0 
113.5719268,22.9037925,0 
113.5719255,22.9037922,0 
113.5719243,22.9037919,0 
113.5719230,22.9037915,0 
113.5719216,22.9037911,0 
113.5719203,22.9037907,0 
113.5719189,22.9037902,0 
113.5719175,22.9037898,0 
113.5719161,22.9037892,0 
113.5719146,22.9037887,0 
113.5719131,22.9037881,0 
113.5719116,22.9037876,0 
113.5719100,22.9037869,0 
113.5719085,22.9037863,0 
113.5719069,22.9037856,0 
113.5719053,22.9037849,0 
113.5719036,22.9037842,0 
113.5719020,22.9037835,0 
113.5719003,22.9037827,0 
113.5718986,22.9037819,0 
113.5718969,22.9037811,0 
113.5718951,22.9037803,0 
113.5718934,22.9037794,0 
113.5718916,22.9037785,0 
113.5718898,22.9037776,0 
113.5718880,22.9037767,0 
113.5718862,22.9037757,0 
113.5718844,22.9037747,0 
113.5718825,22.9037737,0 
113.5718807,22.9037727,0 
113.5718788,22.9037717,0 
113.5718769,22.9037706,0 
113.5718750,22.9037695,0 
113.5718731,22.9037684,0 
113.5718712,22.9037673,0 
113.5718693,22.9037662,0 
113.5718674,22.9037650,0 
113.5718655,22.9037639,0 
113.5718635,22.9037627,0 
113.5718616,22.9037615,0 
113.5718597,22.9037603,0 
113.5718577,22.9037590,0 
113.5718558,22.9037578,0 
113.5718539,22.9037565,0 
113.5718519,22.9037553,0 
113.5718500,22.9037540,0 
113.5718480,22.9037527,0 
113.5718461,22.9037514,0 
113.5718442,22.9037501,0 
113.5718422,22.9037488,0 
113.5718403,22.9037474,0 
113.5718384,22.9037461,0 
113.5718365,22.9037447,0 
113.5718346,22.9037434,0 
113.5718327,22.9037420,0 
113.5718308,22.9037406,0 
113.5718289,22.9037392,0 
113.5718271,22.9037378,0 
113.5718252,22.9037364,0 
113.5718234,22.9037350,0 
113.5718216,22.9037336,0 
113.5718198,22.9037322,0 
113.5718180,22.9037308,0 
113.5718162,22.9037294,0 
113.5718144,22.9037280,0 
113.5718127,22.9037266,0 
113.5718110,22.9037252,0 
113.5718093,22.9037238,0 
113.5718076,22.9037224,0 
113.5718059,22.9037210,0 
113.5718043,22.9037196,0 
113.5718027,22.9037182,0 
113.5718011,22.9037168,0 
113.5717995,22.9037154,0 
113.5717979,22.9037140,0 
113.5717964,22.9037126,0 
113.5717949,22.9037112,0 
113.5717934,22.9037099,0 
113.5717920,22.9037085,0 
113.5717906,22.9037072,0 
113.5717892,22.9037058,0 
113.5717878,22.9037045,0 
113.5717865,22.9037032,0 
113.5717852,22.9037018,0 
113.5717839,22.9037005,0 
113.5717827,22.9036992,0 
113.5717814,22.9036980,0 
113.5717803,22.9036967,0 
113.5717791,22.9036954,0 
113.5717780,22.9036942,0 
113.5717769,22.9036930,0 
113.5717759,22.9036918,0 
113.5717749,22.9036906,0 
113.5717739,22.9036894,0 
113.5717730,22.9036882,0 
113.5717721,22.9036871,0 
113.5717712,22.9036859,0 
113.5717703,22.9036848,0 
113.5717696,22.9036837,0 
113.5717688,22.9036827,0 
113.5717681,22.9036816,0 
113.5717674,22.9036806,0 
113.5717667,22.9036795,0 
113.5717661,22.9036786,0 
113.5717656,22.9036776,0 
113.5717650,22.9036766,0 
113.5717646,22.9036757,0 
113.5717641,22.9036748,0 
113.5717637,22.9036739,0 
113.5717633,22.9036730,0 
113.5717630,22.9036722,0 
113.5717627,22.9036714,0 
113.5717625,22.9036706,0 
113.5717622,22.9036698,0 
113.5717621,22.9036691,0 
113.5717620,22.9036684,0 
113.5717619,22.9036677,0 
113.5717618,22.9036670,0 
113.5717618,22.9036664,0 
113.5717618,22.9036658,0 
113.5717619,22.9036652,0 
113.5717620,22.9036646,0 
113.5717622,22.9036641,0 
113.5717624,22.9036636,0 
113.5717626,22.9036631,0 
113.5717629,22.9036627,0 
113.5717632,22.9036622,0 
</coordinates>
</LineString>
</Placemark>
</Folder>