<Folder>
<name>SV  5 292.296587 9.913001</name>
<visibility>1</visibility>
<Placemark>
<name>circle</name>
<visibility>1</visibility>
<Style>
<geomColor>FF006400</geomColor>
<geomScale>2</geomScale></Style>
<LineString>
<coordinates>
113.5715379,22.9041123,0 
113.5715377,22.9041118,0 
113.5715375,22.9041112,0 
113.5715375,22.9041106,0 
113.5715375,22.9041099,0 
113.5715376,22.9041092,0 
113.5715377,22.9041085,0 
113.5715380,22.9041078,0 
113.5715383,22.9041071,0 
113.5715386,22.9041063,0 
113.5715391,22.9041055,0 
113.5715396,22.9041047,0 
113.5715402,22.9041038,0 
113.5715408,22.9041030,0 
113.5715416,22.9041021,0 
113.5715424,22.9041011,0 
113.5715433,22.9041002,0 
113.5715442,22.9040992,0 
113.5715452,22.9040983,0 
113.5715463,22.9040973,0 
113.5715475,22.9040962,0 
113.5715487,22.9040952,0 
113.5715500,22.9040941,0 
113.5715513,22.9040930,0 
113.5715527,22.9040919,0 
113.5715542,22.9040908,0 
113.5715558,22.9040897,0 
113.5715574,22.9040885,0 
113.5715591,22.9040873,0 
113.5715608,22.9040861,0 
113.5715627,22.9040849,0 
113.5715645,22.9040837,0 
113.5715665,22.9040825,0 
113.5715685,22.9040812,0 
113.5715705,22.9040800,0 
113.5715726,22.9040787,0 
113.5715748,22.9040774,0 
113.5715770,22.9040761,0 
113.5715793,22.9040748,0 
113.5715816,22.9040734,0 
113.5715840,22.9040721,0 
113.5715865,22.9040707,0 
113.5715889,22.9040694,0 
113.5715915,22.9040680,0 
113.5715941,22.9040667,0 
113.5715967,22.9040653,0 
113.5715994,22.9040639,0 
113.5716021,22.9040625,0 
113.5716049,22.9040611,0 
113.5716077,22.9040597,0 
113.5716106,22.9040583,0 
113.5716135,22.9040569,0 
113.5716164,22.9040555,0 
113.5716194,22.9040540,0 
113.5716224,22.9040526,0 
113.5716255,22.9040512,0 
113.5716286,22.9040498,0 
113.5716317,22.9040484,0 
113.5716349,22.9040469,0 
113.5716380,22.9040455,0 
113.5716412,22.9040441,0 
113.5716445,22.9040427,0 
113.5716477,22.9040413,0 
113.5716510,22.9040399,0 
113.5716543,22.9040385,0 
113.5716577,22.9040371,0 
113.5716610,22.9040357,0 
113.5716644,22.9040343,0 
113.5716678,22.9040329,0 
113.5716712,22.9040315,0 
113.5716746,22.9040302,0 
113.5716780,22.9040288,0 
113.5716815,22.9040275,0 
113.5716849,22.9040261,0 
113.5716884,22.9040248,0 
113.5716919,22.9040235,0 
113.5716953,22.9040222,0 
113.5716988,22.9040209,0 
113.5717023,22.9040196,0 
113.5717058,22.9040183,0 
113.5717093,22.9040171,0 
113.5717127,22.9040158,0 
113.5717162,22.9040146,0 
113.5717197,22.9040134,0 
113.5717231,22.9040122,0 
113.5717266,22.9040110,0 
113.5717300,22.9040099,0 
113.5717334,22.9040087,0 
113.5717369,22.9040076,0 
113.5717403,22.9040065,0 
113.5717436,22.9040054,0 
113.5717470,22.9040043,0 
113.5717504,22.9040033,0 
113.5717537,22.9040023,0 
113.5717570,22.9040013,0 
113.5717603,22.9040003,0 
113.5717635,22.9039993,0 
113.5717668,22.9039984,0 
113.5717700,22.9039975,0 
113.5717731,22.9039966,0 
113.5717763,22.9039957,0 
113.5717794,22.9039949,0 
113.5717825,22.9039940,0 
113.5717855,22.9039932,0 
113.5717885,22.9039925,0 
113.5717915,22.9039917,0 
113.5717944,22.9039910,0 
113.5717973,22.9039903,0 
113.5718002,22.9039896,0 
113.5718030,22.9039890,0 
113.5718057,22.9039883,0 
113.5718085,22.9039877,0 
113.5718111,22.9039872,0 
113.5718138,22.9039866,0 
113.5718163,22.9039861,0 
113.5718189,22.9039857,0 
113.5718213,22.9039852,0 
113.5718238,22.9039848,0 
113.5718261,22.9039844,0 
113.5718285,22.9039840,0 
113.5718307,22.9039837,0 
113.5718329,22.9039834,0 
113.5718351,22.9039831,0 
113.5718372,22.9039828,0 
113.5718392,22.9039826,0 
113.5718412,22.9039824,0 
113.5718431,22.9039822,0 
113.5718450,22.9039821,0 
113.5718468,22.9039820,0 
113.5718485,22.9039819,0 
113.5718502,22.9039819,0 
113.5718518,22.9039819,0 
113.5718533,22.9039819,0 
113.5718548,22.9039819,0 
113.5718562,22.9039820,0 
113.5718575,22.9039821,0 
113.5718588,22.9039822,0 
113.5718600,22.9039824,0 
113.5718611,22.9039826,0 
113.5718622,22.9039828,0 
113.5718632,22.9039831,0 
113.5718641,22.9039833,0 
113.5718650,22.9039837,0 
113.5718658,22.9039840,0 
113.5718665,22.9039844,0 
113.5718671,22.9039848,0 
113.5718677,22.9039852,0 
113.5718682,22.9039856,0 
113.5718686,22.9039861,0 
113.5718690,22.9039866,0 
113.5718693,22.9039872,0 
113.5718695,22.9039877,0 
113.5718696,22.9039883,0 
113.5718697,22.9039889,0 
113.5718696,22.9039896,0 
113.5718696,22.9039902,0 
113.5718694,22.9039909,0 
113.5718692,22.9039917,0 
113.5718689,22.9039924,0 
113.5718685,22.9039932,0 
113.5718681,22.9039940,0 
113.5718675,22.9039948,0 
113.5718670,22.9039957,0 
113.5718663,22.9039965,0 
113.5718656,22.9039974,0 
113.5718648,22.9039983,0 
113.5718639,22.9039993,0 
113.5718629,22.9040002,0 
113.5718619,22.9040012,0 
113.5718608,22.9040022,0 
113.5718597,22.9040033,0 
113.5718585,22.9040043,0 
113.5718572,22.9040054,0 
113.5718558,22.9040065,0 
113.5718544,22.9040076,0 
113.5718529,22.9040087,0 
113.5718513,22.9040098,0 
113.5718497,22.9040110,0 
113.5718480,22.9040122,0 
113.5718463,22.9040133,0 
113.5718445,22.9040146,0 
113.5718426,22.9040158,0 
113.5718407,22.9040170,0 
113.5718387,22.9040183,0 
113.5718366,22.9040195,0 
113.5718345,22.9040208,0 
113.5718324,22.9040221,0 
113.5718301,22.9040234,0 
113.5718278,22.9040247,0 
113.5718255,22.9040261,0 
113.5718231,22.9040274,0 
113.5718207,22.9040287,0 
113.5718182,22.9040301,0 
113.5718156,22.9040315,0 
113.5718131,22.9040328,0 
113.5718104,22.9040342,0 
113.5718077,22.9040356,0 
113.5718050,22.9040370,0 
113.5718022,22.9040384,0 
113.5717994,22.9040398,0 
113.5717965,22.9040412,0 
113.5717936,22.9040426,0 
113.5717907,22.9040440,0 
113.5717877,22.9040455,0 
113.5717847,22.9040469,0 
113.5717816,22.9040483,0 
113.5717786,22.9040497,0 
113.5717754,22.9040511,0 
113.5717723,22.9040526,0 
113.5717691,22.9040540,0 
113.5717659,22.9040554,0 
113.5717627,22.9040568,0 
113.5717594,22.9040582,0 
113.5717561,22.9040596,0 
113.5717528,22.9040610,0 
113.5717495,22.9040624,0 
113.5717461,22.9040638,0 
113.5717427,22.9040652,0 
113.5717393,22.9040666,0 
113.5717359,22.9040680,0 
113.5717325,22.9040693,0 
113.5717291,22.9040707,0 
113.5717256,22.9040720,0 
113.5717222,22.9040734,0 
113.5717187,22.9040747,0 
113.5717153,22.9040760,0 
113.5717118,22.9040773,0 
113.5717083,22.9040786,0 
113.5717048,22.9040799,0 
113.5717014,22.9040812,0 
113.5716979,22.9040824,0 
113.5716944,22.9040837,0 
113.5716909,22.9040849,0 
113.5716875,22.9040861,0 
113.5716840,22.9040873,0 
113.5716806,22.9040885,0 
113.5716771,22.9040896,0 
113.5716737,22.9040908,0 
113.5716703,22.9040919,0 
113.5716669,22.9040930,0 
113.5716635,22.9040941,0 
113.5716601,22.9040951,0 
113.5716568,22.9040962,0 
113.5716535,22.9040972,0 
113.5716501,22.9040982,0 
113.5716469,22.9040992,0 
113.5716436,22.9041002,0 
113.5716404,22.9041011,0 
113.5716372,22.9041020,0 
113.5716340,22.9041029,0 
113.5716309,22.9041038,0 
113.5716277,22.9041046,0 
113.5716247,22.9041055,0 
113.5716216,22.9041063,0 
113.5716186,22.9041070,0 
113.5716156,22.9041078,0 
113.5716127,22.9041085,0 
113.5716098,22.9041092,0 
113.5716070,22.9041099,0 
113.5716042,22.9041105,0 
113.5716014,22.9041111,0 
113.5715987,22.9041117,0 
113.5715960,22.9041123,0 
113.5715934,22.9041128,0 
113.5715908,22.9041134,0 
113.5715883,22.9041138,0 
113.5715858,22.9041143,0 
113.5715834,22.9041147,0 
113.5715810,22.9041151,0 
113.5715787,22.9041155,0 
113.5715764,22.9041158,0 
113.5715742,22.9041161,0 
113.5715720,22.9041164,0 
113.5715699,22.9041167,0 
113.5715679,22.9041169,0 
113.5715659,22.9041171,0 
113.5715640,22.9041172,0 
113.5715622,22.9041174,0 
113.5715604,22.9041175,0 
113.5715586,22.9041176,0 
113.5715570,22.9041176,0 
113.5715554,22.9041176,0 
113.5715538,22.9041176,0 
113.5715524,22.9041176,0 
113.5715509,22.9041175,0 
113.5715496,22.9041174,0 
113.5715483,22.9041173,0 
113.5715471,22.9041171,0 
113.5715460,22.9041169,0 
113.5715449,22.9041167,0 
113.5715439,22.9041164,0 
113.5715430,22.9041161,0 
113.5715422,22.9041158,0 
113.5715414,22.9041155,0 
113.5715407,22.9041151,0 
113.5715400,22.9041147,0 
113.5715394,22.9041143,0 
113.5715389,22.9041139,0 
113.5715385,22.9041134,0 
113.5715382,22.9041129,0 
113.5715379,22.9041123,0 
</coordinates>
</LineString>
</Placemark>
</Folder>