<Folder>
<name>SV  4 194.331077 12.788131</name>
<visibility>1</visibility>
<Placemark>
<name>circle</name>
<visibility>1</visibility>
<Style>
<geomColor></geomColor>
<geomScale>2</geomScale></Style>
<LineString>
<coordinates>
113.5719939,22.9035173,0 
113.5719944,22.9035172,0 
113.5719949,22.9035172,0 
113.5719954,22.9035172,0 
113.5719959,22.9035172,0 
113.5719965,22.9035173,0 
113.5719970,22.9035174,0 
113.5719976,22.9035176,0 
113.5719982,22.9035178,0 
113.5719988,22.9035180,0 
113.5719994,22.9035183,0 
113.5720000,22.9035187,0 
113.5720006,22.9035190,0 
113.5720012,22.9035195,0 
113.5720018,22.9035199,0 
113.5720025,22.9035204,0 
113.5720031,22.9035210,0 
113.5720038,22.9035215,0 
113.5720044,22.9035222,0 
113.5720051,22.9035228,0 
113.5720058,22.9035236,0 
113.5720065,22.9035243,0 
113.5720072,22.9035251,0 
113.5720079,22.9035259,0 
113.5720086,22.9035268,0 
113.5720093,22.9035277,0 
113.5720100,22.9035286,0 
113.5720107,22.9035296,0 
113.5720114,22.9035306,0 
113.5720122,22.9035317,0 
113.5720129,22.9035328,0 
113.5720136,22.9035339,0 
113.5720144,22.9035351,0 
113.5720151,22.9035363,0 
113.5720158,22.9035375,0 
113.5720166,22.9035388,0 
113.5720173,22.9035401,0 
113.5720181,22.9035414,0 
113.5720188,22.9035428,0 
113.5720196,22.9035442,0 
113.5720203,22.9035456,0 
113.5720211,22.9035471,0 
113.5720218,22.9035486,0 
113.5720226,22.9035501,0 
113.5720233,22.9035516,0 
113.5720241,22.9035532,0 
113.5720248,22.9035548,0 
113.5720256,22.9035565,0 
113.5720263,22.9035581,0 
113.5720271,22.9035598,0 
113.5720278,22.9035615,0 
113.5720286,22.9035632,0 
113.5720293,22.9035650,0 
113.5720300,22.9035668,0 
113.5720308,22.9035685,0 
113.5720315,22.9035704,0 
113.5720322,22.9035722,0 
113.5720329,22.9035741,0 
113.5720336,22.9035759,0 
113.5720343,22.9035778,0 
113.5720350,22.9035797,0 
113.5720357,22.9035816,0 
113.5720364,22.9035836,0 
113.5720371,22.9035855,0 
113.5720377,22.9035875,0 
113.5720384,22.9035895,0 
113.5720390,22.9035915,0 
113.5720397,22.9035935,0 
113.5720403,22.9035955,0 
113.5720410,22.9035975,0 
113.5720416,22.9035995,0 
113.5720422,22.9036015,0 
113.5720428,22.9036036,0 
113.5720434,22.9036056,0 
113.5720440,22.9036077,0 
113.5720446,22.9036097,0 
113.5720451,22.9036118,0 
113.5720457,22.9036138,0 
113.5720462,22.9036159,0 
113.5720467,22.9036179,0 
113.5720473,22.9036200,0 
113.5720478,22.9036220,0 
113.5720483,22.9036241,0 
113.5720488,22.9036261,0 
113.5720492,22.9036282,0 
113.5720497,22.9036302,0 
113.5720501,22.9036322,0 
113.5720506,22.9036342,0 
113.5720510,22.9036362,0 
113.5720514,22.9036382,0 
113.5720518,22.9036402,0 
113.5720522,22.9036422,0 
113.5720525,22.9036442,0 
113.5720529,22.9036461,0 
113.5720532,22.9036481,0 
113.5720536,22.9036500,0 
113.5720539,22.9036519,0 
113.5720542,22.9036538,0 
113.5720545,22.9036557,0 
113.5720547,22.9036576,0 
113.5720550,22.9036594,0 
113.5720552,22.9036612,0 
113.5720554,22.9036630,0 
113.5720556,22.9036648,0 
113.5720558,22.9036666,0 
113.5720560,22.9036683,0 
113.5720562,22.9036700,0 
113.5720563,22.9036717,0 
113.5720565,22.9036734,0 
113.5720566,22.9036750,0 
113.5720567,22.9036766,0 
113.5720568,22.9036782,0 
113.5720568,22.9036798,0 
113.5720569,22.9036813,0 
113.5720569,22.9036828,0 
113.5720569,22.9036843,0 
113.5720570,22.9036857,0 
113.5720569,22.9036872,0 
113.5720569,22.9036885,0 
113.5720569,22.9036899,0 
113.5720568,22.9036912,0 
113.5720567,22.9036925,0 
113.5720567,22.9036937,0 
113.5720566,22.9036949,0 
113.5720564,22.9036961,0 
113.5720563,22.9036973,0 
113.5720562,22.9036984,0 
113.5720560,22.9036994,0 
113.5720558,22.9037005,0 
113.5720556,22.9037015,0 
113.5720554,22.9037024,0 
113.5720552,22.9037034,0 
113.5720549,22.9037042,0 
113.5720547,22.9037051,0 
113.5720544,22.9037059,0 
113.5720541,22.9037066,0 
113.5720538,22.9037074,0 
113.5720535,22.9037081,0 
113.5720532,22.9037087,0 
113.5720528,22.9037093,0 
113.5720525,22.9037099,0 
113.5720521,22.9037104,0 
113.5720517,22.9037109,0 
113.5720513,22.9037113,0 
113.5720509,22.9037117,0 
113.5720505,22.9037120,0 
113.5720501,22.9037123,0 
113.5720496,22.9037126,0 
113.5720491,22.9037128,0 
113.5720487,22.9037130,0 
113.5720482,22.9037131,0 
113.5720477,22.9037132,0 
113.5720472,22.9037133,0 
113.5720466,22.9037133,0 
113.5720461,22.9037133,0 
113.5720456,22.9037132,0 
113.5720450,22.9037131,0 
113.5720445,22.9037129,0 
113.5720439,22.9037127,0 
113.5720433,22.9037125,0 
113.5720427,22.9037122,0 
113.5720421,22.9037118,0 
113.5720415,22.9037114,0 
113.5720409,22.9037110,0 
113.5720402,22.9037106,0 
113.5720396,22.9037101,0 
113.5720389,22.9037095,0 
113.5720383,22.9037089,0 
113.5720376,22.9037083,0 
113.5720369,22.9037076,0 
113.5720363,22.9037069,0 
113.5720356,22.9037062,0 
113.5720349,22.9037054,0 
113.5720342,22.9037046,0 
113.5720335,22.9037037,0 
113.5720328,22.9037028,0 
113.5720321,22.9037019,0 
113.5720313,22.9037009,0 
113.5720306,22.9036999,0 
113.5720299,22.9036988,0 
113.5720292,22.9036977,0 
113.5720284,22.9036966,0 
113.5720277,22.9036954,0 
113.5720270,22.9036942,0 
113.5720262,22.9036930,0 
113.5720255,22.9036917,0 
113.5720247,22.9036904,0 
113.5720240,22.9036891,0 
113.5720232,22.9036877,0 
113.5720225,22.9036863,0 
113.5720217,22.9036849,0 
113.5720210,22.9036834,0 
113.5720202,22.9036819,0 
113.5720195,22.9036804,0 
113.5720187,22.9036788,0 
113.5720180,22.9036773,0 
113.5720172,22.9036757,0 
113.5720165,22.9036740,0 
113.5720157,22.9036724,0 
113.5720150,22.9036707,0 
113.5720142,22.9036690,0 
113.5720135,22.9036673,0 
113.5720128,22.9036655,0 
113.5720120,22.9036637,0 
113.5720113,22.9036619,0 
113.5720106,22.9036601,0 
113.5720099,22.9036583,0 
113.5720091,22.9036564,0 
113.5720084,22.9036546,0 
113.5720077,22.9036527,0 
113.5720070,22.9036508,0 
113.5720064,22.9036488,0 
113.5720057,22.9036469,0 
113.5720050,22.9036450,0 
113.5720043,22.9036430,0 
113.5720037,22.9036410,0 
113.5720030,22.9036390,0 
113.5720024,22.9036370,0 
113.5720017,22.9036350,0 
113.5720011,22.9036330,0 
113.5720005,22.9036310,0 
113.5719999,22.9036290,0 
113.5719993,22.9036269,0 
113.5719987,22.9036249,0 
113.5719981,22.9036228,0 
113.5719975,22.9036208,0 
113.5719969,22.9036187,0 
113.5719964,22.9036167,0 
113.5719958,22.9036146,0 
113.5719953,22.9036126,0 
113.5719948,22.9036105,0 
113.5719943,22.9036085,0 
113.5719938,22.9036064,0 
113.5719933,22.9036044,0 
113.5719928,22.9036023,0 
113.5719924,22.9036003,0 
113.5719919,22.9035983,0 
113.5719915,22.9035963,0 
113.5719911,22.9035942,0 
113.5719907,22.9035922,0 
113.5719903,22.9035903,0 
113.5719899,22.9035883,0 
113.5719895,22.9035863,0 
113.5719892,22.9035844,0 
113.5719888,22.9035824,0 
113.5719885,22.9035805,0 
113.5719882,22.9035786,0 
113.5719879,22.9035767,0 
113.5719876,22.9035748,0 
113.5719873,22.9035729,0 
113.5719871,22.9035711,0 
113.5719868,22.9035693,0 
113.5719866,22.9035675,0 
113.5719864,22.9035657,0 
113.5719862,22.9035639,0 
113.5719860,22.9035622,0 
113.5719859,22.9035605,0 
113.5719857,22.9035588,0 
113.5719856,22.9035571,0 
113.5719855,22.9035555,0 
113.5719854,22.9035538,0 
113.5719853,22.9035523,0 
113.5719852,22.9035507,0 
113.5719852,22.9035492,0 
113.5719851,22.9035477,0 
113.5719851,22.9035462,0 
113.5719851,22.9035447,0 
113.5719851,22.9035433,0 
113.5719851,22.9035420,0 
113.5719852,22.9035406,0 
113.5719852,22.9035393,0 
113.5719853,22.9035380,0 
113.5719854,22.9035368,0 
113.5719855,22.9035355,0 
113.5719856,22.9035344,0 
113.5719857,22.9035332,0 
113.5719859,22.9035321,0 
113.5719861,22.9035310,0 
113.5719862,22.9035300,0 
113.5719864,22.9035290,0 
113.5719867,22.9035281,0 
113.5719869,22.9035271,0 
113.5719871,22.9035263,0 
113.5719874,22.9035254,0 
113.5719876,22.9035246,0 
113.5719879,22.9035238,0 
113.5719882,22.9035231,0 
113.5719885,22.9035224,0 
113.5719889,22.9035218,0 
113.5719892,22.9035212,0 
113.5719896,22.9035206,0 
113.5719899,22.9035201,0 
113.5719903,22.9035196,0 
113.5719907,22.9035192,0 
113.5719911,22.9035188,0 
113.5719916,22.9035185,0 
113.5719920,22.9035181,0 
113.5719924,22.9035179,0 
113.5719929,22.9035177,0 
113.5719934,22.9035175,0 
113.5719939,22.9035173,0 
</coordinates>
</LineString>
</Placemark>
</Folder>