<Folder>
<name>SV 36 234.564728 14.906542</name>
<visibility>1</visibility>
<Placemark>
<name>circle</name>
<visibility>1</visibility>
<Style>
<geomColor></geomColor>
<geomScale>2</geomScale></Style>
<LineString>
<coordinates>
113.5717983,22.9037022,0 
113.5717986,22.9037018,0 
113.5717989,22.9037015,0 
113.5717993,22.9037011,0 
113.5717997,22.9037008,0 
113.5718002,22.9037005,0 
113.5718007,22.9037003,0 
113.5718012,22.9037000,0 
113.5718018,22.9036998,0 
113.5718024,22.9036996,0 
113.5718030,22.9036994,0 
113.5718037,22.9036993,0 
113.5718044,22.9036992,0 
113.5718051,22.9036991,0 
113.5718058,22.9036990,0 
113.5718066,22.9036989,0 
113.5718074,22.9036989,0 
113.5718083,22.9036989,0 
113.5718092,22.9036989,0 
113.5718101,22.9036990,0 
113.5718110,22.9036991,0 
113.5718120,22.9036992,0 
113.5718130,22.9036993,0 
113.5718140,22.9036994,0 
113.5718150,22.9036996,0 
113.5718161,22.9036998,0 
113.5718172,22.9037000,0 
113.5718184,22.9037002,0 
113.5718195,22.9037005,0 
113.5718207,22.9037008,0 
113.5718219,22.9037011,0 
113.5718232,22.9037014,0 
113.5718244,22.9037018,0 
113.5718257,22.9037022,0 
113.5718270,22.9037026,0 
113.5718283,22.9037030,0 
113.5718297,22.9037034,0 
113.5718310,22.9037039,0 
113.5718324,22.9037044,0 
113.5718338,22.9037049,0 
113.5718353,22.9037054,0 
113.5718367,22.9037060,0 
113.5718382,22.9037066,0 
113.5718397,22.9037072,0 
113.5718412,22.9037078,0 
113.5718427,22.9037084,0 
113.5718442,22.9037091,0 
113.5718457,22.9037098,0 
113.5718473,22.9037105,0 
113.5718489,22.9037112,0 
113.5718505,22.9037119,0 
113.5718520,22.9037127,0 
113.5718537,22.9037134,0 
113.5718553,22.9037142,0 
113.5718569,22.9037150,0 
113.5718585,22.9037159,0 
113.5718602,22.9037167,0 
113.5718618,22.9037176,0 
113.5718635,22.9037184,0 
113.5718652,22.9037193,0 
113.5718668,22.9037202,0 
113.5718685,22.9037212,0 
113.5718702,22.9037221,0 
113.5718719,22.9037231,0 
113.5718735,22.9037240,0 
113.5718752,22.9037250,0 
113.5718769,22.9037260,0 
113.5718786,22.9037270,0 
113.5718803,22.9037280,0 
113.5718820,22.9037290,0 
113.5718837,22.9037301,0 
113.5718853,22.9037311,0 
113.5718870,22.9037322,0 
113.5718887,22.9037332,0 
113.5718904,22.9037343,0 
113.5718920,22.9037354,0 
113.5718937,22.9037365,0 
113.5718953,22.9037376,0 
113.5718970,22.9037387,0 
113.5718986,22.9037398,0 
113.5719002,22.9037409,0 
113.5719018,22.9037420,0 
113.5719035,22.9037432,0 
113.5719050,22.9037443,0 
113.5719066,22.9037455,0 
113.5719082,22.9037466,0 
113.5719097,22.9037477,0 
113.5719113,22.9037489,0 
113.5719128,22.9037500,0 
113.5719143,22.9037512,0 
113.5719158,22.9037524,0 
113.5719173,22.9037535,0 
113.5719187,22.9037547,0 
113.5719202,22.9037558,0 
113.5719216,22.9037570,0 
113.5719230,22.9037581,0 
113.5719244,22.9037593,0 
113.5719258,22.9037604,0 
113.5719271,22.9037616,0 
113.5719284,22.9037627,0 
113.5719297,22.9037639,0 
113.5719310,22.9037650,0 
113.5719322,22.9037661,0 
113.5719335,22.9037673,0 
113.5719347,22.9037684,0 
113.5719358,22.9037695,0 
113.5719370,22.9037706,0 
113.5719381,22.9037717,0 
113.5719392,22.9037728,0 
113.5719403,22.9037739,0 
113.5719413,22.9037750,0 
113.5719424,22.9037760,0 
113.5719433,22.9037771,0 
113.5719443,22.9037781,0 
113.5719452,22.9037792,0 
113.5719461,22.9037802,0 
113.5719470,22.9037812,0 
113.5719478,22.9037822,0 
113.5719486,22.9037832,0 
113.5719494,22.9037842,0 
113.5719502,22.9037852,0 
113.5719509,22.9037861,0 
113.5719516,22.9037870,0 
113.5719522,22.9037880,0 
113.5719528,22.9037889,0 
113.5719534,22.9037898,0 
113.5719540,22.9037906,0 
113.5719545,22.9037915,0 
113.5719550,22.9037924,0 
113.5719554,22.9037932,0 
113.5719558,22.9037940,0 
113.5719562,22.9037948,0 
113.5719566,22.9037956,0 
113.5719569,22.9037963,0 
113.5719571,22.9037971,0 
113.5719574,22.9037978,0 
113.5719576,22.9037985,0 
113.5719578,22.9037992,0 
113.5719579,22.9037998,0 
113.5719580,22.9038005,0 
113.5719581,22.9038011,0 
113.5719581,22.9038017,0 
113.5719581,22.9038023,0 
113.5719581,22.9038028,0 
113.5719580,22.9038034,0 
113.5719579,22.9038039,0 
113.5719577,22.9038044,0 
113.5719575,22.9038048,0 
113.5719573,22.9038053,0 
113.5719571,22.9038057,0 
113.5719568,22.9038061,0 
113.5719565,22.9038065,0 
113.5719561,22.9038069,0 
113.5719557,22.9038072,0 
113.5719553,22.9038075,0 
113.5719548,22.9038078,0 
113.5719543,22.9038081,0 
113.5719538,22.9038083,0 
113.5719533,22.9038085,0 
113.5719527,22.9038087,0 
113.5719520,22.9038089,0 
113.5719514,22.9038090,0 
113.5719507,22.9038092,0 
113.5719500,22.9038093,0 
113.5719492,22.9038093,0 
113.5719484,22.9038094,0 
113.5719476,22.9038094,0 
113.5719468,22.9038094,0 
113.5719459,22.9038094,0 
113.5719450,22.9038093,0 
113.5719440,22.9038093,0 
113.5719431,22.9038092,0 
113.5719421,22.9038091,0 
113.5719410,22.9038089,0 
113.5719400,22.9038087,0 
113.5719389,22.9038086,0 
113.5719378,22.9038083,0 
113.5719367,22.9038081,0 
113.5719355,22.9038078,0 
113.5719343,22.9038075,0 
113.5719331,22.9038072,0 
113.5719319,22.9038069,0 
113.5719306,22.9038066,0 
113.5719293,22.9038062,0 
113.5719280,22.9038058,0 
113.5719267,22.9038053,0 
113.5719254,22.9038049,0 
113.5719240,22.9038044,0 
113.5719226,22.9038039,0 
113.5719212,22.9038034,0 
113.5719198,22.9038029,0 
113.5719183,22.9038023,0 
113.5719169,22.9038018,0 
113.5719154,22.9038012,0 
113.5719139,22.9038005,0 
113.5719124,22.9037999,0 
113.5719108,22.9037992,0 
113.5719093,22.9037986,0 
113.5719077,22.9037979,0 
113.5719062,22.9037971,0 
113.5719046,22.9037964,0 
113.5719030,22.9037957,0 
113.5719014,22.9037949,0 
113.5718998,22.9037941,0 
113.5718981,22.9037933,0 
113.5718965,22.9037925,0 
113.5718949,22.9037916,0 
113.5718932,22.9037908,0 
113.5718915,22.9037899,0 
113.5718899,22.9037890,0 
113.5718882,22.9037881,0 
113.5718865,22.9037872,0 
113.5718849,22.9037862,0 
113.5718832,22.9037853,0 
113.5718815,22.9037843,0 
113.5718798,22.9037833,0 
113.5718781,22.9037824,0 
113.5718764,22.9037813,0 
113.5718747,22.9037803,0 
113.5718731,22.9037793,0 
113.5718714,22.9037783,0 
113.5718697,22.9037772,0 
113.5718680,22.9037762,0 
113.5718663,22.9037751,0 
113.5718647,22.9037740,0 
113.5718630,22.9037729,0 
113.5718614,22.9037719,0 
113.5718597,22.9037708,0 
113.5718581,22.9037696,0 
113.5718564,22.9037685,0 
113.5718548,22.9037674,0 
113.5718532,22.9037663,0 
113.5718516,22.9037652,0 
113.5718500,22.9037640,0 
113.5718484,22.9037629,0 
113.5718468,22.9037617,0 
113.5718453,22.9037606,0 
113.5718438,22.9037594,0 
113.5718422,22.9037583,0 
113.5718407,22.9037571,0 
113.5718392,22.9037560,0 
113.5718377,22.9037548,0 
113.5718363,22.9037537,0 
113.5718348,22.9037525,0 
113.5718334,22.9037513,0 
113.5718320,22.9037502,0 
113.5718306,22.9037490,0 
113.5718293,22.9037479,0 
113.5718279,22.9037467,0 
113.5718266,22.9037456,0 
113.5718253,22.9037445,0 
113.5718240,22.9037433,0 
113.5718228,22.9037422,0 
113.5718216,22.9037411,0 
113.5718204,22.9037399,0 
113.5718192,22.9037388,0 
113.5718180,22.9037377,0 
113.5718169,22.9037366,0 
113.5718158,22.9037355,0 
113.5718147,22.9037344,0 
113.5718137,22.9037334,0 
113.5718127,22.9037323,0 
113.5718117,22.9037312,0 
113.5718107,22.9037302,0 
113.5718098,22.9037291,0 
113.5718089,22.9037281,0 
113.5718080,22.9037271,0 
113.5718072,22.9037261,0 
113.5718064,22.9037251,0 
113.5718056,22.9037241,0 
113.5718049,22.9037232,0 
113.5718041,22.9037222,0 
113.5718035,22.9037213,0 
113.5718028,22.9037204,0 
113.5718022,22.9037195,0 
113.5718016,22.9037186,0 
113.5718011,22.9037177,0 
113.5718006,22.9037168,0 
113.5718001,22.9037160,0 
113.5717996,22.9037151,0 
113.5717992,22.9037143,0 
113.5717988,22.9037135,0 
113.5717985,22.9037128,0 
113.5717982,22.9037120,0 
113.5717979,22.9037113,0 
113.5717976,22.9037106,0 
113.5717974,22.9037099,0 
113.5717973,22.9037092,0 
113.5717971,22.9037085,0 
113.5717970,22.9037079,0 
113.5717970,22.9037072,0 
113.5717969,22.9037066,0 
113.5717969,22.9037061,0 
113.5717970,22.9037055,0 
113.5717971,22.9037050,0 
113.5717972,22.9037045,0 
113.5717973,22.9037040,0 
113.5717975,22.9037035,0 
113.5717977,22.9037030,0 
113.5717980,22.9037026,0 
113.5717983,22.9037022,0 
</coordinates>
</LineString>
</Placemark>
</Folder>