<Folder>
<name>SV 21 274.486793 13.081616</name>
<visibility>1</visibility>
<Placemark>
<name>circle</name>
<visibility>1</visibility>
<Style>
<geomColor></geomColor>
<geomScale>2</geomScale></Style>
<LineString>
<coordinates>
113.5716703,22.9039311,0 
113.5716703,22.9039305,0 
113.5716703,22.9039300,0 
113.5716704,22.9039295,0 
113.5716706,22.9039290,0 
113.5716708,22.9039285,0 
113.5716710,22.9039279,0 
113.5716713,22.9039274,0 
113.5716716,22.9039269,0 
113.5716720,22.9039263,0 
113.5716725,22.9039258,0 
113.5716730,22.9039252,0 
113.5716735,22.9039247,0 
113.5716741,22.9039242,0 
113.5716747,22.9039236,0 
113.5716754,22.9039231,0 
113.5716762,22.9039225,0 
113.5716770,22.9039220,0 
113.5716778,22.9039215,0 
113.5716787,22.9039209,0 
113.5716796,22.9039204,0 
113.5716806,22.9039198,0 
113.5716816,22.9039193,0 
113.5716827,22.9039188,0 
113.5716838,22.9039182,0 
113.5716850,22.9039177,0 
113.5716862,22.9039172,0 
113.5716875,22.9039166,0 
113.5716888,22.9039161,0 
113.5716901,22.9039156,0 
113.5716915,22.9039151,0 
113.5716929,22.9039145,0 
113.5716944,22.9039140,0 
113.5716959,22.9039135,0 
113.5716975,22.9039130,0 
113.5716991,22.9039125,0 
113.5717007,22.9039120,0 
113.5717024,22.9039115,0 
113.5717041,22.9039110,0 
113.5717058,22.9039105,0 
113.5717076,22.9039101,0 
113.5717094,22.9039096,0 
113.5717113,22.9039091,0 
113.5717132,22.9039087,0 
113.5717151,22.9039082,0 
113.5717170,22.9039078,0 
113.5717190,22.9039073,0 
113.5717210,22.9039069,0 
113.5717230,22.9039065,0 
113.5717251,22.9039060,0 
113.5717272,22.9039056,0 
113.5717293,22.9039052,0 
113.5717315,22.9039048,0 
113.5717336,22.9039044,0 
113.5717358,22.9039040,0 
113.5717380,22.9039037,0 
113.5717403,22.9039033,0 
113.5717425,22.9039029,0 
113.5717448,22.9039026,0 
113.5717471,22.9039023,0 
113.5717494,22.9039019,0 
113.5717518,22.9039016,0 
113.5717541,22.9039013,0 
113.5717565,22.9039010,0 
113.5717589,22.9039007,0 
113.5717612,22.9039004,0 
113.5717636,22.9039001,0 
113.5717661,22.9038999,0 
113.5717685,22.9038996,0 
113.5717709,22.9038994,0 
113.5717733,22.9038991,0 
113.5717758,22.9038989,0 
113.5717782,22.9038987,0 
113.5717807,22.9038985,0 
113.5717831,22.9038983,0 
113.5717856,22.9038981,0 
113.5717881,22.9038979,0 
113.5717905,22.9038978,0 
113.5717930,22.9038976,0 
113.5717954,22.9038975,0 
113.5717979,22.9038974,0 
113.5718003,22.9038972,0 
113.5718028,22.9038971,0 
113.5718052,22.9038970,0 
113.5718076,22.9038970,0 
113.5718100,22.9038969,0 
113.5718124,22.9038968,0 
113.5718148,22.9038968,0 
113.5718172,22.9038967,0 
113.5718196,22.9038967,0 
113.5718220,22.9038967,0 
113.5718243,22.9038967,0 
113.5718266,22.9038967,0 
113.5718289,22.9038967,0 
113.5718312,22.9038967,0 
113.5718335,22.9038968,0 
113.5718358,22.9038968,0 
113.5718380,22.9038969,0 
113.5718402,22.9038970,0 
113.5718424,22.9038970,0 
113.5718445,22.9038971,0 
113.5718467,22.9038973,0 
113.5718488,22.9038974,0 
113.5718509,22.9038975,0 
113.5718529,22.9038976,0 
113.5718550,22.9038978,0 
113.5718570,22.9038980,0 
113.5718589,22.9038981,0 
113.5718609,22.9038983,0 
113.5718628,22.9038985,0 
113.5718647,22.9038987,0 
113.5718665,22.9038989,0 
113.5718683,22.9038992,0 
113.5718701,22.9038994,0 
113.5718718,22.9038996,0 
113.5718735,22.9038999,0 
113.5718751,22.9039002,0 
113.5718768,22.9039004,0 
113.5718784,22.9039007,0 
113.5718799,22.9039010,0 
113.5718814,22.9039013,0 
113.5718829,22.9039016,0 
113.5718843,22.9039020,0 
113.5718856,22.9039023,0 
113.5718870,22.9039026,0 
113.5718883,22.9039030,0 
113.5718895,22.9039034,0 
113.5718907,22.9039037,0 
113.5718919,22.9039041,0 
113.5718930,22.9039045,0 
113.5718940,22.9039049,0 
113.5718951,22.9039053,0 
113.5718960,22.9039057,0 
113.5718969,22.9039061,0 
113.5718978,22.9039065,0 
113.5718986,22.9039069,0 
113.5718994,22.9039074,0 
113.5719001,22.9039078,0 
113.5719008,22.9039083,0 
113.5719015,22.9039087,0 
113.5719020,22.9039092,0 
113.5719026,22.9039097,0 
113.5719030,22.9039101,0 
113.5719035,22.9039106,0 
113.5719038,22.9039111,0 
113.5719042,22.9039116,0 
113.5719044,22.9039121,0 
113.5719047,22.9039126,0 
113.5719048,22.9039131,0 
113.5719050,22.9039136,0 
113.5719050,22.9039141,0 
113.5719050,22.9039146,0 
113.5719050,22.9039151,0 
113.5719049,22.9039156,0 
113.5719048,22.9039162,0 
113.5719046,22.9039167,0 
113.5719044,22.9039172,0 
113.5719041,22.9039178,0 
113.5719037,22.9039183,0 
113.5719033,22.9039188,0 
113.5719029,22.9039194,0 
113.5719024,22.9039199,0 
113.5719019,22.9039204,0 
113.5719013,22.9039210,0 
113.5719006,22.9039215,0 
113.5718999,22.9039221,0 
113.5718992,22.9039226,0 
113.5718984,22.9039232,0 
113.5718976,22.9039237,0 
113.5718967,22.9039242,0 
113.5718957,22.9039248,0 
113.5718947,22.9039253,0 
113.5718937,22.9039259,0 
113.5718926,22.9039264,0 
113.5718915,22.9039269,0 
113.5718903,22.9039275,0 
113.5718891,22.9039280,0 
113.5718879,22.9039285,0 
113.5718866,22.9039290,0 
113.5718852,22.9039296,0 
113.5718838,22.9039301,0 
113.5718824,22.9039306,0 
113.5718809,22.9039311,0 
113.5718794,22.9039316,0 
113.5718779,22.9039321,0 
113.5718763,22.9039326,0 
113.5718746,22.9039331,0 
113.5718730,22.9039336,0 
113.5718713,22.9039341,0 
113.5718695,22.9039346,0 
113.5718677,22.9039351,0 
113.5718659,22.9039356,0 
113.5718641,22.9039360,0 
113.5718622,22.9039365,0 
113.5718603,22.9039369,0 
113.5718583,22.9039374,0 
113.5718564,22.9039378,0 
113.5718544,22.9039383,0 
113.5718523,22.9039387,0 
113.5718503,22.9039391,0 
113.5718482,22.9039395,0 
113.5718460,22.9039399,0 
113.5718439,22.9039403,0 
113.5718417,22.9039407,0 
113.5718395,22.9039411,0 
113.5718373,22.9039415,0 
113.5718351,22.9039418,0 
113.5718328,22.9039422,0 
113.5718305,22.9039426,0 
113.5718282,22.9039429,0 
113.5718259,22.9039432,0 
113.5718236,22.9039435,0 
113.5718212,22.9039439,0 
113.5718189,22.9039442,0 
113.5718165,22.9039445,0 
113.5718141,22.9039447,0 
113.5718117,22.9039450,0 
113.5718093,22.9039453,0 
113.5718069,22.9039455,0 
113.5718045,22.9039458,0 
113.5718020,22.9039460,0 
113.5717996,22.9039462,0 
113.5717971,22.9039465,0 
113.5717947,22.9039467,0 
113.5717922,22.9039469,0 
113.5717898,22.9039470,0 
113.5717873,22.9039472,0 
113.5717848,22.9039474,0 
113.5717824,22.9039475,0 
113.5717799,22.9039477,0 
113.5717775,22.9039478,0 
113.5717750,22.9039479,0 
113.5717726,22.9039480,0 
113.5717702,22.9039481,0 
113.5717677,22.9039482,0 
113.5717653,22.9039483,0 
113.5717629,22.9039483,0 
113.5717605,22.9039484,0 
113.5717581,22.9039484,0 
113.5717558,22.9039484,0 
113.5717534,22.9039485,0 
113.5717511,22.9039485,0 
113.5717487,22.9039485,0 
113.5717464,22.9039484,0 
113.5717441,22.9039484,0 
113.5717419,22.9039484,0 
113.5717396,22.9039483,0 
113.5717374,22.9039483,0 
113.5717352,22.9039482,0 
113.5717330,22.9039481,0 
113.5717308,22.9039480,0 
113.5717287,22.9039479,0 
113.5717266,22.9039478,0 
113.5717245,22.9039476,0 
113.5717224,22.9039475,0 
113.5717204,22.9039474,0 
113.5717184,22.9039472,0 
113.5717164,22.9039470,0 
113.5717145,22.9039468,0 
113.5717126,22.9039466,0 
113.5717107,22.9039464,0 
113.5717089,22.9039462,0 
113.5717071,22.9039460,0 
113.5717053,22.9039458,0 
113.5717036,22.9039455,0 
113.5717019,22.9039453,0 
113.5717002,22.9039450,0 
113.5716986,22.9039447,0 
113.5716970,22.9039444,0 
113.5716955,22.9039441,0 
113.5716940,22.9039438,0 
113.5716925,22.9039435,0 
113.5716911,22.9039432,0 
113.5716897,22.9039428,0 
113.5716884,22.9039425,0 
113.5716871,22.9039422,0 
113.5716858,22.9039418,0 
113.5716846,22.9039414,0 
113.5716835,22.9039411,0 
113.5716824,22.9039407,0 
113.5716813,22.9039403,0 
113.5716803,22.9039399,0 
113.5716793,22.9039395,0 
113.5716784,22.9039391,0 
113.5716775,22.9039386,0 
113.5716767,22.9039382,0 
113.5716759,22.9039378,0 
113.5716752,22.9039373,0 
113.5716745,22.9039369,0 
113.5716739,22.9039364,0 
113.5716733,22.9039360,0 
113.5716728,22.9039355,0 
113.5716723,22.9039350,0 
113.5716719,22.9039345,0 
113.5716715,22.9039341,0 
113.5716712,22.9039336,0 
113.5716709,22.9039331,0 
113.5716707,22.9039326,0 
113.5716705,22.9039321,0 
113.5716704,22.9039316,0 
113.5716703,22.9039311,0 
</coordinates>
</LineString>
</Placemark>
</Folder>