<Folder>
<name>SV  5 294.595868 10.084547</name>
<visibility>1</visibility>
<Placemark>
<name>circle</name>
<visibility>1</visibility>
<Style>
<geomColor>FF006400</geomColor>
<geomScale>2</geomScale></Style>
<LineString>
<coordinates>
113.5715521,22.9041310,0 
113.5715519,22.9041304,0 
113.5715517,22.9041298,0 
113.5715516,22.9041292,0 
113.5715516,22.9041286,0 
113.5715517,22.9041279,0 
113.5715518,22.9041272,0 
113.5715520,22.9041264,0 
113.5715523,22.9041256,0 
113.5715526,22.9041248,0 
113.5715530,22.9041240,0 
113.5715535,22.9041232,0 
113.5715540,22.9041223,0 
113.5715546,22.9041214,0 
113.5715553,22.9041204,0 
113.5715561,22.9041195,0 
113.5715569,22.9041185,0 
113.5715578,22.9041175,0 
113.5715588,22.9041165,0 
113.5715598,22.9041154,0 
113.5715610,22.9041143,0 
113.5715621,22.9041132,0 
113.5715634,22.9041121,0 
113.5715647,22.9041109,0 
113.5715661,22.9041098,0 
113.5715675,22.9041086,0 
113.5715690,22.9041074,0 
113.5715706,22.9041061,0 
113.5715722,22.9041049,0 
113.5715739,22.9041036,0 
113.5715757,22.9041023,0 
113.5715775,22.9041010,0 
113.5715794,22.9040997,0 
113.5715813,22.9040984,0 
113.5715833,22.9040970,0 
113.5715854,22.9040956,0 
113.5715875,22.9040943,0 
113.5715897,22.9040929,0 
113.5715919,22.9040914,0 
113.5715942,22.9040900,0 
113.5715965,22.9040886,0 
113.5715989,22.9040871,0 
113.5716013,22.9040857,0 
113.5716038,22.9040842,0 
113.5716064,22.9040827,0 
113.5716090,22.9040812,0 
113.5716116,22.9040797,0 
113.5716143,22.9040782,0 
113.5716170,22.9040767,0 
113.5716198,22.9040752,0 
113.5716226,22.9040737,0 
113.5716254,22.9040722,0 
113.5716283,22.9040706,0 
113.5716312,22.9040691,0 
113.5716342,22.9040675,0 
113.5716372,22.9040660,0 
113.5716402,22.9040645,0 
113.5716433,22.9040629,0 
113.5716464,22.9040614,0 
113.5716495,22.9040598,0 
113.5716527,22.9040583,0 
113.5716559,22.9040567,0 
113.5716591,22.9040552,0 
113.5716623,22.9040536,0 
113.5716656,22.9040521,0 
113.5716689,22.9040506,0 
113.5716722,22.9040491,0 
113.5716755,22.9040475,0 
113.5716788,22.9040460,0 
113.5716822,22.9040445,0 
113.5716856,22.9040430,0 
113.5716889,22.9040415,0 
113.5716923,22.9040400,0 
113.5716957,22.9040386,0 
113.5716992,22.9040371,0 
113.5717026,22.9040357,0 
113.5717060,22.9040342,0 
113.5717094,22.9040328,0 
113.5717129,22.9040314,0 
113.5717163,22.9040300,0 
113.5717197,22.9040286,0 
113.5717232,22.9040272,0 
113.5717266,22.9040259,0 
113.5717300,22.9040245,0 
113.5717335,22.9040232,0 
113.5717369,22.9040219,0 
113.5717403,22.9040206,0 
113.5717437,22.9040193,0 
113.5717470,22.9040181,0 
113.5717504,22.9040169,0 
113.5717538,22.9040156,0 
113.5717571,22.9040145,0 
113.5717604,22.9040133,0 
113.5717637,22.9040121,0 
113.5717670,22.9040110,0 
113.5717702,22.9040099,0 
113.5717735,22.9040088,0 
113.5717767,22.9040078,0 
113.5717798,22.9040067,0 
113.5717830,22.9040057,0 
113.5717861,22.9040047,0 
113.5717892,22.9040038,0 
113.5717923,22.9040028,0 
113.5717953,22.9040019,0 
113.5717983,22.9040010,0 
113.5718012,22.9040002,0 
113.5718041,22.9039993,0 
113.5718070,22.9039985,0 
113.5718098,22.9039978,0 
113.5718126,22.9039970,0 
113.5718154,22.9039963,0 
113.5718181,22.9039956,0 
113.5718208,22.9039950,0 
113.5718234,22.9039943,0 
113.5718259,22.9039937,0 
113.5718285,22.9039931,0 
113.5718309,22.9039926,0 
113.5718333,22.9039921,0 
113.5718357,22.9039916,0 
113.5718380,22.9039912,0 
113.5718403,22.9039908,0 
113.5718425,22.9039904,0 
113.5718447,22.9039900,0 
113.5718468,22.9039897,0 
113.5718488,22.9039894,0 
113.5718508,22.9039891,0 
113.5718527,22.9039889,0 
113.5718546,22.9039887,0 
113.5718564,22.9039886,0 
113.5718581,22.9039884,0 
113.5718598,22.9039883,0 
113.5718614,22.9039883,0 
113.5718629,22.9039882,0 
113.5718644,22.9039882,0 
113.5718658,22.9039882,0 
113.5718672,22.9039883,0 
113.5718685,22.9039884,0 
113.5718697,22.9039885,0 
113.5718708,22.9039887,0 
113.5718719,22.9039889,0 
113.5718729,22.9039891,0 
113.5718739,22.9039894,0 
113.5718748,22.9039897,0 
113.5718756,22.9039900,0 
113.5718763,22.9039903,0 
113.5718770,22.9039907,0 
113.5718776,22.9039911,0 
113.5718781,22.9039916,0 
113.5718785,22.9039920,0 
113.5718789,22.9039926,0 
113.5718792,22.9039931,0 
113.5718795,22.9039937,0 
113.5718796,22.9039943,0 
113.5718797,22.9039949,0 
113.5718798,22.9039955,0 
113.5718797,22.9039962,0 
113.5718796,22.9039969,0 
113.5718794,22.9039977,0 
113.5718791,22.9039985,0 
113.5718788,22.9039993,0 
113.5718784,22.9040001,0 
113.5718779,22.9040009,0 
113.5718774,22.9040018,0 
113.5718767,22.9040027,0 
113.5718760,22.9040037,0 
113.5718753,22.9040046,0 
113.5718744,22.9040056,0 
113.5718735,22.9040066,0 
113.5718726,22.9040076,0 
113.5718715,22.9040087,0 
113.5718704,22.9040098,0 
113.5718693,22.9040109,0 
113.5718680,22.9040120,0 
113.5718667,22.9040132,0 
113.5718653,22.9040143,0 
113.5718639,22.9040155,0 
113.5718624,22.9040167,0 
113.5718608,22.9040180,0 
113.5718592,22.9040192,0 
113.5718575,22.9040205,0 
113.5718557,22.9040218,0 
113.5718539,22.9040231,0 
113.5718520,22.9040244,0 
113.5718501,22.9040257,0 
113.5718481,22.9040271,0 
113.5718460,22.9040285,0 
113.5718439,22.9040298,0 
113.5718417,22.9040312,0 
113.5718395,22.9040326,0 
113.5718372,22.9040341,0 
113.5718349,22.9040355,0 
113.5718325,22.9040370,0 
113.5718300,22.9040384,0 
113.5718275,22.9040399,0 
113.5718250,22.9040414,0 
113.5718224,22.9040429,0 
113.5718198,22.9040444,0 
113.5718171,22.9040459,0 
113.5718144,22.9040474,0 
113.5718116,22.9040489,0 
113.5718088,22.9040504,0 
113.5718060,22.9040519,0 
113.5718031,22.9040535,0 
113.5718001,22.9040550,0 
113.5717972,22.9040566,0 
113.5717942,22.9040581,0 
113.5717912,22.9040596,0 
113.5717881,22.9040612,0 
113.5717850,22.9040627,0 
113.5717819,22.9040643,0 
113.5717787,22.9040658,0 
113.5717755,22.9040674,0 
113.5717723,22.9040689,0 
113.5717691,22.9040704,0 
113.5717658,22.9040720,0 
113.5717625,22.9040735,0 
113.5717592,22.9040750,0 
113.5717559,22.9040766,0 
113.5717525,22.9040781,0 
113.5717492,22.9040796,0 
113.5717458,22.9040811,0 
113.5717424,22.9040826,0 
113.5717390,22.9040840,0 
113.5717356,22.9040855,0 
113.5717322,22.9040870,0 
113.5717288,22.9040884,0 
113.5717254,22.9040899,0 
113.5717219,22.9040913,0 
113.5717185,22.9040927,0 
113.5717151,22.9040941,0 
113.5717116,22.9040955,0 
113.5717082,22.9040969,0 
113.5717048,22.9040982,0 
113.5717013,22.9040996,0 
113.5716979,22.9041009,0 
113.5716945,22.9041022,0 
113.5716911,22.9041035,0 
113.5716877,22.9041047,0 
113.5716843,22.9041060,0 
113.5716810,22.9041072,0 
113.5716776,22.9041084,0 
113.5716743,22.9041096,0 
113.5716710,22.9041108,0 
113.5716677,22.9041120,0 
113.5716644,22.9041131,0 
113.5716611,22.9041142,0 
113.5716579,22.9041153,0 
113.5716547,22.9041163,0 
113.5716515,22.9041174,0 
113.5716484,22.9041184,0 
113.5716453,22.9041194,0 
113.5716422,22.9041203,0 
113.5716391,22.9041213,0 
113.5716361,22.9041222,0 
113.5716331,22.9041231,0 
113.5716302,22.9041239,0 
113.5716273,22.9041248,0 
113.5716244,22.9041256,0 
113.5716215,22.9041263,0 
113.5716188,22.9041271,0 
113.5716160,22.9041278,0 
113.5716133,22.9041285,0 
113.5716106,22.9041291,0 
113.5716080,22.9041298,0 
113.5716054,22.9041304,0 
113.5716029,22.9041309,0 
113.5716005,22.9041315,0 
113.5715980,22.9041320,0 
113.5715957,22.9041325,0 
113.5715934,22.9041329,0 
113.5715911,22.9041333,0 
113.5715889,22.9041337,0 
113.5715867,22.9041341,0 
113.5715846,22.9041344,0 
113.5715826,22.9041347,0 
113.5715806,22.9041350,0 
113.5715787,22.9041352,0 
113.5715768,22.9041354,0 
113.5715750,22.9041355,0 
113.5715733,22.9041357,0 
113.5715716,22.9041358,0 
113.5715700,22.9041358,0 
113.5715685,22.9041359,0 
113.5715670,22.9041359,0 
113.5715656,22.9041358,0 
113.5715642,22.9041358,0 
113.5715629,22.9041357,0 
113.5715617,22.9041356,0 
113.5715605,22.9041354,0 
113.5715595,22.9041352,0 
113.5715584,22.9041350,0 
113.5715575,22.9041347,0 
113.5715566,22.9041344,0 
113.5715558,22.9041341,0 
113.5715551,22.9041338,0 
113.5715544,22.9041334,0 
113.5715538,22.9041330,0 
113.5715533,22.9041325,0 
113.5715528,22.9041320,0 
113.5715525,22.9041315,0 
113.5715521,22.9041310,0 
</coordinates>
</LineString>
</Placemark>
</Folder>