<Folder>
<name>SV  4 192.849981 11.226404</name>
<visibility>1</visibility>
<Placemark>
<name>circle</name>
<visibility>1</visibility>
<Style>
<geomColor></geomColor>
<geomScale>2</geomScale></Style>
<LineString>
<coordinates>
113.5719886,22.9034501,0 
113.5719891,22.9034500,0 
113.5719897,22.9034499,0 
113.5719902,22.9034500,0 
113.5719908,22.9034500,0 
113.5719914,22.9034502,0 
113.5719920,22.9034503,0 
113.5719926,22.9034506,0 
113.5719932,22.9034508,0 
113.5719938,22.9034512,0 
113.5719945,22.9034516,0 
113.5719951,22.9034520,0 
113.5719958,22.9034525,0 
113.5719965,22.9034530,0 
113.5719972,22.9034536,0 
113.5719978,22.9034543,0 
113.5719985,22.9034550,0 
113.5719993,22.9034557,0 
113.5720000,22.9034565,0 
113.5720007,22.9034573,0 
113.5720014,22.9034582,0 
113.5720022,22.9034592,0 
113.5720029,22.9034602,0 
113.5720037,22.9034612,0 
113.5720044,22.9034623,0 
113.5720052,22.9034634,0 
113.5720060,22.9034646,0 
113.5720067,22.9034658,0 
113.5720075,22.9034671,0 
113.5720083,22.9034684,0 
113.5720091,22.9034698,0 
113.5720099,22.9034712,0 
113.5720107,22.9034726,0 
113.5720115,22.9034741,0 
113.5720123,22.9034757,0 
113.5720131,22.9034772,0 
113.5720139,22.9034788,0 
113.5720147,22.9034805,0 
113.5720155,22.9034822,0 
113.5720164,22.9034839,0 
113.5720172,22.9034857,0 
113.5720180,22.9034875,0 
113.5720188,22.9034893,0 
113.5720196,22.9034912,0 
113.5720204,22.9034931,0 
113.5720213,22.9034951,0 
113.5720221,22.9034971,0 
113.5720229,22.9034991,0 
113.5720237,22.9035011,0 
113.5720245,22.9035032,0 
113.5720253,22.9035053,0 
113.5720261,22.9035074,0 
113.5720269,22.9035096,0 
113.5720277,22.9035118,0 
113.5720285,22.9035140,0 
113.5720293,22.9035162,0 
113.5720300,22.9035185,0 
113.5720308,22.9035207,0 
113.5720316,22.9035230,0 
113.5720324,22.9035254,0 
113.5720331,22.9035277,0 
113.5720339,22.9035301,0 
113.5720346,22.9035324,0 
113.5720353,22.9035348,0 
113.5720361,22.9035372,0 
113.5720368,22.9035396,0 
113.5720375,22.9035421,0 
113.5720382,22.9035445,0 
113.5720389,22.9035470,0 
113.5720396,22.9035495,0 
113.5720403,22.9035519,0 
113.5720409,22.9035544,0 
113.5720416,22.9035569,0 
113.5720422,22.9035594,0 
113.5720429,22.9035619,0 
113.5720435,22.9035644,0 
113.5720441,22.9035669,0 
113.5720447,22.9035694,0 
113.5720453,22.9035719,0 
113.5720459,22.9035744,0 
113.5720465,22.9035770,0 
113.5720470,22.9035795,0 
113.5720476,22.9035820,0 
113.5720481,22.9035844,0 
113.5720486,22.9035869,0 
113.5720491,22.9035894,0 
113.5720496,22.9035919,0 
113.5720501,22.9035943,0 
113.5720505,22.9035968,0 
113.5720510,22.9035992,0 
113.5720514,22.9036017,0 
113.5720518,22.9036041,0 
113.5720523,22.9036065,0 
113.5720526,22.9036088,0 
113.5720530,22.9036112,0 
113.5720534,22.9036135,0 
113.5720537,22.9036159,0 
113.5720540,22.9036182,0 
113.5720544,22.9036205,0 
113.5720547,22.9036227,0 
113.5720549,22.9036250,0 
113.5720552,22.9036272,0 
113.5720554,22.9036294,0 
113.5720557,22.9036315,0 
113.5720559,22.9036337,0 
113.5720561,22.9036358,0 
113.5720563,22.9036379,0 
113.5720564,22.9036399,0 
113.5720566,22.9036419,0 
113.5720567,22.9036439,0 
113.5720568,22.9036459,0 
113.5720569,22.9036478,0 
113.5720570,22.9036497,0 
113.5720571,22.9036515,0 
113.5720571,22.9036533,0 
113.5720572,22.9036551,0 
113.5720572,22.9036568,0 
113.5720572,22.9036586,0 
113.5720571,22.9036602,0 
113.5720571,22.9036618,0 
113.5720571,22.9036634,0 
113.5720570,22.9036650,0 
113.5720569,22.9036665,0 
113.5720568,22.9036679,0 
113.5720567,22.9036693,0 
113.5720565,22.9036707,0 
113.5720564,22.9036720,0 
113.5720562,22.9036733,0 
113.5720560,22.9036746,0 
113.5720558,22.9036758,0 
113.5720556,22.9036769,0 
113.5720553,22.9036780,0 
113.5720551,22.9036790,0 
113.5720548,22.9036800,0 
113.5720545,22.9036810,0 
113.5720542,22.9036819,0 
113.5720539,22.9036828,0 
113.5720536,22.9036836,0 
113.5720532,22.9036843,0 
113.5720528,22.9036850,0 
113.5720525,22.9036857,0 
113.5720521,22.9036863,0 
113.5720517,22.9036868,0 
113.5720512,22.9036873,0 
113.5720508,22.9036878,0 
113.5720503,22.9036882,0 
113.5720499,22.9036885,0 
113.5720494,22.9036888,0 
113.5720489,22.9036891,0 
113.5720484,22.9036893,0 
113.5720478,22.9036894,0 
113.5720473,22.9036895,0 
113.5720468,22.9036895,0 
113.5720462,22.9036895,0 
113.5720456,22.9036894,0 
113.5720450,22.9036893,0 
113.5720444,22.9036891,0 
113.5720438,22.9036889,0 
113.5720432,22.9036886,0 
113.5720426,22.9036883,0 
113.5720419,22.9036879,0 
113.5720413,22.9036875,0 
113.5720406,22.9036870,0 
113.5720400,22.9036864,0 
113.5720393,22.9036858,0 
113.5720386,22.9036852,0 
113.5720379,22.9036845,0 
113.5720372,22.9036838,0 
113.5720365,22.9036830,0 
113.5720357,22.9036821,0 
113.5720350,22.9036812,0 
113.5720343,22.9036803,0 
113.5720335,22.9036793,0 
113.5720328,22.9036782,0 
113.5720320,22.9036772,0 
113.5720312,22.9036760,0 
113.5720305,22.9036748,0 
113.5720297,22.9036736,0 
113.5720289,22.9036723,0 
113.5720281,22.9036710,0 
113.5720273,22.9036697,0 
113.5720265,22.9036683,0 
113.5720257,22.9036668,0 
113.5720249,22.9036653,0 
113.5720241,22.9036638,0 
113.5720233,22.9036622,0 
113.5720225,22.9036606,0 
113.5720217,22.9036590,0 
113.5720209,22.9036573,0 
113.5720201,22.9036555,0 
113.5720192,22.9036538,0 
113.5720184,22.9036520,0 
113.5720176,22.9036501,0 
113.5720168,22.9036482,0 
113.5720160,22.9036463,0 
113.5720152,22.9036444,0 
113.5720144,22.9036424,0 
113.5720135,22.9036404,0 
113.5720127,22.9036383,0 
113.5720119,22.9036363,0 
113.5720111,22.9036342,0 
113.5720103,22.9036320,0 
113.5720095,22.9036299,0 
113.5720087,22.9036277,0 
113.5720079,22.9036255,0 
113.5720072,22.9036233,0 
113.5720064,22.9036210,0 
113.5720056,22.9036187,0 
113.5720048,22.9036164,0 
113.5720041,22.9036141,0 
113.5720033,22.9036118,0 
113.5720026,22.9036094,0 
113.5720018,22.9036070,0 
113.5720011,22.9036046,0 
113.5720004,22.9036022,0 
113.5719996,22.9035998,0 
113.5719989,22.9035974,0 
113.5719982,22.9035949,0 
113.5719975,22.9035925,0 
113.5719968,22.9035900,0 
113.5719962,22.9035875,0 
113.5719955,22.9035850,0 
113.5719948,22.9035825,0 
113.5719942,22.9035800,0 
113.5719935,22.9035775,0 
113.5719929,22.9035750,0 
113.5719923,22.9035725,0 
113.5719917,22.9035700,0 
113.5719911,22.9035675,0 
113.5719905,22.9035650,0 
113.5719900,22.9035625,0 
113.5719894,22.9035600,0 
113.5719889,22.9035575,0 
113.5719883,22.9035550,0 
113.5719878,22.9035525,0 
113.5719873,22.9035500,0 
113.5719868,22.9035476,0 
113.5719863,22.9035451,0 
113.5719859,22.9035427,0 
113.5719854,22.9035402,0 
113.5719850,22.9035378,0 
113.5719846,22.9035354,0 
113.5719842,22.9035330,0 
113.5719838,22.9035306,0 
113.5719834,22.9035283,0 
113.5719831,22.9035259,0 
113.5719827,22.9035236,0 
113.5719824,22.9035213,0 
113.5719821,22.9035190,0 
113.5719818,22.9035167,0 
113.5719815,22.9035145,0 
113.5719812,22.9035123,0 
113.5719810,22.9035101,0 
113.5719807,22.9035079,0 
113.5719805,22.9035058,0 
113.5719803,22.9035037,0 
113.5719801,22.9035016,0 
113.5719800,22.9034996,0 
113.5719798,22.9034975,0 
113.5719797,22.9034956,0 
113.5719796,22.9034936,0 
113.5719795,22.9034917,0 
113.5719794,22.9034898,0 
113.5719793,22.9034879,0 
113.5719793,22.9034861,0 
113.5719793,22.9034843,0 
113.5719793,22.9034826,0 
113.5719793,22.9034809,0 
113.5719793,22.9034792,0 
113.5719793,22.9034776,0 
113.5719794,22.9034760,0 
113.5719794,22.9034745,0 
113.5719795,22.9034730,0 
113.5719796,22.9034715,0 
113.5719798,22.9034701,0 
113.5719799,22.9034687,0 
113.5719801,22.9034674,0 
113.5719802,22.9034661,0 
113.5719804,22.9034649,0 
113.5719806,22.9034637,0 
113.5719809,22.9034626,0 
113.5719811,22.9034615,0 
113.5719813,22.9034604,0 
113.5719816,22.9034594,0 
113.5719819,22.9034585,0 
113.5719822,22.9034576,0 
113.5719825,22.9034567,0 
113.5719829,22.9034559,0 
113.5719832,22.9034551,0 
113.5719836,22.9034544,0 
113.5719840,22.9034538,0 
113.5719844,22.9034532,0 
113.5719848,22.9034526,0 
113.5719852,22.9034521,0 
113.5719856,22.9034517,0 
113.5719861,22.9034513,0 
113.5719866,22.9034509,0 
113.5719870,22.9034506,0 
113.5719875,22.9034504,0 
113.5719881,22.9034502,0 
113.5719886,22.9034501,0 
</coordinates>
</LineString>
</Placemark>
</Folder>