<Folder>
<name>SV 21 307.714217 13.831528</name>
<visibility>1</visibility>
<Placemark>
<name>circle</name>
<visibility>1</visibility>
<Style>
<geomColor></geomColor>
<geomScale>2</geomScale></Style>
<LineString>
<coordinates>
113.5717910,22.9041201,0 
113.5717907,22.9041198,0 
113.5717904,22.9041194,0 
113.5717902,22.9041190,0 
113.5717900,22.9041185,0 
113.5717899,22.9041181,0 
113.5717898,22.9041176,0 
113.5717897,22.9041171,0 
113.5717897,22.9041165,0 
113.5717896,22.9041160,0 
113.5717897,22.9041154,0 
113.5717897,22.9041148,0 
113.5717898,22.9041142,0 
113.5717900,22.9041135,0 
113.5717901,22.9041129,0 
113.5717903,22.9041122,0 
113.5717906,22.9041115,0 
113.5717908,22.9041108,0 
113.5717911,22.9041100,0 
113.5717915,22.9041092,0 
113.5717918,22.9041085,0 
113.5717922,22.9041077,0 
113.5717927,22.9041068,0 
113.5717931,22.9041060,0 
113.5717936,22.9041051,0 
113.5717942,22.9041043,0 
113.5717947,22.9041034,0 
113.5717953,22.9041025,0 
113.5717960,22.9041015,0 
113.5717966,22.9041006,0 
113.5717973,22.9040996,0 
113.5717980,22.9040987,0 
113.5717988,22.9040977,0 
113.5717996,22.9040967,0 
113.5718004,22.9040957,0 
113.5718012,22.9040946,0 
113.5718021,22.9040936,0 
113.5718030,22.9040925,0 
113.5718040,22.9040915,0 
113.5718049,22.9040904,0 
113.5718059,22.9040893,0 
113.5718069,22.9040882,0 
113.5718080,22.9040871,0 
113.5718090,22.9040860,0 
113.5718101,22.9040848,0 
113.5718112,22.9040837,0 
113.5718124,22.9040825,0 
113.5718136,22.9040814,0 
113.5718148,22.9040802,0 
113.5718160,22.9040791,0 
113.5718172,22.9040779,0 
113.5718185,22.9040767,0 
113.5718198,22.9040755,0 
113.5718211,22.9040743,0 
113.5718224,22.9040731,0 
113.5718237,22.9040720,0 
113.5718251,22.9040708,0 
113.5718265,22.9040696,0 
113.5718279,22.9040683,0 
113.5718293,22.9040671,0 
113.5718308,22.9040659,0 
113.5718322,22.9040647,0 
113.5718337,22.9040635,0 
113.5718352,22.9040623,0 
113.5718367,22.9040611,0 
113.5718382,22.9040599,0 
113.5718397,22.9040587,0 
113.5718412,22.9040575,0 
113.5718428,22.9040563,0 
113.5718444,22.9040551,0 
113.5718459,22.9040539,0 
113.5718475,22.9040528,0 
113.5718491,22.9040516,0 
113.5718507,22.9040504,0 
113.5718523,22.9040493,0 
113.5718539,22.9040481,0 
113.5718555,22.9040470,0 
113.5718572,22.9040458,0 
113.5718588,22.9040447,0 
113.5718604,22.9040436,0 
113.5718621,22.9040424,0 
113.5718637,22.9040413,0 
113.5718654,22.9040402,0 
113.5718670,22.9040392,0 
113.5718686,22.9040381,0 
113.5718703,22.9040370,0 
113.5718719,22.9040360,0 
113.5718736,22.9040350,0 
113.5718752,22.9040339,0 
113.5718769,22.9040329,0 
113.5718785,22.9040319,0 
113.5718801,22.9040310,0 
113.5718817,22.9040300,0 
113.5718834,22.9040290,0 
113.5718850,22.9040281,0 
113.5718866,22.9040272,0 
113.5718882,22.9040263,0 
113.5718898,22.9040254,0 
113.5718913,22.9040245,0 
113.5718929,22.9040237,0 
113.5718945,22.9040229,0 
113.5718960,22.9040221,0 
113.5718975,22.9040213,0 
113.5718991,22.9040205,0 
113.5719006,22.9040197,0 
113.5719021,22.9040190,0 
113.5719035,22.9040183,0 
113.5719050,22.9040176,0 
113.5719064,22.9040169,0 
113.5719079,22.9040163,0 
113.5719093,22.9040157,0 
113.5719107,22.9040150,0 
113.5719120,22.9040145,0 
113.5719134,22.9040139,0 
113.5719147,22.9040134,0 
113.5719161,22.9040128,0 
113.5719173,22.9040123,0 
113.5719186,22.9040119,0 
113.5719199,22.9040114,0 
113.5719211,22.9040110,0 
113.5719223,22.9040106,0 
113.5719235,22.9040102,0 
113.5719246,22.9040099,0 
113.5719258,22.9040095,0 
113.5719269,22.9040092,0 
113.5719280,22.9040090,0 
113.5719290,22.9040087,0 
113.5719300,22.9040085,0 
113.5719310,22.9040083,0 
113.5719320,22.9040081,0 
113.5719330,22.9040079,0 
113.5719339,22.9040078,0 
113.5719348,22.9040077,0 
113.5719356,22.9040076,0 
113.5719365,22.9040076,0 
113.5719373,22.9040075,0 
113.5719380,22.9040075,0 
113.5719388,22.9040075,0 
113.5719395,22.9040076,0 
113.5719401,22.9040077,0 
113.5719408,22.9040078,0 
113.5719414,22.9040079,0 
113.5719420,22.9040080,0 
113.5719425,22.9040082,0 
113.5719430,22.9040084,0 
113.5719435,22.9040086,0 
113.5719440,22.9040089,0 
113.5719444,22.9040091,0 
113.5719448,22.9040094,0 
113.5719451,22.9040097,0 
113.5719454,22.9040101,0 
113.5719457,22.9040105,0 
113.5719460,22.9040109,0 
113.5719462,22.9040113,0 
113.5719464,22.9040117,0 
113.5719465,22.9040122,0 
113.5719466,22.9040127,0 
113.5719467,22.9040132,0 
113.5719467,22.9040137,0 
113.5719468,22.9040143,0 
113.5719467,22.9040148,0 
113.5719467,22.9040154,0 
113.5719466,22.9040160,0 
113.5719464,22.9040167,0 
113.5719463,22.9040174,0 
113.5719461,22.9040180,0 
113.5719458,22.9040187,0 
113.5719456,22.9040195,0 
113.5719453,22.9040202,0 
113.5719449,22.9040210,0 
113.5719446,22.9040218,0 
113.5719442,22.9040226,0 
113.5719437,22.9040234,0 
113.5719433,22.9040242,0 
113.5719428,22.9040251,0 
113.5719422,22.9040260,0 
113.5719417,22.9040269,0 
113.5719411,22.9040278,0 
113.5719404,22.9040287,0 
113.5719398,22.9040296,0 
113.5719391,22.9040306,0 
113.5719384,22.9040316,0 
113.5719376,22.9040326,0 
113.5719368,22.9040336,0 
113.5719360,22.9040346,0 
113.5719352,22.9040356,0 
113.5719343,22.9040366,0 
113.5719334,22.9040377,0 
113.5719325,22.9040388,0 
113.5719315,22.9040398,0 
113.5719305,22.9040409,0 
113.5719295,22.9040420,0 
113.5719284,22.9040431,0 
113.5719274,22.9040443,0 
113.5719263,22.9040454,0 
113.5719252,22.9040465,0 
113.5719240,22.9040477,0 
113.5719228,22.9040488,0 
113.5719216,22.9040500,0 
113.5719204,22.9040512,0 
113.5719192,22.9040523,0 
113.5719179,22.9040535,0 
113.5719166,22.9040547,0 
113.5719153,22.9040559,0 
113.5719140,22.9040571,0 
113.5719127,22.9040583,0 
113.5719113,22.9040595,0 
113.5719099,22.9040607,0 
113.5719085,22.9040619,0 
113.5719071,22.9040631,0 
113.5719057,22.9040643,0 
113.5719042,22.9040655,0 
113.5719027,22.9040667,0 
113.5719012,22.9040679,0 
113.5718997,22.9040691,0 
113.5718982,22.9040703,0 
113.5718967,22.9040715,0 
113.5718952,22.9040727,0 
113.5718936,22.9040739,0 
113.5718921,22.9040751,0 
113.5718905,22.9040763,0 
113.5718889,22.9040775,0 
113.5718873,22.9040786,0 
113.5718857,22.9040798,0 
113.5718841,22.9040810,0 
113.5718825,22.9040821,0 
113.5718809,22.9040833,0 
113.5718792,22.9040844,0 
113.5718776,22.9040855,0 
113.5718760,22.9040867,0 
113.5718743,22.9040878,0 
113.5718727,22.9040889,0 
113.5718710,22.9040900,0 
113.5718694,22.9040911,0 
113.5718678,22.9040921,0 
113.5718661,22.9040932,0 
113.5718645,22.9040942,0 
113.5718628,22.9040953,0 
113.5718612,22.9040963,0 
113.5718595,22.9040973,0 
113.5718579,22.9040983,0 
113.5718563,22.9040993,0 
113.5718547,22.9041002,0 
113.5718530,22.9041012,0 
113.5718514,22.9041021,0 
113.5718498,22.9041030,0 
113.5718482,22.9041039,0 
113.5718466,22.9041048,0 
113.5718451,22.9041057,0 
113.5718435,22.9041065,0 
113.5718419,22.9041074,0 
113.5718404,22.9041082,0 
113.5718389,22.9041090,0 
113.5718373,22.9041097,0 
113.5718358,22.9041105,0 
113.5718344,22.9041112,0 
113.5718329,22.9041119,0 
113.5718314,22.9041126,0 
113.5718300,22.9041133,0 
113.5718285,22.9041139,0 
113.5718271,22.9041146,0 
113.5718257,22.9041152,0 
113.5718244,22.9041158,0 
113.5718230,22.9041163,0 
113.5718217,22.9041169,0 
113.5718204,22.9041174,0 
113.5718191,22.9041179,0 
113.5718178,22.9041184,0 
113.5718165,22.9041188,0 
113.5718153,22.9041192,0 
113.5718141,22.9041196,0 
113.5718129,22.9041200,0 
113.5718118,22.9041204,0 
113.5718106,22.9041207,0 
113.5718095,22.9041210,0 
113.5718084,22.9041213,0 
113.5718074,22.9041215,0 
113.5718064,22.9041218,0 
113.5718054,22.9041220,0 
113.5718044,22.9041221,0 
113.5718034,22.9041223,0 
113.5718025,22.9041224,0 
113.5718016,22.9041225,0 
113.5718008,22.9041226,0 
113.5718000,22.9041227,0 
113.5717992,22.9041227,0 
113.5717984,22.9041227,0 
113.5717976,22.9041227,0 
113.5717969,22.9041226,0 
113.5717963,22.9041226,0 
113.5717956,22.9041225,0 
113.5717950,22.9041223,0 
113.5717944,22.9041222,0 
113.5717939,22.9041220,0 
113.5717934,22.9041218,0 
113.5717929,22.9041216,0 
113.5717924,22.9041214,0 
113.5717920,22.9041211,0 
113.5717916,22.9041208,0 
113.5717913,22.9041205,0 
113.5717910,22.9041201,0 
</coordinates>
</LineString>
</Placemark>
</Folder>