<Folder>
<name>SV 21 279.614022 14.501443</name>
<visibility>1</visibility>
<Placemark>
<name>circle</name>
<visibility>1</visibility>
<Style>
<geomColor></geomColor>
<geomScale>2</geomScale></Style>
<LineString>
<coordinates>
113.5717248,22.9039585,0 
113.5717247,22.9039581,0 
113.5717247,22.9039576,0 
113.5717247,22.9039571,0 
113.5717248,22.9039566,0 
113.5717249,22.9039561,0 
113.5717250,22.9039555,0 
113.5717252,22.9039550,0 
113.5717255,22.9039545,0 
113.5717258,22.9039540,0 
113.5717261,22.9039534,0 
113.5717265,22.9039529,0 
113.5717269,22.9039523,0 
113.5717273,22.9039518,0 
113.5717278,22.9039512,0 
113.5717284,22.9039507,0 
113.5717289,22.9039501,0 
113.5717296,22.9039496,0 
113.5717302,22.9039490,0 
113.5717309,22.9039484,0 
113.5717317,22.9039479,0 
113.5717325,22.9039473,0 
113.5717333,22.9039467,0 
113.5717342,22.9039461,0 
113.5717351,22.9039456,0 
113.5717360,22.9039450,0 
113.5717370,22.9039444,0 
113.5717380,22.9039438,0 
113.5717391,22.9039432,0 
113.5717402,22.9039427,0 
113.5717413,22.9039421,0 
113.5717425,22.9039415,0 
113.5717437,22.9039409,0 
113.5717449,22.9039403,0 
113.5717462,22.9039398,0 
113.5717475,22.9039392,0 
113.5717489,22.9039386,0 
113.5717503,22.9039380,0 
113.5717517,22.9039375,0 
113.5717531,22.9039369,0 
113.5717546,22.9039363,0 
113.5717561,22.9039358,0 
113.5717576,22.9039352,0 
113.5717592,22.9039347,0 
113.5717608,22.9039341,0 
113.5717624,22.9039336,0 
113.5717641,22.9039330,0 
113.5717657,22.9039325,0 
113.5717674,22.9039319,0 
113.5717692,22.9039314,0 
113.5717709,22.9039309,0 
113.5717727,22.9039304,0 
113.5717745,22.9039299,0 
113.5717763,22.9039293,0 
113.5717781,22.9039288,0 
113.5717800,22.9039283,0 
113.5717819,22.9039279,0 
113.5717838,22.9039274,0 
113.5717857,22.9039269,0 
113.5717876,22.9039264,0 
113.5717896,22.9039260,0 
113.5717915,22.9039255,0 
113.5717935,22.9039251,0 
113.5717955,22.9039246,0 
113.5717975,22.9039242,0 
113.5717995,22.9039238,0 
113.5718015,22.9039234,0 
113.5718036,22.9039230,0 
113.5718056,22.9039226,0 
113.5718077,22.9039222,0 
113.5718097,22.9039218,0 
113.5718118,22.9039214,0 
113.5718139,22.9039211,0 
113.5718160,22.9039207,0 
113.5718180,22.9039204,0 
113.5718201,22.9039200,0 
113.5718222,22.9039197,0 
113.5718243,22.9039194,0 
113.5718264,22.9039191,0 
113.5718285,22.9039188,0 
113.5718306,22.9039185,0 
113.5718326,22.9039183,0 
113.5718347,22.9039180,0 
113.5718368,22.9039178,0 
113.5718389,22.9039175,0 
113.5718409,22.9039173,0 
113.5718430,22.9039171,0 
113.5718450,22.9039169,0 
113.5718471,22.9039167,0 
113.5718491,22.9039165,0 
113.5718511,22.9039164,0 
113.5718531,22.9039162,0 
113.5718551,22.9039161,0 
113.5718571,22.9039159,0 
113.5718590,22.9039158,0 
113.5718610,22.9039157,0 
113.5718629,22.9039156,0 
113.5718648,22.9039155,0 
113.5718667,22.9039155,0 
113.5718686,22.9039154,0 
113.5718705,22.9039154,0 
113.5718723,22.9039153,0 
113.5718741,22.9039153,0 
113.5718759,22.9039153,0 
113.5718777,22.9039153,0 
113.5718795,22.9039153,0 
113.5718812,22.9039153,0 
113.5718829,22.9039154,0 
113.5718846,22.9039154,0 
113.5718862,22.9039155,0 
113.5718878,22.9039155,0 
113.5718894,22.9039156,0 
113.5718910,22.9039157,0 
113.5718925,22.9039158,0 
113.5718940,22.9039160,0 
113.5718955,22.9039161,0 
113.5718970,22.9039162,0 
113.5718984,22.9039164,0 
113.5718998,22.9039166,0 
113.5719011,22.9039168,0 
113.5719024,22.9039169,0 
113.5719037,22.9039171,0 
113.5719049,22.9039174,0 
113.5719061,22.9039176,0 
113.5719073,22.9039178,0 
113.5719085,22.9039181,0 
113.5719096,22.9039183,0 
113.5719106,22.9039186,0 
113.5719116,22.9039189,0 
113.5719126,22.9039192,0 
113.5719136,22.9039195,0 
113.5719145,22.9039198,0 
113.5719154,22.9039201,0 
113.5719162,22.9039204,0 
113.5719170,22.9039208,0 
113.5719177,22.9039211,0 
113.5719184,22.9039215,0 
113.5719191,22.9039219,0 
113.5719197,22.9039223,0 
113.5719203,22.9039226,0 
113.5719209,22.9039230,0 
113.5719214,22.9039234,0 
113.5719218,22.9039239,0 
113.5719222,22.9039243,0 
113.5719226,22.9039247,0 
113.5719229,22.9039252,0 
113.5719232,22.9039256,0 
113.5719234,22.9039261,0 
113.5719236,22.9039265,0 
113.5719238,22.9039270,0 
113.5719239,22.9039275,0 
113.5719240,22.9039280,0 
113.5719240,22.9039285,0 
113.5719240,22.9039289,0 
113.5719239,22.9039295,0 
113.5719238,22.9039300,0 
113.5719237,22.9039305,0 
113.5719235,22.9039310,0 
113.5719232,22.9039315,0 
113.5719229,22.9039321,0 
113.5719226,22.9039326,0 
113.5719222,22.9039331,0 
113.5719218,22.9039337,0 
113.5719214,22.9039342,0 
113.5719209,22.9039348,0 
113.5719203,22.9039353,0 
113.5719198,22.9039359,0 
113.5719191,22.9039365,0 
113.5719185,22.9039370,0 
113.5719178,22.9039376,0 
113.5719170,22.9039382,0 
113.5719162,22.9039387,0 
113.5719154,22.9039393,0 
113.5719145,22.9039399,0 
113.5719136,22.9039405,0 
113.5719127,22.9039410,0 
113.5719117,22.9039416,0 
113.5719107,22.9039422,0 
113.5719096,22.9039428,0 
113.5719085,22.9039434,0 
113.5719074,22.9039439,0 
113.5719062,22.9039445,0 
113.5719050,22.9039451,0 
113.5719038,22.9039457,0 
113.5719025,22.9039463,0 
113.5719012,22.9039468,0 
113.5718998,22.9039474,0 
113.5718984,22.9039480,0 
113.5718970,22.9039485,0 
113.5718956,22.9039491,0 
113.5718941,22.9039497,0 
113.5718926,22.9039502,0 
113.5718911,22.9039508,0 
113.5718895,22.9039514,0 
113.5718879,22.9039519,0 
113.5718863,22.9039525,0 
113.5718846,22.9039530,0 
113.5718830,22.9039535,0 
113.5718813,22.9039541,0 
113.5718795,22.9039546,0 
113.5718778,22.9039551,0 
113.5718760,22.9039557,0 
113.5718742,22.9039562,0 
113.5718724,22.9039567,0 
113.5718706,22.9039572,0 
113.5718687,22.9039577,0 
113.5718668,22.9039582,0 
113.5718649,22.9039586,0 
113.5718630,22.9039591,0 
113.5718611,22.9039596,0 
113.5718591,22.9039601,0 
113.5718572,22.9039605,0 
113.5718552,22.9039610,0 
113.5718532,22.9039614,0 
113.5718512,22.9039618,0 
113.5718492,22.9039622,0 
113.5718472,22.9039627,0 
113.5718451,22.9039631,0 
113.5718431,22.9039635,0 
113.5718410,22.9039638,0 
113.5718390,22.9039642,0 
113.5718369,22.9039646,0 
113.5718348,22.9039650,0 
113.5718327,22.9039653,0 
113.5718307,22.9039656,0 
113.5718286,22.9039660,0 
113.5718265,22.9039663,0 
113.5718244,22.9039666,0 
113.5718223,22.9039669,0 
113.5718202,22.9039672,0 
113.5718181,22.9039675,0 
113.5718161,22.9039677,0 
113.5718140,22.9039680,0 
113.5718119,22.9039682,0 
113.5718098,22.9039685,0 
113.5718078,22.9039687,0 
113.5718057,22.9039689,0 
113.5718037,22.9039691,0 
113.5718016,22.9039693,0 
113.5717996,22.9039695,0 
113.5717976,22.9039697,0 
113.5717956,22.9039698,0 
113.5717936,22.9039700,0 
113.5717916,22.9039701,0 
113.5717897,22.9039702,0 
113.5717877,22.9039703,0 
113.5717858,22.9039704,0 
113.5717839,22.9039705,0 
113.5717820,22.9039706,0 
113.5717801,22.9039706,0 
113.5717782,22.9039707,0 
113.5717764,22.9039707,0 
113.5717746,22.9039707,0 
113.5717728,22.9039707,0 
113.5717710,22.9039707,0 
113.5717692,22.9039707,0 
113.5717675,22.9039707,0 
113.5717658,22.9039707,0 
113.5717641,22.9039706,0 
113.5717625,22.9039705,0 
113.5717609,22.9039705,0 
113.5717593,22.9039704,0 
113.5717577,22.9039703,0 
113.5717562,22.9039702,0 
113.5717547,22.9039701,0 
113.5717532,22.9039699,0 
113.5717517,22.9039698,0 
113.5717503,22.9039696,0 
113.5717489,22.9039695,0 
113.5717476,22.9039693,0 
113.5717463,22.9039691,0 
113.5717450,22.9039689,0 
113.5717438,22.9039687,0 
113.5717425,22.9039684,0 
113.5717414,22.9039682,0 
113.5717402,22.9039679,0 
113.5717391,22.9039677,0 
113.5717381,22.9039674,0 
113.5717370,22.9039671,0 
113.5717361,22.9039668,0 
113.5717351,22.9039665,0 
113.5717342,22.9039662,0 
113.5717333,22.9039659,0 
113.5717325,22.9039656,0 
113.5717317,22.9039652,0 
113.5717310,22.9039649,0 
113.5717303,22.9039645,0 
113.5717296,22.9039641,0 
113.5717290,22.9039638,0 
113.5717284,22.9039634,0 
113.5717278,22.9039630,0 
113.5717273,22.9039626,0 
113.5717269,22.9039622,0 
113.5717265,22.9039617,0 
113.5717261,22.9039613,0 
113.5717258,22.9039609,0 
113.5717255,22.9039604,0 
113.5717252,22.9039600,0 
113.5717250,22.9039595,0 
113.5717249,22.9039590,0 
113.5717248,22.9039585,0 
</coordinates>
</LineString>
</Placemark>
</Folder>