<Folder>
<name>SV 21 307.714217 13.831528</name>
<visibility>1</visibility>
<Placemark>
<name>circle</name>
<visibility>1</visibility>
<Style>
<geomColor></geomColor>
<geomScale>2</geomScale></Style>
<LineString>
<coordinates>
113.5717758,22.9041309,0 
113.5717755,22.9041305,0 
113.5717752,22.9041301,0 
113.5717749,22.9041296,0 
113.5717747,22.9041291,0 
113.5717746,22.9041286,0 
113.5717744,22.9041280,0 
113.5717744,22.9041274,0 
113.5717743,22.9041268,0 
113.5717743,22.9041262,0 
113.5717743,22.9041255,0 
113.5717744,22.9041248,0 
113.5717745,22.9041241,0 
113.5717747,22.9041234,0 
113.5717748,22.9041226,0 
113.5717751,22.9041218,0 
113.5717753,22.9041210,0 
113.5717756,22.9041202,0 
113.5717760,22.9041193,0 
113.5717764,22.9041184,0 
113.5717768,22.9041175,0 
113.5717773,22.9041166,0 
113.5717778,22.9041157,0 
113.5717783,22.9041147,0 
113.5717789,22.9041137,0 
113.5717795,22.9041127,0 
113.5717801,22.9041117,0 
113.5717808,22.9041107,0 
113.5717815,22.9041096,0 
113.5717823,22.9041085,0 
113.5717831,22.9041074,0 
113.5717839,22.9041063,0 
113.5717848,22.9041052,0 
113.5717857,22.9041040,0 
113.5717866,22.9041028,0 
113.5717876,22.9041017,0 
113.5717886,22.9041005,0 
113.5717896,22.9040993,0 
113.5717907,22.9040980,0 
113.5717918,22.9040968,0 
113.5717929,22.9040955,0 
113.5717941,22.9040943,0 
113.5717953,22.9040930,0 
113.5717965,22.9040917,0 
113.5717978,22.9040904,0 
113.5717991,22.9040891,0 
113.5718004,22.9040878,0 
113.5718017,22.9040865,0 
113.5718031,22.9040852,0 
113.5718045,22.9040838,0 
113.5718059,22.9040825,0 
113.5718074,22.9040811,0 
113.5718088,22.9040798,0 
113.5718103,22.9040784,0 
113.5718119,22.9040770,0 
113.5718134,22.9040757,0 
113.5718150,22.9040743,0 
113.5718166,22.9040729,0 
113.5718182,22.9040715,0 
113.5718198,22.9040701,0 
113.5718214,22.9040688,0 
113.5718231,22.9040674,0 
113.5718248,22.9040660,0 
113.5718265,22.9040646,0 
113.5718282,22.9040632,0 
113.5718300,22.9040619,0 
113.5718317,22.9040605,0 
113.5718335,22.9040591,0 
113.5718353,22.9040577,0 
113.5718371,22.9040564,0 
113.5718389,22.9040550,0 
113.5718407,22.9040537,0 
113.5718425,22.9040523,0 
113.5718443,22.9040510,0 
113.5718462,22.9040496,0 
113.5718480,22.9040483,0 
113.5718499,22.9040470,0 
113.5718518,22.9040457,0 
113.5718536,22.9040444,0 
113.5718555,22.9040431,0 
113.5718574,22.9040418,0 
113.5718593,22.9040405,0 
113.5718611,22.9040393,0 
113.5718630,22.9040380,0 
113.5718649,22.9040368,0 
113.5718668,22.9040356,0 
113.5718687,22.9040344,0 
113.5718706,22.9040332,0 
113.5718725,22.9040320,0 
113.5718743,22.9040309,0 
113.5718762,22.9040298,0 
113.5718781,22.9040286,0 
113.5718799,22.9040275,0 
113.5718818,22.9040264,0 
113.5718836,22.9040254,0 
113.5718855,22.9040243,0 
113.5718873,22.9040233,0 
113.5718891,22.9040223,0 
113.5718909,22.9040213,0 
113.5718927,22.9040203,0 
113.5718945,22.9040194,0 
113.5718963,22.9040184,0 
113.5718981,22.9040175,0 
113.5718998,22.9040166,0 
113.5719015,22.9040158,0 
113.5719032,22.9040149,0 
113.5719049,22.9040141,0 
113.5719066,22.9040133,0 
113.5719083,22.9040125,0 
113.5719099,22.9040118,0 
113.5719115,22.9040111,0 
113.5719131,22.9040104,0 
113.5719147,22.9040097,0 
113.5719163,22.9040091,0 
113.5719178,22.9040084,0 
113.5719193,22.9040078,0 
113.5719208,22.9040073,0 
113.5719222,22.9040067,0 
113.5719237,22.9040062,0 
113.5719251,22.9040057,0 
113.5719265,22.9040053,0 
113.5719278,22.9040048,0 
113.5719292,22.9040044,0 
113.5719305,22.9040041,0 
113.5719317,22.9040037,0 
113.5719330,22.9040034,0 
113.5719342,22.9040031,0 
113.5719353,22.9040028,0 
113.5719365,22.9040026,0 
113.5719376,22.9040024,0 
113.5719387,22.9040022,0 
113.5719398,22.9040021,0 
113.5719408,22.9040019,0 
113.5719418,22.9040019,0 
113.5719427,22.9040018,0 
113.5719436,22.9040018,0 
113.5719445,22.9040017,0 
113.5719454,22.9040018,0 
113.5719462,22.9040018,0 
113.5719469,22.9040019,0 
113.5719477,22.9040020,0 
113.5719484,22.9040022,0 
113.5719491,22.9040023,0 
113.5719497,22.9040025,0 
113.5719503,22.9040027,0 
113.5719508,22.9040030,0 
113.5719513,22.9040033,0 
113.5719518,22.9040036,0 
113.5719523,22.9040039,0 
113.5719527,22.9040043,0 
113.5719530,22.9040047,0 
113.5719533,22.9040051,0 
113.5719536,22.9040056,0 
113.5719539,22.9040060,0 
113.5719541,22.9040065,0 
113.5719543,22.9040071,0 
113.5719544,22.9040076,0 
113.5719545,22.9040082,0 
113.5719545,22.9040088,0 
113.5719545,22.9040095,0 
113.5719545,22.9040101,0 
113.5719544,22.9040108,0 
113.5719543,22.9040115,0 
113.5719542,22.9040123,0 
113.5719540,22.9040130,0 
113.5719537,22.9040138,0 
113.5719535,22.9040146,0 
113.5719532,22.9040155,0 
113.5719528,22.9040163,0 
113.5719524,22.9040172,0 
113.5719520,22.9040181,0 
113.5719516,22.9040190,0 
113.5719511,22.9040200,0 
113.5719505,22.9040209,0 
113.5719500,22.9040219,0 
113.5719493,22.9040229,0 
113.5719487,22.9040239,0 
113.5719480,22.9040250,0 
113.5719473,22.9040260,0 
113.5719465,22.9040271,0 
113.5719457,22.9040282,0 
113.5719449,22.9040293,0 
113.5719440,22.9040305,0 
113.5719431,22.9040316,0 
113.5719422,22.9040328,0 
113.5719412,22.9040340,0 
113.5719402,22.9040352,0 
113.5719392,22.9040364,0 
113.5719381,22.9040376,0 
113.5719370,22.9040388,0 
113.5719359,22.9040401,0 
113.5719347,22.9040413,0 
113.5719335,22.9040426,0 
113.5719323,22.9040439,0 
113.5719310,22.9040452,0 
113.5719297,22.9040465,0 
113.5719284,22.9040478,0 
113.5719271,22.9040491,0 
113.5719257,22.9040505,0 
113.5719243,22.9040518,0 
113.5719229,22.9040532,0 
113.5719215,22.9040545,0 
113.5719200,22.9040559,0 
113.5719185,22.9040572,0 
113.5719170,22.9040586,0 
113.5719154,22.9040600,0 
113.5719139,22.9040613,0 
113.5719123,22.9040627,0 
113.5719107,22.9040641,0 
113.5719090,22.9040655,0 
113.5719074,22.9040669,0 
113.5719057,22.9040683,0 
113.5719040,22.9040696,0 
113.5719023,22.9040710,0 
113.5719006,22.9040724,0 
113.5718989,22.9040738,0 
113.5718971,22.9040752,0 
113.5718953,22.9040765,0 
113.5718936,22.9040779,0 
113.5718918,22.9040793,0 
113.5718900,22.9040806,0 
113.5718881,22.9040820,0 
113.5718863,22.9040833,0 
113.5718845,22.9040847,0 
113.5718826,22.9040860,0 
113.5718808,22.9040873,0 
113.5718789,22.9040886,0 
113.5718771,22.9040900,0 
113.5718752,22.9040913,0 
113.5718733,22.9040925,0 
113.5718714,22.9040938,0 
113.5718696,22.9040951,0 
113.5718677,22.9040963,0 
113.5718658,22.9040976,0 
113.5718639,22.9040988,0 
113.5718620,22.9041000,0 
113.5718601,22.9041012,0 
113.5718582,22.9041024,0 
113.5718564,22.9041036,0 
113.5718545,22.9041047,0 
113.5718526,22.9041059,0 
113.5718507,22.9041070,0 
113.5718489,22.9041081,0 
113.5718470,22.9041092,0 
113.5718452,22.9041103,0 
113.5718433,22.9041113,0 
113.5718415,22.9041123,0 
113.5718397,22.9041134,0 
113.5718379,22.9041144,0 
113.5718361,22.9041153,0 
113.5718343,22.9041163,0 
113.5718325,22.9041172,0 
113.5718308,22.9041181,0 
113.5718290,22.9041190,0 
113.5718273,22.9041199,0 
113.5718256,22.9041207,0 
113.5718239,22.9041215,0 
113.5718222,22.9041223,0 
113.5718205,22.9041231,0 
113.5718189,22.9041238,0 
113.5718173,22.9041246,0 
113.5718157,22.9041252,0 
113.5718141,22.9041259,0 
113.5718126,22.9041266,0 
113.5718110,22.9041272,0 
113.5718095,22.9041278,0 
113.5718080,22.9041283,0 
113.5718066,22.9041289,0 
113.5718051,22.9041294,0 
113.5718037,22.9041299,0 
113.5718023,22.9041304,0 
113.5718010,22.9041308,0 
113.5717997,22.9041312,0 
113.5717984,22.9041316,0 
113.5717971,22.9041319,0 
113.5717959,22.9041322,0 
113.5717946,22.9041325,0 
113.5717935,22.9041328,0 
113.5717923,22.9041330,0 
113.5717912,22.9041332,0 
113.5717901,22.9041334,0 
113.5717891,22.9041336,0 
113.5717880,22.9041337,0 
113.5717871,22.9041338,0 
113.5717861,22.9041338,0 
113.5717852,22.9041339,0 
113.5717843,22.9041339,0 
113.5717835,22.9041339,0 
113.5717827,22.9041338,0 
113.5717819,22.9041337,0 
113.5717811,22.9041336,0 
113.5717804,22.9041335,0 
113.5717798,22.9041333,0 
113.5717791,22.9041331,0 
113.5717785,22.9041329,0 
113.5717780,22.9041326,0 
113.5717775,22.9041323,0 
113.5717770,22.9041320,0 
113.5717766,22.9041317,0 
113.5717762,22.9041313,0 
113.5717758,22.9041309,0 
</coordinates>
</LineString>
</Placemark>
</Folder>