<Folder>
<name>SV  5 308.163220 8.823902</name>
<visibility>1</visibility>
<Placemark>
<name>circle</name>
<visibility>1</visibility>
<Style>
<geomColor>FF006400</geomColor>
<geomScale>2</geomScale></Style>
<LineString>
<coordinates>
113.5715415,22.9043043,0 
113.5715411,22.9043038,0 
113.5715408,22.9043032,0 
113.5715405,22.9043025,0 
113.5715403,22.9043018,0 
113.5715402,22.9043011,0 
113.5715402,22.9043003,0 
113.5715403,22.9042994,0 
113.5715404,22.9042985,0 
113.5715406,22.9042975,0 
113.5715409,22.9042965,0 
113.5715413,22.9042954,0 
113.5715417,22.9042943,0 
113.5715422,22.9042931,0 
113.5715428,22.9042919,0 
113.5715435,22.9042906,0 
113.5715442,22.9042893,0 
113.5715451,22.9042879,0 
113.5715459,22.9042865,0 
113.5715469,22.9042851,0 
113.5715480,22.9042836,0 
113.5715491,22.9042820,0 
113.5715502,22.9042804,0 
113.5715515,22.9042787,0 
113.5715528,22.9042771,0 
113.5715542,22.9042753,0 
113.5715557,22.9042735,0 
113.5715572,22.9042717,0 
113.5715588,22.9042699,0 
113.5715605,22.9042680,0 
113.5715623,22.9042660,0 
113.5715641,22.9042641,0 
113.5715659,22.9042620,0 
113.5715679,22.9042600,0 
113.5715699,22.9042579,0 
113.5715720,22.9042558,0 
113.5715741,22.9042536,0 
113.5715763,22.9042515,0 
113.5715785,22.9042492,0 
113.5715809,22.9042470,0 
113.5715832,22.9042447,0 
113.5715857,22.9042424,0 
113.5715881,22.9042401,0 
113.5715907,22.9042377,0 
113.5715933,22.9042353,0 
113.5715959,22.9042329,0 
113.5715986,22.9042305,0 
113.5716014,22.9042280,0 
113.5716042,22.9042255,0 
113.5716070,22.9042230,0 
113.5716099,22.9042205,0 
113.5716129,22.9042180,0 
113.5716159,22.9042154,0 
113.5716189,22.9042129,0 
113.5716220,22.9042103,0 
113.5716251,22.9042077,0 
113.5716282,22.9042051,0 
113.5716314,22.9042025,0 
113.5716346,22.9041998,0 
113.5716379,22.9041972,0 
113.5716412,22.9041945,0 
113.5716445,22.9041919,0 
113.5716479,22.9041892,0 
113.5716513,22.9041865,0 
113.5716547,22.9041839,0 
113.5716581,22.9041812,0 
113.5716616,22.9041785,0 
113.5716651,22.9041759,0 
113.5716686,22.9041732,0 
113.5716721,22.9041705,0 
113.5716757,22.9041679,0 
113.5716792,22.9041652,0 
113.5716828,22.9041625,0 
113.5716864,22.9041599,0 
113.5716900,22.9041573,0 
113.5716936,22.9041546,0 
113.5716973,22.9041520,0 
113.5717009,22.9041494,0 
113.5717045,22.9041468,0 
113.5717082,22.9041442,0 
113.5717118,22.9041417,0 
113.5717155,22.9041391,0 
113.5717191,22.9041366,0 
113.5717228,22.9041341,0 
113.5717264,22.9041316,0 
113.5717301,22.9041291,0 
113.5717337,22.9041267,0 
113.5717373,22.9041243,0 
113.5717409,22.9041218,0 
113.5717445,22.9041195,0 
113.5717481,22.9041171,0 
113.5717517,22.9041148,0 
113.5717552,22.9041125,0 
113.5717588,22.9041102,0 
113.5717623,22.9041080,0 
113.5717658,22.9041058,0 
113.5717693,22.9041036,0 
113.5717727,22.9041015,0 
113.5717762,22.9040994,0 
113.5717796,22.9040973,0 
113.5717829,22.9040953,0 
113.5717863,22.9040933,0 
113.5717896,22.9040913,0 
113.5717929,22.9040894,0 
113.5717961,22.9040875,0 
113.5717993,22.9040857,0 
113.5718025,22.9040839,0 
113.5718056,22.9040821,0 
113.5718087,22.9040804,0 
113.5718118,22.9040787,0 
113.5718148,22.9040771,0 
113.5718177,22.9040755,0 
113.5718206,22.9040740,0 
113.5718235,22.9040725,0 
113.5718263,22.9040710,0 
113.5718291,22.9040696,0 
113.5718318,22.9040683,0 
113.5718345,22.9040670,0 
113.5718371,22.9040657,0 
113.5718397,22.9040645,0 
113.5718422,22.9040634,0 
113.5718447,22.9040623,0 
113.5718471,22.9040612,0 
113.5718494,22.9040602,0 
113.5718517,22.9040593,0 
113.5718539,22.9040584,0 
113.5718561,22.9040575,0 
113.5718582,22.9040568,0 
113.5718602,22.9040560,0 
113.5718622,22.9040553,0 
113.5718641,22.9040547,0 
113.5718659,22.9040541,0 
113.5718677,22.9040536,0 
113.5718694,22.9040532,0 
113.5718710,22.9040528,0 
113.5718726,22.9040524,0 
113.5718741,22.9040521,0 
113.5718755,22.9040519,0 
113.5718769,22.9040517,0 
113.5718782,22.9040516,0 
113.5718794,22.9040515,0 
113.5718805,22.9040515,0 
113.5718816,22.9040515,0 
113.5718826,22.9040516,0 
113.5718835,22.9040518,0 
113.5718844,22.9040520,0 
113.5718852,22.9040522,0 
113.5718859,22.9040525,0 
113.5718865,22.9040529,0 
113.5718870,22.9040533,0 
113.5718875,22.9040538,0 
113.5718879,22.9040544,0 
113.5718882,22.9040550,0 
113.5718885,22.9040556,0 
113.5718886,22.9040563,0 
113.5718887,22.9040571,0 
113.5718888,22.9040579,0 
113.5718887,22.9040587,0 
113.5718886,22.9040597,0 
113.5718883,22.9040606,0 
113.5718881,22.9040617,0 
113.5718877,22.9040627,0 
113.5718873,22.9040638,0 
113.5718867,22.9040650,0 
113.5718861,22.9040662,0 
113.5718855,22.9040675,0 
113.5718847,22.9040688,0 
113.5718839,22.9040702,0 
113.5718830,22.9040716,0 
113.5718821,22.9040731,0 
113.5718810,22.9040746,0 
113.5718799,22.9040762,0 
113.5718787,22.9040778,0 
113.5718775,22.9040794,0 
113.5718762,22.9040811,0 
113.5718748,22.9040828,0 
113.5718733,22.9040846,0 
113.5718717,22.9040864,0 
113.5718701,22.9040883,0 
113.5718685,22.9040902,0 
113.5718667,22.9040921,0 
113.5718649,22.9040941,0 
113.5718630,22.9040961,0 
113.5718611,22.9040982,0 
113.5718591,22.9041002,0 
113.5718570,22.9041024,0 
113.5718549,22.9041045,0 
113.5718527,22.9041067,0 
113.5718504,22.9041089,0 
113.5718481,22.9041112,0 
113.5718458,22.9041134,0 
113.5718433,22.9041157,0 
113.5718408,22.9041181,0 
113.5718383,22.9041204,0 
113.5718357,22.9041228,0 
113.5718331,22.9041252,0 
113.5718304,22.9041277,0 
113.5718276,22.9041301,0 
113.5718248,22.9041326,0 
113.5718220,22.9041351,0 
113.5718191,22.9041376,0 
113.5718161,22.9041402,0 
113.5718131,22.9041427,0 
113.5718101,22.9041453,0 
113.5718070,22.9041479,0 
113.5718039,22.9041505,0 
113.5718008,22.9041531,0 
113.5717976,22.9041557,0 
113.5717943,22.9041583,0 
113.5717911,22.9041610,0 
113.5717878,22.9041636,0 
113.5717845,22.9041663,0 
113.5717811,22.9041689,0 
113.5717777,22.9041716,0 
113.5717743,22.9041743,0 
113.5717709,22.9041770,0 
113.5717674,22.9041796,0 
113.5717639,22.9041823,0 
113.5717604,22.9041850,0 
113.5717569,22.9041876,0 
113.5717533,22.9041903,0 
113.5717498,22.9041930,0 
113.5717462,22.9041956,0 
113.5717426,22.9041983,0 
113.5717390,22.9042009,0 
113.5717353,22.9042035,0 
113.5717317,22.9042061,0 
113.5717281,22.9042087,0 
113.5717244,22.9042113,0 
113.5717208,22.9042139,0 
113.5717171,22.9042165,0 
113.5717135,22.9042190,0 
113.5717098,22.9042216,0 
113.5717062,22.9042241,0 
113.5717026,22.9042266,0 
113.5716989,22.9042290,0 
113.5716953,22.9042315,0 
113.5716917,22.9042339,0 
113.5716881,22.9042363,0 
113.5716845,22.9042387,0 
113.5716809,22.9042410,0 
113.5716773,22.9042434,0 
113.5716737,22.9042457,0 
113.5716702,22.9042479,0 
113.5716667,22.9042502,0 
113.5716632,22.9042524,0 
113.5716597,22.9042545,0 
113.5716562,22.9042567,0 
113.5716528,22.9042588,0 
113.5716494,22.9042608,0 
113.5716460,22.9042629,0 
113.5716427,22.9042649,0 
113.5716394,22.9042668,0 
113.5716361,22.9042688,0 
113.5716329,22.9042706,0 
113.5716297,22.9042725,0 
113.5716265,22.9042743,0 
113.5716234,22.9042760,0 
113.5716203,22.9042778,0 
113.5716172,22.9042794,0 
113.5716142,22.9042811,0 
113.5716113,22.9042826,0 
113.5716083,22.9042842,0 
113.5716055,22.9042857,0 
113.5716026,22.9042871,0 
113.5715999,22.9042885,0 
113.5715971,22.9042899,0 
113.5715945,22.9042912,0 
113.5715919,22.9042924,0 
113.5715893,22.9042936,0 
113.5715868,22.9042948,0 
113.5715843,22.9042959,0 
113.5715819,22.9042969,0 
113.5715796,22.9042979,0 
113.5715773,22.9042989,0 
113.5715751,22.9042998,0 
113.5715729,22.9043006,0 
113.5715708,22.9043014,0 
113.5715688,22.9043021,0 
113.5715668,22.9043028,0 
113.5715649,22.9043034,0 
113.5715631,22.9043040,0 
113.5715613,22.9043045,0 
113.5715596,22.9043050,0 
113.5715580,22.9043054,0 
113.5715564,22.9043058,0 
113.5715549,22.9043060,0 
113.5715535,22.9043063,0 
113.5715521,22.9043065,0 
113.5715508,22.9043066,0 
113.5715496,22.9043067,0 
113.5715484,22.9043067,0 
113.5715474,22.9043066,0 
113.5715464,22.9043066,0 
113.5715455,22.9043064,0 
113.5715446,22.9043062,0 
113.5715438,22.9043059,0 
113.5715431,22.9043056,0 
113.5715425,22.9043052,0 
113.5715420,22.9043048,0 
113.5715415,22.9043043,0 
</coordinates>
</LineString>
</Placemark>
</Folder>