<Folder>
<name>SV  5 292.296587 9.913001</name>
<visibility>1</visibility>
<Placemark>
<name>circle</name>
<visibility>1</visibility>
<Style>
<geomColor>FF006400</geomColor>
<geomScale>2</geomScale></Style>
<LineString>
<coordinates>
113.5715306,22.9041151,0 
113.5715304,22.9041145,0 
113.5715303,22.9041139,0 
113.5715302,22.9041132,0 
113.5715302,22.9041126,0 
113.5715303,22.9041119,0 
113.5715305,22.9041112,0 
113.5715307,22.9041104,0 
113.5715310,22.9041096,0 
113.5715314,22.9041088,0 
113.5715319,22.9041080,0 
113.5715324,22.9041072,0 
113.5715330,22.9041063,0 
113.5715337,22.9041054,0 
113.5715344,22.9041045,0 
113.5715353,22.9041035,0 
113.5715362,22.9041026,0 
113.5715371,22.9041016,0 
113.5715382,22.9041006,0 
113.5715393,22.9040995,0 
113.5715405,22.9040985,0 
113.5715418,22.9040974,0 
113.5715431,22.9040963,0 
113.5715445,22.9040952,0 
113.5715459,22.9040940,0 
113.5715475,22.9040929,0 
113.5715491,22.9040917,0 
113.5715508,22.9040905,0 
113.5715525,22.9040893,0 
113.5715543,22.9040881,0 
113.5715562,22.9040868,0 
113.5715581,22.9040856,0 
113.5715601,22.9040843,0 
113.5715621,22.9040830,0 
113.5715643,22.9040817,0 
113.5715664,22.9040804,0 
113.5715687,22.9040790,0 
113.5715710,22.9040777,0 
113.5715733,22.9040763,0 
113.5715757,22.9040750,0 
113.5715782,22.9040736,0 
113.5715807,22.9040722,0 
113.5715833,22.9040708,0 
113.5715859,22.9040694,0 
113.5715886,22.9040680,0 
113.5715913,22.9040666,0 
113.5715940,22.9040651,0 
113.5715969,22.9040637,0 
113.5715997,22.9040623,0 
113.5716026,22.9040608,0 
113.5716056,22.9040594,0 
113.5716086,22.9040579,0 
113.5716116,22.9040564,0 
113.5716147,22.9040550,0 
113.5716178,22.9040535,0 
113.5716209,22.9040521,0 
113.5716241,22.9040506,0 
113.5716273,22.9040491,0 
113.5716306,22.9040477,0 
113.5716339,22.9040462,0 
113.5716372,22.9040447,0 
113.5716405,22.9040433,0 
113.5716439,22.9040418,0 
113.5716473,22.9040404,0 
113.5716507,22.9040389,0 
113.5716541,22.9040375,0 
113.5716576,22.9040360,0 
113.5716610,22.9040346,0 
113.5716645,22.9040332,0 
113.5716680,22.9040318,0 
113.5716716,22.9040304,0 
113.5716751,22.9040290,0 
113.5716787,22.9040276,0 
113.5716822,22.9040262,0 
113.5716858,22.9040248,0 
113.5716894,22.9040235,0 
113.5716929,22.9040221,0 
113.5716965,22.9040208,0 
113.5717001,22.9040195,0 
113.5717037,22.9040182,0 
113.5717073,22.9040169,0 
113.5717109,22.9040156,0 
113.5717144,22.9040143,0 
113.5717180,22.9040131,0 
113.5717216,22.9040119,0 
113.5717251,22.9040107,0 
113.5717287,22.9040095,0 
113.5717322,22.9040083,0 
113.5717357,22.9040071,0 
113.5717392,22.9040060,0 
113.5717427,22.9040049,0 
113.5717462,22.9040038,0 
113.5717496,22.9040027,0 
113.5717531,22.9040016,0 
113.5717565,22.9040006,0 
113.5717599,22.9039996,0 
113.5717632,22.9039986,0 
113.5717665,22.9039976,0 
113.5717698,22.9039967,0 
113.5717731,22.9039958,0 
113.5717764,22.9039949,0 
113.5717796,22.9039940,0 
113.5717827,22.9039931,0 
113.5717859,22.9039923,0 
113.5717890,22.9039915,0 
113.5717920,22.9039907,0 
113.5717951,22.9039900,0 
113.5717980,22.9039893,0 
113.5718010,22.9039886,0 
113.5718039,22.9039879,0 
113.5718067,22.9039873,0 
113.5718095,22.9039867,0 
113.5718123,22.9039861,0 
113.5718150,22.9039855,0 
113.5718176,22.9039850,0 
113.5718203,22.9039845,0 
113.5718228,22.9039840,0 
113.5718253,22.9039836,0 
113.5718278,22.9039832,0 
113.5718301,22.9039828,0 
113.5718325,22.9039825,0 
113.5718348,22.9039821,0 
113.5718370,22.9039818,0 
113.5718391,22.9039816,0 
113.5718412,22.9039814,0 
113.5718433,22.9039812,0 
113.5718453,22.9039810,0 
113.5718472,22.9039808,0 
113.5718490,22.9039807,0 
113.5718508,22.9039807,0 
113.5718525,22.9039806,0 
113.5718542,22.9039806,0 
113.5718558,22.9039806,0 
113.5718573,22.9039807,0 
113.5718587,22.9039807,0 
113.5718601,22.9039808,0 
113.5718614,22.9039810,0 
113.5718627,22.9039811,0 
113.5718638,22.9039813,0 
113.5718649,22.9039816,0 
113.5718659,22.9039818,0 
113.5718669,22.9039821,0 
113.5718678,22.9039824,0 
113.5718686,22.9039828,0 
113.5718693,22.9039832,0 
113.5718700,22.9039836,0 
113.5718706,22.9039840,0 
113.5718711,22.9039845,0 
113.5718715,22.9039850,0 
113.5718719,22.9039855,0 
113.5718722,22.9039861,0 
113.5718724,22.9039866,0 
113.5718725,22.9039872,0 
113.5718726,22.9039879,0 
113.5718726,22.9039885,0 
113.5718725,22.9039892,0 
113.5718724,22.9039900,0 
113.5718721,22.9039907,0 
113.5718718,22.9039915,0 
113.5718714,22.9039923,0 
113.5718710,22.9039931,0 
113.5718704,22.9039939,0 
113.5718698,22.9039948,0 
113.5718691,22.9039957,0 
113.5718684,22.9039966,0 
113.5718676,22.9039976,0 
113.5718667,22.9039985,0 
113.5718657,22.9039995,0 
113.5718646,22.9040006,0 
113.5718635,22.9040016,0 
113.5718623,22.9040026,0 
113.5718611,22.9040037,0 
113.5718597,22.9040048,0 
113.5718583,22.9040059,0 
113.5718569,22.9040071,0 
113.5718553,22.9040082,0 
113.5718537,22.9040094,0 
113.5718521,22.9040106,0 
113.5718503,22.9040118,0 
113.5718485,22.9040130,0 
113.5718467,22.9040143,0 
113.5718447,22.9040156,0 
113.5718427,22.9040168,0 
113.5718407,22.9040181,0 
113.5718386,22.9040194,0 
113.5718364,22.9040207,0 
113.5718342,22.9040221,0 
113.5718319,22.9040234,0 
113.5718295,22.9040248,0 
113.5718271,22.9040261,0 
113.5718246,22.9040275,0 
113.5718221,22.9040289,0 
113.5718196,22.9040303,0 
113.5718169,22.9040317,0 
113.5718143,22.9040331,0 
113.5718115,22.9040346,0 
113.5718088,22.9040360,0 
113.5718060,22.9040374,0 
113.5718031,22.9040389,0 
113.5718002,22.9040403,0 
113.5717972,22.9040418,0 
113.5717942,22.9040432,0 
113.5717912,22.9040447,0 
113.5717881,22.9040461,0 
113.5717850,22.9040476,0 
113.5717819,22.9040491,0 
113.5717787,22.9040505,0 
113.5717755,22.9040520,0 
113.5717722,22.9040535,0 
113.5717690,22.9040549,0 
113.5717656,22.9040564,0 
113.5717623,22.9040578,0 
113.5717589,22.9040593,0 
113.5717556,22.9040607,0 
113.5717521,22.9040622,0 
113.5717487,22.9040636,0 
113.5717453,22.9040651,0 
113.5717418,22.9040665,0 
113.5717383,22.9040679,0 
113.5717348,22.9040693,0 
113.5717312,22.9040708,0 
113.5717277,22.9040721,0 
113.5717242,22.9040735,0 
113.5717206,22.9040749,0 
113.5717170,22.9040763,0 
113.5717135,22.9040776,0 
113.5717099,22.9040790,0 
113.5717063,22.9040803,0 
113.5717027,22.9040816,0 
113.5716991,22.9040829,0 
113.5716955,22.9040842,0 
113.5716920,22.9040855,0 
113.5716884,22.9040868,0 
113.5716848,22.9040880,0 
113.5716812,22.9040892,0 
113.5716777,22.9040905,0 
113.5716741,22.9040917,0 
113.5716706,22.9040928,0 
113.5716671,22.9040940,0 
113.5716636,22.9040951,0 
113.5716601,22.9040963,0 
113.5716566,22.9040973,0 
113.5716532,22.9040984,0 
113.5716497,22.9040995,0 
113.5716463,22.9041005,0 
113.5716430,22.9041015,0 
113.5716396,22.9041025,0 
113.5716363,22.9041035,0 
113.5716330,22.9041044,0 
113.5716297,22.9041054,0 
113.5716265,22.9041063,0 
113.5716233,22.9041071,0 
113.5716201,22.9041080,0 
113.5716169,22.9041088,0 
113.5716138,22.9041096,0 
113.5716108,22.9041104,0 
113.5716078,22.9041111,0 
113.5716048,22.9041119,0 
113.5716018,22.9041125,0 
113.5715989,22.9041132,0 
113.5715961,22.9041138,0 
113.5715933,22.9041145,0 
113.5715905,22.9041150,0 
113.5715878,22.9041156,0 
113.5715852,22.9041161,0 
113.5715826,22.9041166,0 
113.5715800,22.9041171,0 
113.5715775,22.9041175,0 
113.5715751,22.9041179,0 
113.5715727,22.9041183,0 
113.5715703,22.9041187,0 
113.5715681,22.9041190,0 
113.5715658,22.9041193,0 
113.5715637,22.9041195,0 
113.5715616,22.9041198,0 
113.5715595,22.9041200,0 
113.5715576,22.9041201,0 
113.5715556,22.9041203,0 
113.5715538,22.9041204,0 
113.5715520,22.9041205,0 
113.5715503,22.9041205,0 
113.5715486,22.9041205,0 
113.5715471,22.9041205,0 
113.5715455,22.9041205,0 
113.5715441,22.9041204,0 
113.5715427,22.9041203,0 
113.5715414,22.9041201,0 
113.5715402,22.9041200,0 
113.5715390,22.9041198,0 
113.5715379,22.9041195,0 
113.5715369,22.9041193,0 
113.5715359,22.9041190,0 
113.5715350,22.9041187,0 
113.5715342,22.9041183,0 
113.5715335,22.9041180,0 
113.5715328,22.9041175,0 
113.5715322,22.9041171,0 
113.5715317,22.9041166,0 
113.5715313,22.9041161,0 
113.5715309,22.9041156,0 
113.5715306,22.9041151,0 
</coordinates>
</LineString>
</Placemark>
</Folder>