<Folder>
<name>SV  5 292.296587 9.913001</name>
<visibility>1</visibility>
<Placemark>
<name>circle</name>
<visibility>1</visibility>
<Style>
<geomColor>FF006400</geomColor>
<geomScale>2</geomScale></Style>
<LineString>
<coordinates>
113.5715615,22.9041034,0 
113.5715613,22.9041029,0 
113.5715612,22.9041024,0 
113.5715612,22.9041018,0 
113.5715612,22.9041012,0 
113.5715613,22.9041006,0 
113.5715614,22.9041000,0 
113.5715616,22.9040993,0 
113.5715619,22.9040987,0 
113.5715622,22.9040980,0 
113.5715626,22.9040973,0 
113.5715631,22.9040965,0 
113.5715636,22.9040958,0 
113.5715642,22.9040950,0 
113.5715648,22.9040942,0 
113.5715656,22.9040934,0 
113.5715664,22.9040925,0 
113.5715672,22.9040917,0 
113.5715681,22.9040908,0 
113.5715691,22.9040899,0 
113.5715701,22.9040890,0 
113.5715712,22.9040880,0 
113.5715724,22.9040871,0 
113.5715736,22.9040861,0 
113.5715749,22.9040851,0 
113.5715762,22.9040841,0 
113.5715776,22.9040831,0 
113.5715790,22.9040820,0 
113.5715806,22.9040810,0 
113.5715821,22.9040799,0 
113.5715838,22.9040788,0 
113.5715854,22.9040777,0 
113.5715872,22.9040766,0 
113.5715890,22.9040755,0 
113.5715908,22.9040744,0 
113.5715927,22.9040732,0 
113.5715946,22.9040720,0 
113.5715966,22.9040709,0 
113.5715987,22.9040697,0 
113.5716008,22.9040685,0 
113.5716029,22.9040673,0 
113.5716051,22.9040661,0 
113.5716073,22.9040649,0 
113.5716096,22.9040637,0 
113.5716119,22.9040624,0 
113.5716143,22.9040612,0 
113.5716167,22.9040599,0 
113.5716192,22.9040587,0 
113.5716217,22.9040574,0 
113.5716242,22.9040562,0 
113.5716268,22.9040549,0 
113.5716294,22.9040536,0 
113.5716320,22.9040524,0 
113.5716347,22.9040511,0 
113.5716374,22.9040498,0 
113.5716401,22.9040486,0 
113.5716429,22.9040473,0 
113.5716457,22.9040460,0 
113.5716485,22.9040447,0 
113.5716514,22.9040435,0 
113.5716543,22.9040422,0 
113.5716572,22.9040409,0 
113.5716601,22.9040397,0 
113.5716630,22.9040384,0 
113.5716660,22.9040371,0 
113.5716690,22.9040359,0 
113.5716720,22.9040346,0 
113.5716750,22.9040334,0 
113.5716781,22.9040321,0 
113.5716811,22.9040309,0 
113.5716842,22.9040297,0 
113.5716873,22.9040285,0 
113.5716904,22.9040273,0 
113.5716935,22.9040261,0 
113.5716966,22.9040249,0 
113.5716997,22.9040237,0 
113.5717028,22.9040225,0 
113.5717059,22.9040214,0 
113.5717090,22.9040202,0 
113.5717121,22.9040191,0 
113.5717153,22.9040179,0 
113.5717184,22.9040168,0 
113.5717215,22.9040157,0 
113.5717246,22.9040147,0 
113.5717277,22.9040136,0 
113.5717308,22.9040125,0 
113.5717339,22.9040115,0 
113.5717370,22.9040105,0 
113.5717400,22.9040095,0 
113.5717431,22.9040085,0 
113.5717461,22.9040075,0 
113.5717491,22.9040065,0 
113.5717521,22.9040056,0 
113.5717551,22.9040047,0 
113.5717581,22.9040038,0 
113.5717610,22.9040029,0 
113.5717639,22.9040020,0 
113.5717668,22.9040012,0 
113.5717697,22.9040004,0 
113.5717726,22.9039996,0 
113.5717754,22.9039988,0 
113.5717782,22.9039980,0 
113.5717809,22.9039973,0 
113.5717837,22.9039966,0 
113.5717864,22.9039959,0 
113.5717890,22.9039952,0 
113.5717917,22.9039945,0 
113.5717943,22.9039939,0 
113.5717968,22.9039933,0 
113.5717993,22.9039927,0 
113.5718018,22.9039922,0 
113.5718042,22.9039916,0 
113.5718066,22.9039911,0 
113.5718090,22.9039907,0 
113.5718113,22.9039902,0 
113.5718136,22.9039898,0 
113.5718158,22.9039894,0 
113.5718180,22.9039890,0 
113.5718201,22.9039886,0 
113.5718222,22.9039883,0 
113.5718242,22.9039880,0 
113.5718262,22.9039877,0 
113.5718281,22.9039875,0 
113.5718300,22.9039872,0 
113.5718318,22.9039870,0 
113.5718336,22.9039869,0 
113.5718353,22.9039867,0 
113.5718370,22.9039866,0 
113.5718386,22.9039865,0 
113.5718402,22.9039864,0 
113.5718417,22.9039864,0 
113.5718431,22.9039864,0 
113.5718445,22.9039864,0 
113.5718458,22.9039864,0 
113.5718471,22.9039865,0 
113.5718483,22.9039866,0 
113.5718494,22.9039867,0 
113.5718505,22.9039868,0 
113.5718515,22.9039870,0 
113.5718525,22.9039872,0 
113.5718534,22.9039874,0 
113.5718542,22.9039877,0 
113.5718549,22.9039880,0 
113.5718557,22.9039883,0 
113.5718563,22.9039886,0 
113.5718569,22.9039890,0 
113.5718574,22.9039893,0 
113.5718578,22.9039897,0 
113.5718582,22.9039902,0 
113.5718585,22.9039906,0 
113.5718588,22.9039911,0 
113.5718590,22.9039916,0 
113.5718591,22.9039922,0 
113.5718591,22.9039927,0 
113.5718591,22.9039933,0 
113.5718591,22.9039939,0 
113.5718589,22.9039945,0 
113.5718587,22.9039952,0 
113.5718584,22.9039958,0 
113.5718581,22.9039965,0 
113.5718577,22.9039972,0 
113.5718572,22.9039980,0 
113.5718567,22.9039987,0 
113.5718561,22.9039995,0 
113.5718555,22.9040003,0 
113.5718547,22.9040011,0 
113.5718540,22.9040020,0 
113.5718531,22.9040029,0 
113.5718522,22.9040037,0 
113.5718512,22.9040046,0 
113.5718502,22.9040056,0 
113.5718491,22.9040065,0 
113.5718479,22.9040074,0 
113.5718467,22.9040084,0 
113.5718455,22.9040094,0 
113.5718441,22.9040104,0 
113.5718427,22.9040114,0 
113.5718413,22.9040125,0 
113.5718398,22.9040135,0 
113.5718382,22.9040146,0 
113.5718366,22.9040157,0 
113.5718349,22.9040168,0 
113.5718331,22.9040179,0 
113.5718314,22.9040190,0 
113.5718295,22.9040202,0 
113.5718276,22.9040213,0 
113.5718257,22.9040225,0 
113.5718237,22.9040236,0 
113.5718216,22.9040248,0 
113.5718195,22.9040260,0 
113.5718174,22.9040272,0 
113.5718152,22.9040284,0 
113.5718130,22.9040296,0 
113.5718107,22.9040309,0 
113.5718084,22.9040321,0 
113.5718060,22.9040333,0 
113.5718036,22.9040346,0 
113.5718011,22.9040358,0 
113.5717987,22.9040371,0 
113.5717961,22.9040383,0 
113.5717936,22.9040396,0 
113.5717910,22.9040409,0 
113.5717883,22.9040421,0 
113.5717856,22.9040434,0 
113.5717829,22.9040447,0 
113.5717802,22.9040460,0 
113.5717774,22.9040472,0 
113.5717746,22.9040485,0 
113.5717718,22.9040498,0 
113.5717689,22.9040511,0 
113.5717661,22.9040523,0 
113.5717632,22.9040536,0 
113.5717602,22.9040549,0 
113.5717573,22.9040561,0 
113.5717543,22.9040574,0 
113.5717513,22.9040586,0 
113.5717483,22.9040599,0 
113.5717453,22.9040611,0 
113.5717422,22.9040624,0 
113.5717392,22.9040636,0 
113.5717361,22.9040648,0 
113.5717330,22.9040660,0 
113.5717300,22.9040673,0 
113.5717269,22.9040685,0 
113.5717238,22.9040696,0 
113.5717206,22.9040708,0 
113.5717175,22.9040720,0 
113.5717144,22.9040732,0 
113.5717113,22.9040743,0 
113.5717082,22.9040754,0 
113.5717051,22.9040766,0 
113.5717019,22.9040777,0 
113.5716988,22.9040788,0 
113.5716957,22.9040799,0 
113.5716926,22.9040809,0 
113.5716895,22.9040820,0 
113.5716864,22.9040830,0 
113.5716834,22.9040840,0 
113.5716803,22.9040851,0 
113.5716772,22.9040860,0 
113.5716742,22.9040870,0 
113.5716712,22.9040880,0 
113.5716682,22.9040889,0 
113.5716652,22.9040898,0 
113.5716622,22.9040907,0 
113.5716593,22.9040916,0 
113.5716564,22.9040925,0 
113.5716535,22.9040933,0 
113.5716506,22.9040942,0 
113.5716478,22.9040950,0 
113.5716449,22.9040957,0 
113.5716421,22.9040965,0 
113.5716394,22.9040972,0 
113.5716366,22.9040980,0 
113.5716340,22.9040986,0 
113.5716313,22.9040993,0 
113.5716287,22.9041000,0 
113.5716261,22.9041006,0 
113.5716235,22.9041012,0 
113.5716210,22.9041018,0 
113.5716185,22.9041023,0 
113.5716161,22.9041029,0 
113.5716137,22.9041034,0 
113.5716113,22.9041039,0 
113.5716090,22.9041043,0 
113.5716067,22.9041047,0 
113.5716045,22.9041052,0 
113.5716023,22.9041055,0 
113.5716002,22.9041059,0 
113.5715981,22.9041062,0 
113.5715961,22.9041065,0 
113.5715941,22.9041068,0 
113.5715922,22.9041071,0 
113.5715903,22.9041073,0 
113.5715885,22.9041075,0 
113.5715867,22.9041077,0 
113.5715850,22.9041078,0 
113.5715833,22.9041079,0 
113.5715817,22.9041080,0 
113.5715801,22.9041081,0 
113.5715787,22.9041081,0 
113.5715772,22.9041081,0 
113.5715758,22.9041081,0 
113.5715745,22.9041081,0 
113.5715733,22.9041080,0 
113.5715721,22.9041079,0 
113.5715709,22.9041078,0 
113.5715698,22.9041077,0 
113.5715688,22.9041075,0 
113.5715679,22.9041073,0 
113.5715670,22.9041071,0 
113.5715661,22.9041068,0 
113.5715654,22.9041065,0 
113.5715647,22.9041062,0 
113.5715640,22.9041059,0 
113.5715634,22.9041055,0 
113.5715629,22.9041052,0 
113.5715625,22.9041048,0 
113.5715621,22.9041043,0 
113.5715618,22.9041039,0 
113.5715615,22.9041034,0 
</coordinates>
</LineString>
</Placemark>
</Folder>