<Folder>
<name>SV 25 273.779716 14.983979</name>
<visibility>1</visibility>
<Placemark>
<name>circle</name>
<visibility>1</visibility>
<Style>
<geomColor>FFFF007A</geomColor>
<geomScale>2</geomScale></Style>
<LineString>
<coordinates>
113.5717272,22.9039227,0 
113.5717272,22.9039222,0 
113.5717272,22.9039217,0 
113.5717273,22.9039212,0 
113.5717274,22.9039207,0 
113.5717276,22.9039201,0 
113.5717278,22.9039196,0 
113.5717280,22.9039191,0 
113.5717283,22.9039186,0 
113.5717287,22.9039181,0 
113.5717291,22.9039176,0 
113.5717295,22.9039171,0 
113.5717299,22.9039165,0 
113.5717305,22.9039160,0 
113.5717310,22.9039155,0 
113.5717316,22.9039150,0 
113.5717322,22.9039145,0 
113.5717329,22.9039140,0 
113.5717336,22.9039134,0 
113.5717344,22.9039129,0 
113.5717352,22.9039124,0 
113.5717361,22.9039119,0 
113.5717369,22.9039114,0 
113.5717379,22.9039109,0 
113.5717388,22.9039104,0 
113.5717398,22.9039099,0 
113.5717409,22.9039094,0 
113.5717419,22.9039089,0 
113.5717431,22.9039084,0 
113.5717442,22.9039079,0 
113.5717454,22.9039074,0 
113.5717466,22.9039070,0 
113.5717479,22.9039065,0 
113.5717492,22.9039060,0 
113.5717505,22.9039056,0 
113.5717519,22.9039051,0 
113.5717533,22.9039046,0 
113.5717547,22.9039042,0 
113.5717562,22.9039037,0 
113.5717577,22.9039033,0 
113.5717592,22.9039029,0 
113.5717608,22.9039024,0 
113.5717623,22.9039020,0 
113.5717640,22.9039016,0 
113.5717656,22.9039012,0 
113.5717673,22.9039008,0 
113.5717690,22.9039004,0 
113.5717707,22.9039000,0 
113.5717724,22.9038996,0 
113.5717742,22.9038993,0 
113.5717760,22.9038989,0 
113.5717778,22.9038985,0 
113.5717797,22.9038982,0 
113.5717815,22.9038978,0 
113.5717834,22.9038975,0 
113.5717853,22.9038972,0 
113.5717872,22.9038969,0 
113.5717892,22.9038966,0 
113.5717911,22.9038963,0 
113.5717931,22.9038960,0 
113.5717951,22.9038957,0 
113.5717971,22.9038954,0 
113.5717991,22.9038951,0 
113.5718011,22.9038949,0 
113.5718031,22.9038946,0 
113.5718052,22.9038944,0 
113.5718072,22.9038942,0 
113.5718093,22.9038940,0 
113.5718114,22.9038938,0 
113.5718135,22.9038936,0 
113.5718155,22.9038934,0 
113.5718176,22.9038932,0 
113.5718197,22.9038931,0 
113.5718218,22.9038929,0 
113.5718239,22.9038928,0 
113.5718260,22.9038926,0 
113.5718282,22.9038925,0 
113.5718303,22.9038924,0 
113.5718324,22.9038923,0 
113.5718345,22.9038922,0 
113.5718366,22.9038921,0 
113.5718387,22.9038920,0 
113.5718408,22.9038920,0 
113.5718428,22.9038919,0 
113.5718449,22.9038919,0 
113.5718470,22.9038919,0 
113.5718491,22.9038919,0 
113.5718511,22.9038919,0 
113.5718531,22.9038919,0 
113.5718552,22.9038919,0 
113.5718572,22.9038919,0 
113.5718592,22.9038919,0 
113.5718612,22.9038920,0 
113.5718632,22.9038920,0 
113.5718651,22.9038921,0 
113.5718671,22.9038922,0 
113.5718690,22.9038923,0 
113.5718709,22.9038924,0 
113.5718728,22.9038925,0 
113.5718747,22.9038926,0 
113.5718765,22.9038928,0 
113.5718784,22.9038929,0 
113.5718802,22.9038931,0 
113.5718820,22.9038932,0 
113.5718837,22.9038934,0 
113.5718855,22.9038936,0 
113.5718872,22.9038938,0 
113.5718889,22.9038940,0 
113.5718905,22.9038942,0 
113.5718922,22.9038944,0 
113.5718938,22.9038947,0 
113.5718953,22.9038949,0 
113.5718969,22.9038952,0 
113.5718984,22.9038954,0 
113.5718999,22.9038957,0 
113.5719013,22.9038960,0 
113.5719028,22.9038963,0 
113.5719041,22.9038966,0 
113.5719055,22.9038969,0 
113.5719068,22.9038972,0 
113.5719081,22.9038975,0 
113.5719093,22.9038979,0 
113.5719106,22.9038982,0 
113.5719117,22.9038986,0 
113.5719129,22.9038989,0 
113.5719140,22.9038993,0 
113.5719150,22.9038997,0 
113.5719161,22.9039000,0 
113.5719171,22.9039004,0 
113.5719180,22.9039008,0 
113.5719189,22.9039012,0 
113.5719198,22.9039016,0 
113.5719206,22.9039021,0 
113.5719214,22.9039025,0 
113.5719222,22.9039029,0 
113.5719229,22.9039033,0 
113.5719235,22.9039038,0 
113.5719241,22.9039042,0 
113.5719247,22.9039047,0 
113.5719253,22.9039051,0 
113.5719258,22.9039056,0 
113.5719262,22.9039061,0 
113.5719266,22.9039065,0 
113.5719270,22.9039070,0 
113.5719273,22.9039075,0 
113.5719276,22.9039080,0 
113.5719278,22.9039085,0 
113.5719280,22.9039090,0 
113.5719282,22.9039095,0 
113.5719283,22.9039099,0 
113.5719283,22.9039104,0 
113.5719283,22.9039110,0 
113.5719283,22.9039115,0 
113.5719282,22.9039120,0 
113.5719281,22.9039125,0 
113.5719279,22.9039130,0 
113.5719277,22.9039135,0 
113.5719275,22.9039140,0 
113.5719272,22.9039145,0 
113.5719269,22.9039150,0 
113.5719265,22.9039156,0 
113.5719260,22.9039161,0 
113.5719256,22.9039166,0 
113.5719251,22.9039171,0 
113.5719245,22.9039176,0 
113.5719239,22.9039181,0 
113.5719233,22.9039187,0 
113.5719226,22.9039192,0 
113.5719219,22.9039197,0 
113.5719211,22.9039202,0 
113.5719203,22.9039207,0 
113.5719195,22.9039212,0 
113.5719186,22.9039217,0 
113.5719177,22.9039222,0 
113.5719167,22.9039227,0 
113.5719157,22.9039232,0 
113.5719147,22.9039237,0 
113.5719136,22.9039242,0 
113.5719125,22.9039247,0 
113.5719113,22.9039252,0 
113.5719101,22.9039257,0 
113.5719089,22.9039262,0 
113.5719076,22.9039266,0 
113.5719063,22.9039271,0 
113.5719050,22.9039276,0 
113.5719036,22.9039280,0 
113.5719022,22.9039285,0 
113.5719008,22.9039290,0 
113.5718993,22.9039294,0 
113.5718978,22.9039298,0 
113.5718963,22.9039303,0 
113.5718948,22.9039307,0 
113.5718932,22.9039311,0 
113.5718916,22.9039315,0 
113.5718899,22.9039319,0 
113.5718883,22.9039323,0 
113.5718866,22.9039327,0 
113.5718848,22.9039331,0 
113.5718831,22.9039335,0 
113.5718813,22.9039339,0 
113.5718795,22.9039342,0 
113.5718777,22.9039346,0 
113.5718759,22.9039350,0 
113.5718740,22.9039353,0 
113.5718721,22.9039356,0 
113.5718702,22.9039360,0 
113.5718683,22.9039363,0 
113.5718664,22.9039366,0 
113.5718644,22.9039369,0 
113.5718625,22.9039372,0 
113.5718605,22.9039375,0 
113.5718585,22.9039377,0 
113.5718565,22.9039380,0 
113.5718544,22.9039382,0 
113.5718524,22.9039385,0 
113.5718503,22.9039387,0 
113.5718483,22.9039389,0 
113.5718462,22.9039392,0 
113.5718441,22.9039394,0 
113.5718421,22.9039396,0 
113.5718400,22.9039397,0 
113.5718379,22.9039399,0 
113.5718358,22.9039401,0 
113.5718337,22.9039402,0 
113.5718316,22.9039404,0 
113.5718295,22.9039405,0 
113.5718274,22.9039406,0 
113.5718253,22.9039407,0 
113.5718232,22.9039409,0 
113.5718211,22.9039409,0 
113.5718190,22.9039410,0 
113.5718169,22.9039411,0 
113.5718148,22.9039412,0 
113.5718127,22.9039412,0 
113.5718106,22.9039412,0 
113.5718085,22.9039413,0 
113.5718065,22.9039413,0 
113.5718044,22.9039413,0 
113.5718024,22.9039413,0 
113.5718003,22.9039413,0 
113.5717983,22.9039412,0 
113.5717963,22.9039412,0 
113.5717943,22.9039411,0 
113.5717923,22.9039411,0 
113.5717904,22.9039410,0 
113.5717884,22.9039409,0 
113.5717865,22.9039408,0 
113.5717846,22.9039407,0 
113.5717827,22.9039406,0 
113.5717808,22.9039405,0 
113.5717790,22.9039404,0 
113.5717771,22.9039402,0 
113.5717753,22.9039401,0 
113.5717735,22.9039399,0 
113.5717718,22.9039397,0 
113.5717701,22.9039395,0 
113.5717683,22.9039393,0 
113.5717667,22.9039391,0 
113.5717650,22.9039389,0 
113.5717634,22.9039387,0 
113.5717618,22.9039385,0 
113.5717602,22.9039382,0 
113.5717586,22.9039380,0 
113.5717571,22.9039377,0 
113.5717556,22.9039374,0 
113.5717542,22.9039371,0 
113.5717528,22.9039368,0 
113.5717514,22.9039365,0 
113.5717500,22.9039362,0 
113.5717487,22.9039359,0 
113.5717474,22.9039356,0 
113.5717462,22.9039353,0 
113.5717450,22.9039349,0 
113.5717438,22.9039346,0 
113.5717426,22.9039342,0 
113.5717415,22.9039338,0 
113.5717405,22.9039335,0 
113.5717395,22.9039331,0 
113.5717385,22.9039327,0 
113.5717375,22.9039323,0 
113.5717366,22.9039319,0 
113.5717357,22.9039315,0 
113.5717349,22.9039311,0 
113.5717341,22.9039306,0 
113.5717334,22.9039302,0 
113.5717327,22.9039298,0 
113.5717320,22.9039293,0 
113.5717314,22.9039289,0 
113.5717308,22.9039284,0 
113.5717303,22.9039280,0 
113.5717298,22.9039275,0 
113.5717293,22.9039271,0 
113.5717289,22.9039266,0 
113.5717285,22.9039261,0 
113.5717282,22.9039256,0 
113.5717279,22.9039252,0 
113.5717277,22.9039247,0 
113.5717275,22.9039242,0 
113.5717274,22.9039237,0 
113.5717273,22.9039232,0 
113.5717272,22.9039227,0 
</coordinates>
</LineString>
</Placemark>
</Folder>