<Folder>
<name>SV  4 192.849981 11.226404</name>
<visibility>1</visibility>
<Placemark>
<name>circle</name>
<visibility>1</visibility>
<Style>
<geomColor></geomColor>
<geomScale>2</geomScale></Style>
<LineString>
<coordinates>
113.5719819,22.9034231,0 
113.5719825,22.9034230,0 
113.5719832,22.9034229,0 
113.5719838,22.9034230,0 
113.5719845,22.9034231,0 
113.5719852,22.9034232,0 
113.5719859,22.9034234,0 
113.5719866,22.9034237,0 
113.5719873,22.9034240,0 
113.5719880,22.9034244,0 
113.5719888,22.9034248,0 
113.5719895,22.9034253,0 
113.5719903,22.9034259,0 
113.5719911,22.9034265,0 
113.5719919,22.9034272,0 
113.5719927,22.9034280,0 
113.5719935,22.9034288,0 
113.5719943,22.9034297,0 
113.5719952,22.9034306,0 
113.5719960,22.9034316,0 
113.5719969,22.9034326,0 
113.5719977,22.9034337,0 
113.5719986,22.9034349,0 
113.5719995,22.9034361,0 
113.5720003,22.9034373,0 
113.5720012,22.9034386,0 
113.5720021,22.9034400,0 
113.5720030,22.9034414,0 
113.5720040,22.9034429,0 
113.5720049,22.9034445,0 
113.5720058,22.9034460,0 
113.5720067,22.9034477,0 
113.5720076,22.9034494,0 
113.5720086,22.9034511,0 
113.5720095,22.9034529,0 
113.5720105,22.9034547,0 
113.5720114,22.9034566,0 
113.5720123,22.9034585,0 
113.5720133,22.9034605,0 
113.5720142,22.9034625,0 
113.5720152,22.9034646,0 
113.5720161,22.9034667,0 
113.5720171,22.9034688,0 
113.5720180,22.9034710,0 
113.5720190,22.9034732,0 
113.5720199,22.9034755,0 
113.5720209,22.9034778,0 
113.5720218,22.9034801,0 
113.5720228,22.9034825,0 
113.5720237,22.9034849,0 
113.5720246,22.9034874,0 
113.5720256,22.9034898,0 
113.5720265,22.9034924,0 
113.5720274,22.9034949,0 
113.5720283,22.9034975,0 
113.5720293,22.9035001,0 
113.5720302,22.9035027,0 
113.5720311,22.9035053,0 
113.5720320,22.9035080,0 
113.5720328,22.9035107,0 
113.5720337,22.9035134,0 
113.5720346,22.9035162,0 
113.5720355,22.9035190,0 
113.5720363,22.9035217,0 
113.5720372,22.9035245,0 
113.5720380,22.9035274,0 
113.5720388,22.9035302,0 
113.5720397,22.9035330,0 
113.5720405,22.9035359,0 
113.5720413,22.9035388,0 
113.5720421,22.9035417,0 
113.5720428,22.9035446,0 
113.5720436,22.9035475,0 
113.5720444,22.9035504,0 
113.5720451,22.9035533,0 
113.5720458,22.9035562,0 
113.5720465,22.9035591,0 
113.5720472,22.9035620,0 
113.5720479,22.9035649,0 
113.5720486,22.9035679,0 
113.5720493,22.9035708,0 
113.5720499,22.9035737,0 
113.5720506,22.9035766,0 
113.5720512,22.9035795,0 
113.5720518,22.9035824,0 
113.5720524,22.9035853,0 
113.5720529,22.9035882,0 
113.5720535,22.9035910,0 
113.5720540,22.9035939,0 
113.5720545,22.9035967,0 
113.5720550,22.9035995,0 
113.5720555,22.9036023,0 
113.5720560,22.9036051,0 
113.5720565,22.9036079,0 
113.5720569,22.9036106,0 
113.5720573,22.9036134,0 
113.5720577,22.9036161,0 
113.5720581,22.9036188,0 
113.5720585,22.9036214,0 
113.5720588,22.9036241,0 
113.5720591,22.9036267,0 
113.5720594,22.9036292,0 
113.5720597,22.9036318,0 
113.5720600,22.9036343,0 
113.5720603,22.9036368,0 
113.5720605,22.9036392,0 
113.5720607,22.9036417,0 
113.5720609,22.9036440,0 
113.5720611,22.9036464,0 
113.5720612,22.9036487,0 
113.5720613,22.9036510,0 
113.5720615,22.9036532,0 
113.5720616,22.9036554,0 
113.5720616,22.9036576,0 
113.5720617,22.9036597,0 
113.5720617,22.9036617,0 
113.5720617,22.9036638,0 
113.5720617,22.9036658,0 
113.5720617,22.9036677,0 
113.5720617,22.9036696,0 
113.5720616,22.9036714,0 
113.5720615,22.9036732,0 
113.5720614,22.9036750,0 
113.5720613,22.9036767,0 
113.5720611,22.9036783,0 
113.5720610,22.9036799,0 
113.5720608,22.9036815,0 
113.5720606,22.9036829,0 
113.5720604,22.9036844,0 
113.5720601,22.9036858,0 
113.5720599,22.9036871,0 
113.5720596,22.9036884,0 
113.5720593,22.9036896,0 
113.5720590,22.9036908,0 
113.5720586,22.9036919,0 
113.5720583,22.9036929,0 
113.5720579,22.9036939,0 
113.5720575,22.9036949,0 
113.5720571,22.9036957,0 
113.5720567,22.9036966,0 
113.5720563,22.9036973,0 
113.5720558,22.9036980,0 
113.5720553,22.9036987,0 
113.5720548,22.9036993,0 
113.5720543,22.9036998,0 
113.5720538,22.9037003,0 
113.5720532,22.9037007,0 
113.5720527,22.9037010,0 
113.5720521,22.9037013,0 
113.5720515,22.9037015,0 
113.5720509,22.9037017,0 
113.5720503,22.9037018,0 
113.5720496,22.9037018,0 
113.5720490,22.9037018,0 
113.5720483,22.9037017,0 
113.5720476,22.9037015,0 
113.5720469,22.9037013,0 
113.5720462,22.9037011,0 
113.5720455,22.9037007,0 
113.5720448,22.9037004,0 
113.5720440,22.9036999,0 
113.5720433,22.9036994,0 
113.5720425,22.9036988,0 
113.5720417,22.9036982,0 
113.5720409,22.9036975,0 
113.5720401,22.9036968,0 
113.5720393,22.9036959,0 
113.5720385,22.9036951,0 
113.5720376,22.9036942,0 
113.5720368,22.9036932,0 
113.5720359,22.9036921,0 
113.5720351,22.9036910,0 
113.5720342,22.9036899,0 
113.5720333,22.9036887,0 
113.5720324,22.9036874,0 
113.5720315,22.9036861,0 
113.5720306,22.9036847,0 
113.5720297,22.9036833,0 
113.5720288,22.9036818,0 
113.5720279,22.9036803,0 
113.5720270,22.9036787,0 
113.5720261,22.9036771,0 
113.5720251,22.9036754,0 
113.5720242,22.9036736,0 
113.5720233,22.9036719,0 
113.5720223,22.9036700,0 
113.5720214,22.9036681,0 
113.5720204,22.9036662,0 
113.5720195,22.9036642,0 
113.5720185,22.9036622,0 
113.5720176,22.9036602,0 
113.5720166,22.9036581,0 
113.5720157,22.9036559,0 
113.5720147,22.9036537,0 
113.5720138,22.9036515,0 
113.5720128,22.9036492,0 
113.5720119,22.9036469,0 
113.5720110,22.9036446,0 
113.5720100,22.9036422,0 
113.5720091,22.9036398,0 
113.5720081,22.9036374,0 
113.5720072,22.9036349,0 
113.5720063,22.9036324,0 
113.5720054,22.9036298,0 
113.5720044,22.9036273,0 
113.5720035,22.9036247,0 
113.5720026,22.9036220,0 
113.5720017,22.9036194,0 
113.5720008,22.9036167,0 
113.5719999,22.9036140,0 
113.5719991,22.9036113,0 
113.5719982,22.9036086,0 
113.5719973,22.9036058,0 
113.5719965,22.9036030,0 
113.5719956,22.9036002,0 
113.5719948,22.9035974,0 
113.5719939,22.9035945,0 
113.5719931,22.9035917,0 
113.5719923,22.9035888,0 
113.5719915,22.9035860,0 
113.5719907,22.9035831,0 
113.5719899,22.9035802,0 
113.5719892,22.9035773,0 
113.5719884,22.9035744,0 
113.5719877,22.9035715,0 
113.5719870,22.9035686,0 
113.5719862,22.9035656,0 
113.5719855,22.9035627,0 
113.5719848,22.9035598,0 
113.5719842,22.9035569,0 
113.5719835,22.9035540,0 
113.5719829,22.9035510,0 
113.5719822,22.9035481,0 
113.5719816,22.9035452,0 
113.5719810,22.9035423,0 
113.5719804,22.9035395,0 
113.5719799,22.9035366,0 
113.5719793,22.9035337,0 
113.5719788,22.9035309,0 
113.5719782,22.9035280,0 
113.5719777,22.9035252,0 
113.5719772,22.9035224,0 
113.5719768,22.9035196,0 
113.5719763,22.9035168,0 
113.5719759,22.9035141,0 
113.5719755,22.9035114,0 
113.5719751,22.9035087,0 
113.5719747,22.9035060,0 
113.5719743,22.9035033,0 
113.5719740,22.9035007,0 
113.5719736,22.9034981,0 
113.5719733,22.9034955,0 
113.5719731,22.9034930,0 
113.5719728,22.9034904,0 
113.5719725,22.9034880,0 
113.5719723,22.9034855,0 
113.5719721,22.9034831,0 
113.5719719,22.9034807,0 
113.5719717,22.9034783,0 
113.5719716,22.9034760,0 
113.5719714,22.9034738,0 
113.5719713,22.9034715,0 
113.5719712,22.9034693,0 
113.5719711,22.9034672,0 
113.5719711,22.9034651,0 
113.5719711,22.9034630,0 
113.5719710,22.9034610,0 
113.5719710,22.9034590,0 
113.5719711,22.9034571,0 
113.5719711,22.9034552,0 
113.5719712,22.9034533,0 
113.5719713,22.9034515,0 
113.5719714,22.9034498,0 
113.5719715,22.9034481,0 
113.5719716,22.9034464,0 
113.5719718,22.9034448,0 
113.5719720,22.9034433,0 
113.5719722,22.9034418,0 
113.5719724,22.9034404,0 
113.5719726,22.9034390,0 
113.5719729,22.9034376,0 
113.5719732,22.9034364,0 
113.5719735,22.9034351,0 
113.5719738,22.9034340,0 
113.5719741,22.9034329,0 
113.5719745,22.9034318,0 
113.5719749,22.9034308,0 
113.5719753,22.9034299,0 
113.5719757,22.9034290,0 
113.5719761,22.9034282,0 
113.5719765,22.9034274,0 
113.5719770,22.9034267,0 
113.5719775,22.9034261,0 
113.5719780,22.9034255,0 
113.5719785,22.9034250,0 
113.5719790,22.9034245,0 
113.5719796,22.9034241,0 
113.5719801,22.9034237,0 
113.5719807,22.9034235,0 
113.5719813,22.9034232,0 
113.5719819,22.9034231,0 
</coordinates>
</LineString>
</Placemark>
</Folder>