<Folder>
<name>SV  5 294.595868 10.084547</name>
<visibility>1</visibility>
<Placemark>
<name>circle</name>
<visibility>1</visibility>
<Style>
<geomColor>FF006400</geomColor>
<geomScale>2</geomScale></Style>
<LineString>
<coordinates>
113.5715817,22.9041186,0 
113.5715815,22.9041181,0 
113.5715813,22.9041175,0 
113.5715812,22.9041170,0 
113.5715812,22.9041164,0 
113.5715812,22.9041158,0 
113.5715814,22.9041152,0 
113.5715815,22.9041146,0 
113.5715818,22.9041139,0 
113.5715820,22.9041132,0 
113.5715824,22.9041125,0 
113.5715828,22.9041117,0 
113.5715833,22.9041110,0 
113.5715838,22.9041102,0 
113.5715844,22.9041094,0 
113.5715851,22.9041085,0 
113.5715858,22.9041077,0 
113.5715866,22.9041068,0 
113.5715875,22.9041059,0 
113.5715884,22.9041050,0 
113.5715893,22.9041040,0 
113.5715903,22.9041031,0 
113.5715914,22.9041021,0 
113.5715926,22.9041011,0 
113.5715938,22.9041001,0 
113.5715950,22.9040990,0 
113.5715963,22.9040980,0 
113.5715977,22.9040969,0 
113.5715991,22.9040958,0 
113.5716006,22.9040947,0 
113.5716021,22.9040936,0 
113.5716037,22.9040925,0 
113.5716054,22.9040913,0 
113.5716071,22.9040902,0 
113.5716088,22.9040890,0 
113.5716106,22.9040878,0 
113.5716124,22.9040866,0 
113.5716143,22.9040854,0 
113.5716163,22.9040841,0 
113.5716182,22.9040829,0 
113.5716203,22.9040816,0 
113.5716224,22.9040804,0 
113.5716245,22.9040791,0 
113.5716266,22.9040778,0 
113.5716289,22.9040765,0 
113.5716311,22.9040752,0 
113.5716334,22.9040739,0 
113.5716357,22.9040726,0 
113.5716381,22.9040713,0 
113.5716405,22.9040700,0 
113.5716429,22.9040687,0 
113.5716454,22.9040673,0 
113.5716479,22.9040660,0 
113.5716505,22.9040647,0 
113.5716531,22.9040633,0 
113.5716557,22.9040620,0 
113.5716583,22.9040606,0 
113.5716610,22.9040593,0 
113.5716637,22.9040579,0 
113.5716664,22.9040566,0 
113.5716692,22.9040553,0 
113.5716719,22.9040539,0 
113.5716747,22.9040526,0 
113.5716776,22.9040512,0 
113.5716804,22.9040499,0 
113.5716832,22.9040486,0 
113.5716861,22.9040472,0 
113.5716890,22.9040459,0 
113.5716919,22.9040446,0 
113.5716948,22.9040433,0 
113.5716978,22.9040420,0 
113.5717007,22.9040407,0 
113.5717037,22.9040394,0 
113.5717066,22.9040381,0 
113.5717096,22.9040368,0 
113.5717126,22.9040356,0 
113.5717156,22.9040343,0 
113.5717186,22.9040331,0 
113.5717216,22.9040319,0 
113.5717245,22.9040306,0 
113.5717275,22.9040294,0 
113.5717305,22.9040282,0 
113.5717335,22.9040271,0 
113.5717365,22.9040259,0 
113.5717395,22.9040247,0 
113.5717424,22.9040236,0 
113.5717454,22.9040225,0 
113.5717483,22.9040214,0 
113.5717513,22.9040203,0 
113.5717542,22.9040192,0 
113.5717571,22.9040182,0 
113.5717600,22.9040171,0 
113.5717629,22.9040161,0 
113.5717658,22.9040151,0 
113.5717686,22.9040141,0 
113.5717715,22.9040132,0 
113.5717743,22.9040122,0 
113.5717771,22.9040113,0 
113.5717798,22.9040104,0 
113.5717826,22.9040095,0 
113.5717853,22.9040087,0 
113.5717880,22.9040078,0 
113.5717906,22.9040070,0 
113.5717933,22.9040062,0 
113.5717959,22.9040054,0 
113.5717984,22.9040047,0 
113.5718010,22.9040040,0 
113.5718035,22.9040033,0 
113.5718059,22.9040026,0 
113.5718084,22.9040019,0 
113.5718108,22.9040013,0 
113.5718131,22.9040007,0 
113.5718154,22.9040001,0 
113.5718177,22.9039996,0 
113.5718199,22.9039991,0 
113.5718221,22.9039986,0 
113.5718243,22.9039981,0 
113.5718264,22.9039977,0 
113.5718285,22.9039972,0 
113.5718305,22.9039969,0 
113.5718324,22.9039965,0 
113.5718344,22.9039962,0 
113.5718362,22.9039958,0 
113.5718381,22.9039956,0 
113.5718398,22.9039953,0 
113.5718416,22.9039951,0 
113.5718432,22.9039949,0 
113.5718449,22.9039947,0 
113.5718464,22.9039946,0 
113.5718479,22.9039945,0 
113.5718494,22.9039944,0 
113.5718508,22.9039943,0 
113.5718521,22.9039943,0 
113.5718534,22.9039943,0 
113.5718547,22.9039943,0 
113.5718558,22.9039944,0 
113.5718570,22.9039945,0 
113.5718580,22.9039946,0 
113.5718590,22.9039947,0 
113.5718600,22.9039949,0 
113.5718609,22.9039951,0 
113.5718617,22.9039953,0 
113.5718624,22.9039955,0 
113.5718631,22.9039958,0 
113.5718638,22.9039961,0 
113.5718644,22.9039965,0 
113.5718649,22.9039968,0 
113.5718653,22.9039972,0 
113.5718657,22.9039976,0 
113.5718661,22.9039981,0 
113.5718663,22.9039985,0 
113.5718665,22.9039990,0 
113.5718667,22.9039995,0 
113.5718668,22.9040001,0 
113.5718668,22.9040007,0 
113.5718668,22.9040013,0 
113.5718666,22.9040019,0 
113.5718665,22.9040025,0 
113.5718662,22.9040032,0 
113.5718660,22.9040039,0 
113.5718656,22.9040046,0 
113.5718652,22.9040054,0 
113.5718647,22.9040061,0 
113.5718642,22.9040069,0 
113.5718636,22.9040077,0 
113.5718629,22.9040086,0 
113.5718622,22.9040094,0 
113.5718614,22.9040103,0 
113.5718605,22.9040112,0 
113.5718596,22.9040121,0 
113.5718587,22.9040131,0 
113.5718576,22.9040140,0 
113.5718566,22.9040150,0 
113.5718554,22.9040160,0 
113.5718542,22.9040170,0 
113.5718530,22.9040180,0 
113.5718517,22.9040191,0 
113.5718503,22.9040202,0 
113.5718489,22.9040213,0 
113.5718474,22.9040224,0 
113.5718459,22.9040235,0 
113.5718443,22.9040246,0 
113.5718426,22.9040258,0 
113.5718409,22.9040269,0 
113.5718392,22.9040281,0 
113.5718374,22.9040293,0 
113.5718356,22.9040305,0 
113.5718337,22.9040317,0 
113.5718317,22.9040330,0 
113.5718298,22.9040342,0 
113.5718277,22.9040354,0 
113.5718256,22.9040367,0 
113.5718235,22.9040380,0 
113.5718214,22.9040393,0 
113.5718191,22.9040405,0 
113.5718169,22.9040418,0 
113.5718146,22.9040431,0 
113.5718123,22.9040445,0 
113.5718099,22.9040458,0 
113.5718075,22.9040471,0 
113.5718050,22.9040484,0 
113.5718026,22.9040497,0 
113.5718001,22.9040511,0 
113.5717975,22.9040524,0 
113.5717949,22.9040538,0 
113.5717923,22.9040551,0 
113.5717897,22.9040565,0 
113.5717870,22.9040578,0 
113.5717843,22.9040591,0 
113.5717816,22.9040605,0 
113.5717788,22.9040618,0 
113.5717761,22.9040632,0 
113.5717733,22.9040645,0 
113.5717704,22.9040659,0 
113.5717676,22.9040672,0 
113.5717648,22.9040685,0 
113.5717619,22.9040698,0 
113.5717590,22.9040712,0 
113.5717561,22.9040725,0 
113.5717532,22.9040738,0 
113.5717502,22.9040751,0 
113.5717473,22.9040764,0 
113.5717443,22.9040777,0 
113.5717414,22.9040790,0 
113.5717384,22.9040802,0 
113.5717354,22.9040815,0 
113.5717324,22.9040828,0 
113.5717294,22.9040840,0 
113.5717264,22.9040852,0 
113.5717235,22.9040864,0 
113.5717205,22.9040877,0 
113.5717175,22.9040888,0 
113.5717145,22.9040900,0 
113.5717115,22.9040912,0 
113.5717085,22.9040923,0 
113.5717056,22.9040935,0 
113.5717026,22.9040946,0 
113.5716997,22.9040957,0 
113.5716967,22.9040968,0 
113.5716938,22.9040979,0 
113.5716909,22.9040989,0 
113.5716880,22.9041000,0 
113.5716851,22.9041010,0 
113.5716822,22.9041020,0 
113.5716794,22.9041030,0 
113.5716765,22.9041039,0 
113.5716737,22.9041049,0 
113.5716709,22.9041058,0 
113.5716682,22.9041067,0 
113.5716654,22.9041076,0 
113.5716627,22.9041084,0 
113.5716600,22.9041093,0 
113.5716574,22.9041101,0 
113.5716547,22.9041109,0 
113.5716521,22.9041116,0 
113.5716496,22.9041124,0 
113.5716470,22.9041131,0 
113.5716445,22.9041138,0 
113.5716421,22.9041145,0 
113.5716396,22.9041151,0 
113.5716372,22.9041158,0 
113.5716349,22.9041164,0 
113.5716326,22.9041169,0 
113.5716303,22.9041175,0 
113.5716280,22.9041180,0 
113.5716259,22.9041185,0 
113.5716237,22.9041190,0 
113.5716216,22.9041194,0 
113.5716195,22.9041198,0 
113.5716175,22.9041202,0 
113.5716156,22.9041206,0 
113.5716136,22.9041209,0 
113.5716118,22.9041212,0 
113.5716099,22.9041215,0 
113.5716082,22.9041218,0 
113.5716064,22.9041220,0 
113.5716048,22.9041222,0 
113.5716031,22.9041224,0 
113.5716016,22.9041225,0 
113.5716001,22.9041226,0 
113.5715986,22.9041227,0 
113.5715972,22.9041228,0 
113.5715959,22.9041228,0 
113.5715946,22.9041228,0 
113.5715933,22.9041228,0 
113.5715922,22.9041227,0 
113.5715910,22.9041226,0 
113.5715900,22.9041225,0 
113.5715890,22.9041224,0 
113.5715880,22.9041222,0 
113.5715871,22.9041220,0 
113.5715863,22.9041218,0 
113.5715856,22.9041215,0 
113.5715849,22.9041213,0 
113.5715842,22.9041210,0 
113.5715836,22.9041206,0 
113.5715831,22.9041203,0 
113.5715827,22.9041199,0 
113.5715823,22.9041195,0 
113.5715819,22.9041190,0 
113.5715817,22.9041186,0 
</coordinates>
</LineString>
</Placemark>
</Folder>