<Folder>
<name>SV  5 306.474104 9.221620</name>
<visibility>1</visibility>
<Placemark>
<name>circle</name>
<visibility>1</visibility>
<Style>
<geomColor>FF006400</geomColor>
<geomScale>2</geomScale></Style>
<LineString>
<coordinates>
113.5715592,22.9042683,0 
113.5715588,22.9042678,0 
113.5715585,22.9042672,0 
113.5715583,22.9042665,0 
113.5715581,22.9042659,0 
113.5715580,22.9042651,0 
113.5715580,22.9042643,0 
113.5715581,22.9042635,0 
113.5715582,22.9042626,0 
113.5715584,22.9042617,0 
113.5715587,22.9042608,0 
113.5715591,22.9042597,0 
113.5715595,22.9042587,0 
113.5715600,22.9042576,0 
113.5715606,22.9042564,0 
113.5715612,22.9042552,0 
113.5715619,22.9042540,0 
113.5715627,22.9042527,0 
113.5715636,22.9042514,0 
113.5715645,22.9042500,0 
113.5715655,22.9042486,0 
113.5715666,22.9042472,0 
113.5715677,22.9042457,0 
113.5715689,22.9042441,0 
113.5715702,22.9042426,0 
113.5715715,22.9042410,0 
113.5715729,22.9042393,0 
113.5715744,22.9042377,0 
113.5715760,22.9042359,0 
113.5715776,22.9042342,0 
113.5715792,22.9042324,0 
113.5715810,22.9042306,0 
113.5715828,22.9042287,0 
113.5715846,22.9042269,0 
113.5715866,22.9042249,0 
113.5715886,22.9042230,0 
113.5715906,22.9042210,0 
113.5715927,22.9042190,0 
113.5715949,22.9042170,0 
113.5715971,22.9042149,0 
113.5715994,22.9042128,0 
113.5716017,22.9042107,0 
113.5716041,22.9042086,0 
113.5716065,22.9042064,0 
113.5716090,22.9042043,0 
113.5716115,22.9042021,0 
113.5716141,22.9041998,0 
113.5716168,22.9041976,0 
113.5716194,22.9041953,0 
113.5716222,22.9041931,0 
113.5716249,22.9041908,0 
113.5716278,22.9041885,0 
113.5716306,22.9041861,0 
113.5716335,22.9041838,0 
113.5716365,22.9041815,0 
113.5716394,22.9041791,0 
113.5716425,22.9041767,0 
113.5716455,22.9041744,0 
113.5716486,22.9041720,0 
113.5716517,22.9041696,0 
113.5716549,22.9041672,0 
113.5716581,22.9041648,0 
113.5716613,22.9041624,0 
113.5716645,22.9041599,0 
113.5716678,22.9041575,0 
113.5716711,22.9041551,0 
113.5716744,22.9041527,0 
113.5716777,22.9041503,0 
113.5716811,22.9041479,0 
113.5716845,22.9041455,0 
113.5716879,22.9041431,0 
113.5716913,22.9041407,0 
113.5716947,22.9041383,0 
113.5716982,22.9041359,0 
113.5717016,22.9041335,0 
113.5717051,22.9041311,0 
113.5717085,22.9041288,0 
113.5717120,22.9041264,0 
113.5717155,22.9041241,0 
113.5717190,22.9041218,0 
113.5717225,22.9041195,0 
113.5717260,22.9041172,0 
113.5717295,22.9041149,0 
113.5717330,22.9041127,0 
113.5717364,22.9041105,0 
113.5717399,22.9041082,0 
113.5717434,22.9041061,0 
113.5717469,22.9041039,0 
113.5717503,22.9041017,0 
113.5717538,22.9040996,0 
113.5717572,22.9040975,0 
113.5717606,22.9040954,0 
113.5717640,22.9040934,0 
113.5717674,22.9040914,0 
113.5717707,22.9040894,0 
113.5717741,22.9040874,0 
113.5717774,22.9040855,0 
113.5717807,22.9040836,0 
113.5717840,22.9040817,0 
113.5717872,22.9040799,0 
113.5717905,22.9040781,0 
113.5717937,22.9040763,0 
113.5717968,22.9040746,0 
113.5717999,22.9040729,0 
113.5718030,22.9040712,0 
113.5718061,22.9040696,0 
113.5718091,22.9040680,0 
113.5718121,22.9040664,0 
113.5718151,22.9040649,0 
113.5718180,22.9040634,0 
113.5718209,22.9040620,0 
113.5718237,22.9040606,0 
113.5718265,22.9040593,0 
113.5718292,22.9040580,0 
113.5718319,22.9040567,0 
113.5718346,22.9040555,0 
113.5718372,22.9040543,0 
113.5718397,22.9040532,0 
113.5718422,22.9040521,0 
113.5718447,22.9040510,0 
113.5718471,22.9040500,0 
113.5718494,22.9040491,0 
113.5718517,22.9040482,0 
113.5718539,22.9040473,0 
113.5718561,22.9040465,0 
113.5718582,22.9040458,0 
113.5718603,22.9040450,0 
113.5718623,22.9040444,0 
113.5718642,22.9040438,0 
113.5718661,22.9040432,0 
113.5718679,22.9040427,0 
113.5718697,22.9040422,0 
113.5718714,22.9040418,0 
113.5718730,22.9040414,0 
113.5718745,22.9040411,0 
113.5718760,22.9040408,0 
113.5718775,22.9040406,0 
113.5718788,22.9040404,0 
113.5718801,22.9040403,0 
113.5718814,22.9040403,0 
113.5718825,22.9040402,0 
113.5718836,22.9040403,0 
113.5718846,22.9040404,0 
113.5718856,22.9040405,0 
113.5718864,22.9040407,0 
113.5718872,22.9040409,0 
113.5718880,22.9040412,0 
113.5718886,22.9040416,0 
113.5718892,22.9040419,0 
113.5718898,22.9040424,0 
113.5718902,22.9040429,0 
113.5718906,22.9040434,0 
113.5718909,22.9040440,0 
113.5718911,22.9040446,0 
113.5718913,22.9040453,0 
113.5718913,22.9040460,0 
113.5718914,22.9040468,0 
113.5718913,22.9040476,0 
113.5718912,22.9040485,0 
113.5718909,22.9040494,0 
113.5718907,22.9040504,0 
113.5718903,22.9040514,0 
113.5718899,22.9040525,0 
113.5718894,22.9040536,0 
113.5718888,22.9040547,0 
113.5718882,22.9040559,0 
113.5718874,22.9040572,0 
113.5718867,22.9040585,0 
113.5718858,22.9040598,0 
113.5718849,22.9040611,0 
113.5718839,22.9040625,0 
113.5718828,22.9040640,0 
113.5718817,22.9040655,0 
113.5718805,22.9040670,0 
113.5718792,22.9040686,0 
113.5718778,22.9040702,0 
113.5718764,22.9040718,0 
113.5718749,22.9040735,0 
113.5718734,22.9040752,0 
113.5718718,22.9040770,0 
113.5718701,22.9040788,0 
113.5718684,22.9040806,0 
113.5718666,22.9040824,0 
113.5718647,22.9040843,0 
113.5718628,22.9040862,0 
113.5718608,22.9040882,0 
113.5718588,22.9040901,0 
113.5718567,22.9040921,0 
113.5718545,22.9040942,0 
113.5718523,22.9040962,0 
113.5718500,22.9040983,0 
113.5718477,22.9041004,0 
113.5718453,22.9041026,0 
113.5718429,22.9041047,0 
113.5718404,22.9041069,0 
113.5718378,22.9041091,0 
113.5718352,22.9041113,0 
113.5718326,22.9041136,0 
113.5718299,22.9041158,0 
113.5718272,22.9041181,0 
113.5718244,22.9041204,0 
113.5718216,22.9041227,0 
113.5718187,22.9041250,0 
113.5718158,22.9041274,0 
113.5718129,22.9041297,0 
113.5718099,22.9041321,0 
113.5718069,22.9041344,0 
113.5718038,22.9041368,0 
113.5718008,22.9041392,0 
113.5717976,22.9041416,0 
113.5717945,22.9041440,0 
113.5717913,22.9041464,0 
113.5717881,22.9041488,0 
113.5717848,22.9041512,0 
113.5717816,22.9041536,0 
113.5717783,22.9041560,0 
113.5717750,22.9041585,0 
113.5717716,22.9041609,0 
113.5717683,22.9041633,0 
113.5717649,22.9041657,0 
113.5717615,22.9041681,0 
113.5717581,22.9041705,0 
113.5717546,22.9041729,0 
113.5717512,22.9041753,0 
113.5717478,22.9041776,0 
113.5717443,22.9041800,0 
113.5717408,22.9041824,0 
113.5717373,22.9041847,0 
113.5717339,22.9041870,0 
113.5717304,22.9041894,0 
113.5717269,22.9041917,0 
113.5717234,22.9041939,0 
113.5717199,22.9041962,0 
113.5717164,22.9041985,0 
113.5717129,22.9042007,0 
113.5717095,22.9042029,0 
113.5717060,22.9042051,0 
113.5717025,22.9042073,0 
113.5716991,22.9042094,0 
113.5716956,22.9042116,0 
113.5716922,22.9042137,0 
113.5716888,22.9042157,0 
113.5716854,22.9042178,0 
113.5716820,22.9042198,0 
113.5716786,22.9042218,0 
113.5716753,22.9042237,0 
113.5716720,22.9042257,0 
113.5716687,22.9042276,0 
113.5716654,22.9042295,0 
113.5716621,22.9042313,0 
113.5716589,22.9042331,0 
113.5716557,22.9042349,0 
113.5716525,22.9042366,0 
113.5716494,22.9042383,0 
113.5716463,22.9042400,0 
113.5716433,22.9042416,0 
113.5716402,22.9042432,0 
113.5716372,22.9042447,0 
113.5716343,22.9042463,0 
113.5716314,22.9042477,0 
113.5716285,22.9042492,0 
113.5716257,22.9042506,0 
113.5716229,22.9042519,0 
113.5716201,22.9042532,0 
113.5716174,22.9042545,0 
113.5716148,22.9042557,0 
113.5716122,22.9042569,0 
113.5716096,22.9042580,0 
113.5716071,22.9042591,0 
113.5716047,22.9042601,0 
113.5716023,22.9042611,0 
113.5716000,22.9042621,0 
113.5715977,22.9042630,0 
113.5715954,22.9042638,0 
113.5715933,22.9042647,0 
113.5715911,22.9042654,0 
113.5715891,22.9042661,0 
113.5715871,22.9042668,0 
113.5715851,22.9042674,0 
113.5715833,22.9042680,0 
113.5715814,22.9042685,0 
113.5715797,22.9042690,0 
113.5715780,22.9042694,0 
113.5715764,22.9042697,0 
113.5715748,22.9042701,0 
113.5715733,22.9042703,0 
113.5715719,22.9042705,0 
113.5715705,22.9042707,0 
113.5715692,22.9042708,0 
113.5715680,22.9042709,0 
113.5715669,22.9042709,0 
113.5715658,22.9042709,0 
113.5715648,22.9042708,0 
113.5715638,22.9042707,0 
113.5715629,22.9042705,0 
113.5715621,22.9042702,0 
113.5715614,22.9042699,0 
113.5715607,22.9042696,0 
113.5715601,22.9042692,0 
113.5715596,22.9042688,0 
113.5715592,22.9042683,0 
</coordinates>
</LineString>
</Placemark>
</Folder>