<Folder>
<name>SV 32 249.285667 8.729243</name>
<visibility>1</visibility>
<Placemark>
<name>circle</name>
<visibility>1</visibility>
<Style>
<geomColor></geomColor>
<geomScale>2</geomScale></Style>
<LineString>
<coordinates>
113.5714651,22.9036788,0 
113.5714654,22.9036783,0 
113.5714657,22.9036778,0 
113.5714661,22.9036774,0 
113.5714666,22.9036769,0 
113.5714672,22.9036765,0 
113.5714678,22.9036761,0 
113.5714686,22.9036758,0 
113.5714694,22.9036755,0 
113.5714703,22.9036752,0 
113.5714712,22.9036749,0 
113.5714723,22.9036747,0 
113.5714734,22.9036745,0 
113.5714746,22.9036743,0 
113.5714759,22.9036742,0 
113.5714772,22.9036741,0 
113.5714787,22.9036740,0 
113.5714801,22.9036739,0 
113.5714817,22.9036739,0 
113.5714834,22.9036739,0 
113.5714851,22.9036740,0 
113.5714869,22.9036740,0 
113.5714887,22.9036741,0 
113.5714906,22.9036743,0 
113.5714926,22.9036744,0 
113.5714947,22.9036746,0 
113.5714968,22.9036748,0 
113.5714990,22.9036751,0 
113.5715013,22.9036753,0 
113.5715036,22.9036757,0 
113.5715060,22.9036760,0 
113.5715084,22.9036764,0 
113.5715109,22.9036767,0 
113.5715135,22.9036772,0 
113.5715161,22.9036776,0 
113.5715188,22.9036781,0 
113.5715216,22.9036786,0 
113.5715244,22.9036791,0 
113.5715272,22.9036797,0 
113.5715301,22.9036803,0 
113.5715331,22.9036809,0 
113.5715361,22.9036815,0 
113.5715391,22.9036822,0 
113.5715422,22.9036829,0 
113.5715454,22.9036836,0 
113.5715486,22.9036844,0 
113.5715518,22.9036852,0 
113.5715551,22.9036860,0 
113.5715584,22.9036868,0 
113.5715617,22.9036876,0 
113.5715651,22.9036885,0 
113.5715686,22.9036894,0 
113.5715720,22.9036903,0 
113.5715755,22.9036913,0 
113.5715790,22.9036922,0 
113.5715826,22.9036932,0 
113.5715862,22.9036942,0 
113.5715898,22.9036952,0 
113.5715934,22.9036963,0 
113.5715971,22.9036974,0 
113.5716008,22.9036984,0 
113.5716045,22.9036995,0 
113.5716082,22.9037007,0 
113.5716119,22.9037018,0 
113.5716157,22.9037030,0 
113.5716194,22.9037042,0 
113.5716232,22.9037054,0 
113.5716270,22.9037066,0 
113.5716308,22.9037078,0 
113.5716346,22.9037090,0 
113.5716384,22.9037103,0 
113.5716422,22.9037116,0 
113.5716461,22.9037129,0 
113.5716499,22.9037142,0 
113.5716537,22.9037155,0 
113.5716575,22.9037168,0 
113.5716613,22.9037181,0 
113.5716651,22.9037195,0 
113.5716689,22.9037208,0 
113.5716727,22.9037222,0 
113.5716765,22.9037235,0 
113.5716802,22.9037249,0 
113.5716840,22.9037263,0 
113.5716877,22.9037277,0 
113.5716914,22.9037291,0 
113.5716951,22.9037305,0 
113.5716988,22.9037319,0 
113.5717024,22.9037333,0 
113.5717061,22.9037348,0 
113.5717097,22.9037362,0 
113.5717132,22.9037376,0 
113.5717168,22.9037390,0 
113.5717203,22.9037405,0 
113.5717238,22.9037419,0 
113.5717272,22.9037433,0 
113.5717306,22.9037448,0 
113.5717340,22.9037462,0 
113.5717373,22.9037476,0 
113.5717406,22.9037490,0 
113.5717439,22.9037505,0 
113.5717471,22.9037519,0 
113.5717503,22.9037533,0 
113.5717534,22.9037547,0 
113.5717565,22.9037561,0 
113.5717595,22.9037575,0 
113.5717625,22.9037589,0 
113.5717654,22.9037603,0 
113.5717683,22.9037617,0 
113.5717711,22.9037630,0 
113.5717739,22.9037644,0 
113.5717766,22.9037657,0 
113.5717792,22.9037671,0 
113.5717818,22.9037684,0 
113.5717844,22.9037697,0 
113.5717869,22.9037710,0 
113.5717893,22.9037723,0 
113.5717916,22.9037736,0 
113.5717939,22.9037748,0 
113.5717962,22.9037761,0 
113.5717983,22.9037773,0 
113.5718004,22.9037786,0 
113.5718025,22.9037798,0 
113.5718044,22.9037809,0 
113.5718063,22.9037821,0 
113.5718081,22.9037833,0 
113.5718099,22.9037844,0 
113.5718116,22.9037855,0 
113.5718132,22.9037866,0 
113.5718147,22.9037877,0 
113.5718162,22.9037887,0 
113.5718176,22.9037898,0 
113.5718189,22.9037908,0 
113.5718201,22.9037918,0 
113.5718213,22.9037928,0 
113.5718224,22.9037937,0 
113.5718234,22.9037946,0 
113.5718243,22.9037956,0 
113.5718251,22.9037964,0 
113.5718259,22.9037973,0 
113.5718266,22.9037981,0 
113.5718272,22.9037989,0 
113.5718278,22.9037997,0 
113.5718282,22.9038005,0 
113.5718286,22.9038012,0 
113.5718289,22.9038019,0 
113.5718291,22.9038026,0 
113.5718293,22.9038033,0 
113.5718293,22.9038039,0 
113.5718293,22.9038045,0 
113.5718292,22.9038051,0 
113.5718290,22.9038056,0 
113.5718288,22.9038061,0 
113.5718284,22.9038066,0 
113.5718280,22.9038071,0 
113.5718275,22.9038075,0 
113.5718269,22.9038079,0 
113.5718263,22.9038083,0 
113.5718256,22.9038086,0 
113.5718247,22.9038090,0 
113.5718239,22.9038093,0 
113.5718229,22.9038095,0 
113.5718218,22.9038097,0 
113.5718207,22.9038099,0 
113.5718195,22.9038101,0 
113.5718183,22.9038103,0 
113.5718169,22.9038104,0 
113.5718155,22.9038105,0 
113.5718140,22.9038105,0 
113.5718124,22.9038105,0 
113.5718108,22.9038105,0 
113.5718091,22.9038105,0 
113.5718073,22.9038104,0 
113.5718054,22.9038103,0 
113.5718035,22.9038102,0 
113.5718015,22.9038100,0 
113.5717994,22.9038098,0 
113.5717973,22.9038096,0 
113.5717951,22.9038094,0 
113.5717929,22.9038091,0 
113.5717905,22.9038088,0 
113.5717881,22.9038085,0 
113.5717857,22.9038081,0 
113.5717832,22.9038077,0 
113.5717806,22.9038073,0 
113.5717780,22.9038068,0 
113.5717753,22.9038064,0 
113.5717726,22.9038058,0 
113.5717698,22.9038053,0 
113.5717669,22.9038048,0 
113.5717640,22.9038042,0 
113.5717611,22.9038035,0 
113.5717581,22.9038029,0 
113.5717550,22.9038022,0 
113.5717519,22.9038015,0 
113.5717488,22.9038008,0 
113.5717456,22.9038001,0 
113.5717423,22.9037993,0 
113.5717391,22.9037985,0 
113.5717358,22.9037977,0 
113.5717324,22.9037968,0 
113.5717290,22.9037959,0 
113.5717256,22.9037951,0 
113.5717221,22.9037941,0 
113.5717186,22.9037932,0 
113.5717151,22.9037922,0 
113.5717115,22.9037912,0 
113.5717080,22.9037902,0 
113.5717043,22.9037892,0 
113.5717007,22.9037882,0 
113.5716970,22.9037871,0 
113.5716934,22.9037860,0 
113.5716897,22.9037849,0 
113.5716859,22.9037838,0 
113.5716822,22.9037826,0 
113.5716785,22.9037815,0 
113.5716747,22.9037803,0 
113.5716709,22.9037791,0 
113.5716671,22.9037779,0 
113.5716633,22.9037767,0 
113.5716595,22.9037754,0 
113.5716557,22.9037742,0 
113.5716519,22.9037729,0 
113.5716481,22.9037716,0 
113.5716443,22.9037703,0 
113.5716404,22.9037690,0 
113.5716366,22.9037677,0 
113.5716328,22.9037663,0 
113.5716290,22.9037650,0 
113.5716252,22.9037636,0 
113.5716214,22.9037623,0 
113.5716177,22.9037609,0 
113.5716139,22.9037595,0 
113.5716102,22.9037581,0 
113.5716064,22.9037567,0 
113.5716027,22.9037553,0 
113.5715990,22.9037539,0 
113.5715953,22.9037525,0 
113.5715917,22.9037511,0 
113.5715881,22.9037497,0 
113.5715845,22.9037483,0 
113.5715809,22.9037468,0 
113.5715774,22.9037454,0 
113.5715738,22.9037440,0 
113.5715704,22.9037425,0 
113.5715669,22.9037411,0 
113.5715635,22.9037397,0 
113.5715601,22.9037383,0 
113.5715568,22.9037368,0 
113.5715535,22.9037354,0 
113.5715502,22.9037340,0 
113.5715470,22.9037326,0 
113.5715439,22.9037311,0 
113.5715407,22.9037297,0 
113.5715377,22.9037283,0 
113.5715346,22.9037269,0 
113.5715317,22.9037255,0 
113.5715287,22.9037242,0 
113.5715258,22.9037228,0 
113.5715230,22.9037214,0 
113.5715203,22.9037201,0 
113.5715175,22.9037187,0 
113.5715149,22.9037174,0 
113.5715123,22.9037160,0 
113.5715097,22.9037147,0 
113.5715073,22.9037134,0 
113.5715048,22.9037121,0 
113.5715025,22.9037109,0 
113.5715002,22.9037096,0 
113.5714980,22.9037083,0 
113.5714958,22.9037071,0 
113.5714937,22.9037059,0 
113.5714917,22.9037047,0 
113.5714897,22.9037035,0 
113.5714878,22.9037023,0 
113.5714860,22.9037012,0 
113.5714843,22.9037000,0 
113.5714826,22.9036989,0 
113.5714810,22.9036978,0 
113.5714794,22.9036968,0 
113.5714780,22.9036957,0 
113.5714766,22.9036947,0 
113.5714753,22.9036936,0 
113.5714740,22.9036927,0 
113.5714729,22.9036917,0 
113.5714718,22.9036907,0 
113.5714708,22.9036898,0 
113.5714698,22.9036889,0 
113.5714690,22.9036880,0 
113.5714682,22.9036872,0 
113.5714675,22.9036863,0 
113.5714669,22.9036855,0 
113.5714664,22.9036847,0 
113.5714659,22.9036840,0 
113.5714655,22.9036832,0 
113.5714652,22.9036825,0 
113.5714650,22.9036818,0 
113.5714649,22.9036812,0 
113.5714648,22.9036806,0 
113.5714648,22.9036800,0 
113.5714649,22.9036794,0 
113.5714651,22.9036788,0 
</coordinates>
</LineString>
</Placemark>
</Folder>